iata_code,local_code,name,latitude,longitude,iso_country,iso_region,municipality
NUP,16A,Nunapitchuk Airport,60.905591,-162.440454,US,US-AK,Nunapitchuk
KKK,1KC,Kalakaket Creek AS Airport,64.4166257,-156.8203926,US,US-AK,Kalakaket Creek
MHS,1O6,Dunsmuir Muni-Mott Airport,41.263199,-122.272003,US,US-CA,Dunsmuir
NIR,TX2,Chase Field Industrial Airport,28.362444,-97.661917,US,US-TX,Beeville
GCT,1Z1,Grand Canyon Bar Ten Airstrip,36.258614,-113.231159,US,US-AZ,Littlefield
LVD,2AK,Lime Village Airport,61.35910034,-155.4400024,US,US-AK,Lime Village
OTN,I20,Ed-Air Airport,38.851782,-87.49987,US,US-IN,Oaktown
TLF,2K5,Telida Airport,63.39390182,-153.2689972,US,US-AK,Telida
TEH,3T4,Tetlin Airport,63.124618,-142.518005,US,US-AK,Tetlin
VRS,3VS,Roy Otten Memorial Airfield,38.42779922,-92.87519836,US,US-MO,Versailles
ATT,4A2,Atmautluak Airport,60.866699,-162.272996,US,US-AK,Atmautluak
LIV,4AK,Livengood Camp Airport,65.467,-148.6534,US,US-AK,Livengood
PDB,4K0,Pedro Bay Airport,59.796925,-154.129994,US,US-AK,Pedro Bay
KOZ,4K5,Ouzinkie Airport,57.942094,-152.464314,US,US-AK,Ouzinkie
TNK,4KA,Tununak Airport,60.569638,-165.246649,US,US-AK,Tununak
MNT,51Z,Minto Al Wright Airport,65.147991,-149.368658,US,US-AK,Minto
WKK,5A8,Aleknagik / New Airport,59.2826004,-158.6179962,US,US-AK,Aleknagik
NNK,5NK,Naknek Airport,58.735633,-157.02216,US,US-AK,Naknek
MMN,6B6,Minute Man Air Field,42.460298,-71.519031,US,US-MA,Stow
TEK,7KA,Tatitlek Airport,60.871449,-146.690297,US,US-AK,Tatitlek
CHU,9A3,Chuathbaluk Airport,61.579102,-159.216003,US,US-AK,Chuathbaluk
UGS,9A8,Ugashik Airport,57.523476,-157.396344,US,US-AK,Ugashik
KLL,9Z8,Levelock Airport,59.12606,-156.860906,US,US-AK,Levelock
WTL,A61,Tuntutuliak Airport,60.351243,-162.654476,US,US-AK,Tuntutuliak
TWA,A63,Twin Hills Airport,59.074713,-160.274992,US,US-AK,Twin Hills
KCQ,A79,Chignik Lake Airport,56.25500107,-158.7749939,US,US-AK,Chignik Lake
AQY,AQY,Girdwood-Alyeska Airport,60.968774,-149.119792,US,US-AK,Girdwood
BYA,BYA,Boundary Airport,64.077678,-141.122088,US,US-AK,Boundary
CHP,CHP,Circle Hot Springs Airport,65.48549652,-144.6109924,US,US-AK,Circle Hot Springs
CKD,CJX,Crooked Creek Airport,61.870315,-158.137636,US,US-AK,Crooked Creek
CKU,CKU,Cordova Municipal Airport,60.54389954,-145.727005,US,US-AK,Cordova
CKX,CKX,Chicken Airport,64.066495,-141.951342,US,US-AK,Chicken
CXC,CXC,Chitina Airport,61.582901,-144.427002,US,US-AK,Chitina
CZN,CZN,Chisana Airport,62.071201,-142.048004,US,US-AK,Chisana
CZO,CZO,Chistochina Airport,62.56349945,-144.6690063,US,US-AK,Chistochina
IUA,IUA,Canandaigua Airport,42.908902,-77.325226,US,US-NY,Ontario County IDA
DJN,D66,Delta Junction Airport,64.049861,-145.722656,US,US-AK,Delta Junction
DCK,DCK,Dahl Creek Airport,66.943298,-156.904999,US,US-AK,Dahl Creek
RGR,F23,Ranger Municipal Airport,32.45259857,-98.68280029,US,US-TX,Ranger
FLT,FLT,Flat Airport,62.45259857,-157.9889984,US,US-AK,Flat
GNU,GNU,Goodnews Airport,59.117561,-161.575241,US,US-AK,Goodnews
JLA,JLA,Quartz Creek Airport,60.484235,-149.722909,US,US-AK,Cooper Landing
AMK,00C,Animas Air Park,37.203201,-107.869003,US,US-CO,Durango
BDX,00F,Broadus Airport,45.470462,-105.457145,US,US-MT,Broadus
EUE,05U,Eureka Airport,39.60419846,-116.0049973,US,US-NV,Eureka
KPT,06U,Jackpot Airport/Hayden Field,41.97600174,-114.6579971,US,US-NV,Jackpot
RLA,K07,Rolla Downtown Airport,37.935699,-91.813499,US,US-MO,Rolla
FID,0B8,Elizabeth Field,41.252099,-72.032218,US,US-NY,Fishers Island
HUD,0K7,Humboldt Municipal Airport,42.734831,-94.245315,US,US-IA,Humboldt
TWD,0S9,Jefferson County International Airport,48.05379868,-122.810997,US,US-WA,Port Townsend
MVM,0V7,Kayenta Airport,36.716444,-110.228444,US,US-AZ,Kayenta
HCC,1B1,Columbia County Airport,42.291302,-73.710297,US,US-NY,Hudson
AHD,1F0,Ardmore Downtown Executive Airport,34.14699936,-97.12270355,US,US-OK,Ardmore
GCW,1G4,Grand Canyon West Airport,35.985787,-113.817072,US,US-AZ,Peach Springs
CKE,1O2,Lampson Field,38.99060059,-122.901001,US,US-CA,Lakeport
ROF,1O5,Montague-Yreka Rohrer Field,41.73040009,-122.5459976,US,US-CA,Montague
CNE,1V6,Fremont County Airport,38.429739,-105.108562,US,US-CO,Penrose
COP,K23,Cooperstown-Westville Airport,42.629552,-74.890445,US,US-NY,Cooperstown
CIL,K29,Council Airport,64.89790344,-163.7030029,US,US-AK,Council
NWH,2B3,Parlin Field,43.3881,-72.189301,US,US-NH,Newport
IRB,2F0,Iraan Municipal Airport,30.90570068,-101.8919983,US,US-TX,Iraan
ODM,2G4,Garrett County Airport,39.580819,-79.33573,US,US-MD,Accident
GNF,2O1,Gansner Field,39.943902,-120.945,US,US-CA,Quincy
CHZ,2S7,Chiloquin State Airport,42.57944,-121.879063,US,US-OR,Chiloquin
LTW,2W6,St. Mary's County Regional Airport,38.315399,-76.550102,US,US-MD,California
USC,35A,"Union County, Troy Shelton Field",34.687046,-81.64105,US,US-SC,Union
AHF,37V,Arapahoe Municipal Airport,40.341576,-99.907839,US,US-NE,Arapahoe
PCT,39N,Princeton Airport,40.39920044,-74.6588974,US,US-NJ,Princeton/Rocky Hill
NRI,3O9,Grand Lake Regional Airport,36.57759857,-94.86190033,US,US-OK,Afton
GTP,3S8,Grants Pass Airport,42.510101,-123.388,US,US-OR,Grants Pass
NLE,3TR,Jerry Tyler Memorial Airport,41.83589935,-86.22519684,US,US-MI,Niles
GCD,3W7,Grand Coulee Dam Airport,47.92200089,-119.0830002,US,US-WA,Electric City
VLE,40G,Valle Airport,35.65060043,-112.1480026,US,US-AZ,Grand Canyon
FPY,FPY,Perry-Foley Airport,30.0693,-83.580597,US,US-FL,Perry
NTJ,41U,Manti-Ephraim Airport,39.32910156,-111.6149979,US,US-UT,Manti
SBO,44U,Salina Gunnison Airport,39.02909851,-111.8379974,US,US-UT,Salina
JVI,47N,Central Jersey Regional Airport,40.5243988,-74.5983963,US,US-NJ,Manville
UCE,4R7,Eunice Airport,30.46629906,-92.42379761,US,US-LA,Eunice
GOL,4S1,Gold Beach Municipal Airport,42.41339874,-124.4240036,US,US-OR,Gold Beach
KKT,50I,Kentland Municipal Airport,40.758733,-87.429457,US,US-IN,Kentland
PRW,5N2,Prentice Airport,45.538313,-90.275978,US,US-WI,Prentice
EGP,5T9,Maverick County Memorial International Airport,28.859766,-100.516682,US,US-TX,Eagle Pass
BLD,BVU,Boulder City Municipal Airport,35.947161,-114.858799,US,US-NV,Boulder City
MFH,67L,Mesquite International Airport,36.833105,-114.055928,US,US-NV,Mesquite
ECA,6D9,Iosco County Airport,44.312801,-83.422302,US,US-MI,East Tawas
FMU,6S2,Florence Municipal Airport,43.98279953,-124.1110001,US,US-OR,Florence
OTS,74S,Anacortes Airport,48.498513,-122.662513,US,US-WA,Anacortes
ROL,74V,Roosevelt Municipal Airport,40.278301,-110.051003,US,US-UT,Roosevelt
CTK,7G9,Canton Municipal Airport,43.308842,-96.571225,US,US-SD,Canton
WPO,7V2,North Fork Valley Airport,38.831412,-107.645763,US,US-CO,Paonia
ATE,80F,Antlers Municipal Airport,34.19260025,-95.64990234,US,US-OK,Antlers
ASQ,TMT,Austin Airport,39.467708,-117.197576,US,US-NV,Austin
AAF,AAF,Apalachicola Regional Airport,29.727501,-85.027496,US,US-FL,Apalachicola
ABE,ABE,Lehigh Valley International Airport,40.651773,-75.442797,US,US-PA,Allentown
ABI,ABI,Abilene Regional Airport,32.41130066,-99.68190002,US,US-TX,Abilene
ABQ,ABQ,Albuquerque International Sunport,35.039976,-106.608925,US,US-NM,Albuquerque
ABR,ABR,Aberdeen Regional Airport,45.44910049,-98.42179871,US,US-SD,Aberdeen
ABY,ABY,Southwest Georgia Regional Airport,31.532946,-84.196215,US,US-GA,Albany
ACB,ACB,Antrim County Airport,44.988602,-85.198402,US,US-MI,Bellaire
ACK,ACK,Nantucket Memorial Airport,41.25310135,-70.06020355,US,US-MA,Nantucket
ACT,ACT,Waco Regional Airport,31.61129951,-97.23049927,US,US-TX,Waco
ACV,ACV,California Redwood Coast-Humboldt County Airport,40.978101,-124.109,US,US-CA,Arcata/Eureka
ACY,ACY,Atlantic City International Airport,39.45759964,-74.57720184,US,US-NJ,Atlantic City
ADG,ADG,Lenawee County Airport,41.866205,-84.077983,US,US-MI,Adrian
ADT,ADH,Ada Regional Airport,34.805214,-96.671988,US,US-OK,Ada
ADM,ADM,Ardmore Municipal Airport,34.30301,-97.0196342,US,US-OK,Ardmore
ADS,ADS,Addison Airport,32.96860123,-96.83640289,US,US-TX,Dallas
ADW,ADW,Joint Base Andrews,38.810799,-76.866997,US,US-MD,Camp Springs
AEL,AEL,Albert Lea Municipal Airport,43.68149948,-93.36720276,US,US-MN,Albert Lea
AEX,AEX,Alexandria International Airport,31.3274,-92.549797,US,US-LA,Alexandria
AFF,AFF,USAF Academy Airfield,38.972497,-104.821125,US,US-CO,Colorado Springs
WSG,AFJ,Washington County Airport,40.136501,-80.290199,US,US-PA,Washington
AFN,AFN,Jaffrey Airfield Silver Ranch Airport,42.805099,-72.002998,US,US-NH,Jaffrey
AFO,AFO,Afton Municipal Airport,42.71120071,-110.9420013,US,US-WY,Afton
AFW,AFW,Perot Field/Fort Worth Alliance Airport,32.99044,-97.31947,US,US-TX,Fort Worth
AGC,AGC,Allegheny County Airport,40.354401,-79.930199,US,US-PA,Pittsburgh
AGO,AGO,Magnolia Municipal Airport / Ralph C Weiser Field,33.228001,-93.217002,US,US-AR,Magnolia
AGS,AGS,Augusta Regional At Bush Field,33.3699,-81.9645,US,US-GA,Augusta
AHC,AHC,Amedee Army Air Field,40.26620102,-120.1529999,US,US-CA,Herlong
AHH,AHH,Amery Municipal Airport,45.28110123,-92.37539673,US,US-WI,Amery
AHN,AHN,Athens Ben Epps Airport,33.948842,-83.325634,US,US-GA,Athens
AIA,AIA,Alliance Municipal Airport,42.052543,-102.803965,US,US-NE,Alliance
AID,AID,Anderson Municipal Darlington Field,40.10860062,-85.61299896,US,US-IN,Anderson
AIK,AIK,Aiken Regional Airport,33.649399,-81.684998,US,US-SC,Aiken
AIO,AIO,Atlantic Municipal Airport,41.40729904,-95.04689789,US,US-IA,Atlantic
AIV,AIV,George Downer Airport,33.106499,-88.1978,US,US-AL,Aliceville
AIZ,AIZ,Lee C Fine Memorial Airport,38.09600067,-92.54949951,US,US-MO,Kaiser Lake Ozark
AKO,AKO,Colorado Plains Regional Airport,40.17559814,-103.2220001,US,US-CO,Akron
AKC,AKR,Akron Fulton International Airport,41.037355,-81.46784,US,US-OH,Akron
ALB,ALB,Albany International Airport,42.74829865,-73.80169678,US,US-NY,Albany
ALI,ALI,Alice International Airport,27.7409,-98.026901,US,US-TX,Alice
ALM,ALM,Alamogordo White Sands Regional Airport,32.837818,-105.993149,US,US-NM,Alamogordo
ALN,ALN,St Louis Regional Airport,38.89030075,-90.04599762,US,US-IL,Alton/St Louis
ALO,ALO,Waterloo Regional Airport,42.55709839,-92.40029907,US,US-IA,Waterloo
ALS,ALS,San Luis Valley Regional Airport/Bergman Field,37.434898,-105.866997,US,US-CO,Alamosa
ALW,ALW,Walla Walla Regional Airport,46.09489822,-118.288002,US,US-WA,Walla Walla
ALX,ALX,Thomas C Russell Field,32.91469955,-85.96299744,US,US-AL,Alexander City
AMA,AMA,Rick Husband Amarillo International Airport,35.219398,-101.706001,US,US-TX,Amarillo
AMN,AMN,Gratiot Community Airport,43.32210159,-84.68800354,US,US-MI,Alma
AMW,AMW,Ames Municipal Airport,41.992001,-93.621803,US,US-IA,Ames
ANB,ANB,Anniston Regional Airport,33.5882,-85.8581,US,US-AL,Anniston
AND,AND,Anderson Regional Airport,34.49459839,-82.70939636,US,US-SC,Anderson
SLT,ANK,Salida Airport - Harriet Alexander Field,38.5383,-106.049004,US,US-CO,Salida
ANP,ANP,Lee Airport,38.942902,-76.568398,US,US-MD,Annapolis
ANQ,ANQ,Tri State Steuben County Airport,41.639702,-85.083504,US,US-IN,Angola
ANW,ANW,Ainsworth Regional Airport,42.579201,-99.992995,US,US-NE,Ainsworth
ANY,ANY,Anthony Municipal Airport,37.158501,-98.079597,US,US-KS,Anthony
AOH,AOH,Lima Allen County Airport,40.706902,-84.026703,US,US-OH,Lima
AOO,AOO,Altoona Blair County Airport,40.296398,-78.32,US,US-PA,Altoona
APA,APA,Centennial Airport,39.57009888,-104.848999,US,US-CO,Denver
APC,APC,Napa County Airport,38.2132,-122.280998,US,US-CA,Napa
APF,APF,Naples Municipal Airport,26.15259933,-81.77529907,US,US-FL,Naples
APG,APG,Phillips Army Air Field,39.466202,-76.1688,US,US-MD,Aberdeen
APH,APH,Mary Walker LZ Airport,38.068631,-77.319318,US,US-VA,Bowling Green
APN,APN,Alpena County Regional Airport,45.0780983,-83.56030273,US,US-MI,Alpena
APT,APT,Marion County Airport - Brown Field,35.060699,-85.585297,US,US-TN,Jasper
APV,APV,Apple Valley Airport,34.57529831,-117.185997,US,US-CA,Apple Valley
ARA,ARA,Acadiana Regional Airport,30.0378,-91.883904,US,US-LA,New Iberia
ARB,ARB,Ann Arbor Municipal Airport,42.22299957,-83.74559784,US,US-MI,Ann Arbor
ARG,ARG,Walnut Ridge Regional Airport,36.124667,-90.925111,US,US-AR,Walnut Ridge
WHT,ARM,Wharton Regional Airport,29.254299,-96.154404,US,US-TX,Wharton
AUZ,ARR,Aurora Municipal Airport,41.77190018,-88.47570038,US,US-IL,Chicago/Aurora
ART,ART,Watertown International Airport,43.991901,-76.021698,US,US-NY,Watertown
ARV,ARV,Lakeland Airport Noble F Lee Memorial Field,45.927898,-89.730904,US,US-WI,Woodruff
BFT,ARW,Beaufort Executive Airport,32.412201,-80.634399,US,US-SC,Beaufort
ASE,ASE,Aspen-Pitkin County Airport (Sardy Field),39.223202,-106.869003,US,US-CO,Aspen
SPZ,ASG,Springdale Municipal Airport,36.17639923,-94.11930084,US,US-AR,Springdale
ASH,ASH,Nashua Airport / Boire Field,42.7817,-71.514801,US,US-NH,Nashua
ASL,ASL,Harrison County Airport,32.52050018,-94.30780029,US,US-TX,Marshall
ASN,ASN,Talladega Municipal Airport,33.56990051,-86.05090332,US,US-AL,Talladega
AST,AST,Astoria Regional Airport,46.15800095,-123.8789978,US,US-OR,Astoria
ASX,ASX,John F Kennedy Memorial Airport,46.54850006,-90.91899872,US,US-WI,Ashland
ASY,ASY,Ashley Municipal Airport,46.02389908,-99.3526001,US,US-ND,Ashley
ATL,ATL,Hartsfield Jackson Atlanta International Airport,33.6367,-84.428101,US,US-GA,Atlanta
ATS,ATS,Artesia Municipal Airport,32.85250092,-104.4680023,US,US-NM,Artesia
ATW,ATW,Appleton International Airport,44.258099,-88.519096,US,US-WI,Appleton
ATY,ATY,Watertown Regional Airport,44.91400146,-97.15470123,US,US-SD,Watertown
AUG,AUG,Augusta State Airport,44.3205986,-69.79730225,US,US-ME,Augusta
AUM,AUM,Austin Municipal Airport,43.66500092,-92.93340302,US,US-MN,Austin
AUN,AUN,Auburn Municipal Airport,38.95479965,-121.0820007,US,US-CA,Auburn
AUO,AUO,Auburn University Regional Airport,32.615101,-85.433998,US,US-AL,Auburn
AUS,AUS,Austin Bergstrom International Airport,30.197535,-97.662015,US,US-TX,Austin
AUW,AUW,Wausau Downtown Airport,44.92620087,-89.62660217,US,US-WI,Wausau
AVL,AVL,Asheville Regional Airport,35.436199,-82.541801,US,US-NC,Asheville
AVO,AVO,Avon Park Executive Airport,27.59119987,-81.52780151,US,US-FL,Avon Park
AVP,AVP,Wilkes Barre Scranton International Airport,41.33850098,-75.7233963,US,US-PA,Wilkes-Barre/Scranton
AVW,AVQ,Marana Regional Airport,32.409065,-111.216199,US,US-AZ,Marana
AVX,AVX,Catalina Airport,33.4049,-118.416,US,US-CA,Avalon
AWM,AWM,West Memphis Municipal Airport,35.13510132,-90.23439789,US,US-AR,West Memphis
AXG,AXA,Algona Municipal Airport,43.078104,-94.271836,US,US-IA,Algona
AXN,AXN,Chandler Field,45.866299,-95.394699,US,US-MN,Alexandria
AXS,AXS,Altus Quartz Mountain Regional Airport,34.697952,-99.3385,US,US-OK,Altus
AXV,AXV,Neil Armstrong Airport,40.49340057,-84.29889679,US,US-OH,Wapakoneta
AXX,AXX,Angel Fire Airport,36.422001,-105.290001,US,US-NM,Angel Fire
AYS,AYS,Waycross Ware County Airport,31.24909973,-82.39550018,US,US-GA,Waycross
TUH,AYX,Arnold Air Force Base,35.392601,-86.0858,US,US-TN,Manchester
AZO,AZO,Kalamazoo Battle Creek International Airport,42.23490143,-85.55210114,US,US-MI,Kalamazoo
BAB,BAB,Beale Air Force Base,39.136101,-121.436996,US,US-CA,Beale Air Force Base
BAD,BAD,Barksdale Air Force Base,32.501801,-93.662697,US,US-LA,Bossier City
BAF,BAF,Westfield-Barnes Regional Airport,42.157799,-72.715599,US,US-MA,Westfield
CLU,BAK,Columbus Municipal Airport,39.262386,-85.895576,US,US-IN,Columbus
BAM,BAM,Battle Mountain Airport,40.59899902,-116.8740005,US,US-NV,Battle Mountain
BBB,BBB,Benson Municipal Airport,45.331902,-95.650597,US,US-MN,Benson
BBD,BBD,Curtis Field,31.178931,-99.324732,US,US-TX,Brady
BKG,BBG,Branson Airport,36.532082,-93.200544,US,US-MO,Branson
BTN,BBP,Marlboro County Jetport - H E Avent Field Airport,34.6217,-79.734398,US,US-SC,Bennettsville
BBW,BBW,Broken Bow Municipal Airport,41.43650055,-99.64219666,US,US-NE,Broken Bow
BCB,BCB,Virginia Tech Montgomery Executive Airport,37.20759964,-80.40779877,US,US-VA,Blacksburg
BCE,BCE,Bryce Canyon Airport,37.70640183,-112.1449966,US,US-UT,Bryce Canyon
BCT,BCT,Boca Raton Airport,26.3785,-80.107697,US,US-FL,Boca Raton
BDE,BDE,Baudette International Airport,48.72840118,-94.61219788,US,US-MN,Baudette
BDG,BDG,Blanding Municipal Airport,37.58330154,-109.4830017,US,US-UT,Blanding
ILL,BDH,Willmar Municipal Airport John L Rice Field (2006),45.117552,-95.132259,US,US-MN,Willmar
BDL,BDL,Bradley International Airport,41.93851,-72.688066,US,US-CT,Hartford
BDR,BDR,Igor I Sikorsky Memorial Airport,41.163502,-73.126198,US,US-CT,Bridgeport
WBU,BDU,Boulder Municipal Airport,40.039101,-105.226025,US,US-CO,Boulder
BEC,BEC,Beech Factory Airport,37.69449997,-97.21499634,US,US-KS,Wichita
BED,BED,Laurence G Hanscom Field,42.470001,-71.289001,US,US-MA,Bedford
BEH,BEH,Southwest Michigan Regional Airport,42.12860107,-86.42849731,US,US-MI,Benton Harbor
BFD,BFD,Bradford Regional Airport,41.80310059,-78.64009857,US,US-PA,Bradford
BFF,BFF,Western Neb. Rgnl/William B. Heilig Airport,41.87400055,-103.5960007,US,US-NE,Scottsbluff
BFI,BFI,Boeing Field King County International Airport,47.529999,-122.302002,US,US-WA,Seattle
BFL,BFL,Meadows Field,35.433601,-119.056999,US,US-CA,Bakersfield
BFM,BFM,Mobile Downtown Airport,30.62680054,-88.06809998,US,US-AL,Mobile
BFR,BFR,Virgil I Grissom Municipal Airport,38.84000015,-86.44539642,US,US-IN,Bedford
BGD,BGD,Hutchinson County Airport,35.70090103,-101.3939972,US,US-TX,Borger
BGE,BGE,Decatur County Industrial Air Park,30.9715004,-84.63739777,US,US-GA,Bainbridge
BGM,BGM,Greater Binghamton/Edwin A Link field,42.20869827,-75.97979736,US,US-NY,Binghamton
BGR,BGR,Bangor International Airport,44.8074,-68.828102,US,US-ME,Bangor
BHB,BHB,Hancock County-Bar Harbor Airport,44.45000076,-68.3615036,US,US-ME,Bar Harbor
BHM,BHM,Birmingham-Shuttlesworth International Airport,33.562901,-86.753502,US,US-AL,Birmingham
BID,BID,Block Island State Airport,41.168446,-71.578631,US,US-RI,Block Island
BIE,BIE,Beatrice Municipal Airport,40.3013,-96.754097,US,US-NE,Beatrice
BIF,BIF,Biggs Army Air Field (Fort Bliss),31.84950066,-106.3799973,US,US-TX,Fort Bliss/El Paso
BIH,BIH,Eastern Sierra Regional Airport,37.3731,-118.363998,US,US-CA,Bishop
BIL,BIL,Billings Logan International Airport,45.807701,-108.542999,US,US-MT,Billings
BIS,BIS,Bismarck Municipal Airport,46.77270126,-100.7460022,US,US-ND,Bismarck
BIX,BIX,Keesler Air Force Base,30.41040039,-88.92440033,US,US-MS,Biloxi
BJC,BJC,Rocky Mountain Metropolitan Airport,39.908798,-105.116997,US,US-CO,Denver
BJI,BJI,Bemidji Regional Airport,47.50939941,-94.93370056,US,US-MN,Bemidji
BJJ,BJJ,Wayne County Airport,40.87480164,-81.88829803,US,US-OH,Wooster
BKD,BKD,Stephens County Airport,32.71900177,-98.89099884,US,US-TX,Breckenridge
BKE,BKE,Baker City Municipal Airport,44.83729935,-117.8089981,US,US-OR,Baker City
BFK,BKF,Buckley Space Force Base,39.701698,-104.751999,US,US-CO,Aurora
BKL,BKL,Burke Lakefront Airport,41.51750183,-81.6832962,US,US-OH,Cleveland
BKT,BKT,Allen C Perkinson Blackstone Army Air Field,37.07419968,-77.95749664,US,US-VA,Blackstone
BKW,BKW,Raleigh County Memorial Airport,37.7873,-81.124199,US,US-WV,Beaver
BKX,BKX,Brookings Regional Airport,44.304798,-96.816902,US,US-SD,Brookings
BLF,BLF,Mercer County Airport,37.295799,-81.207703,US,US-WV,Bluefield
BLH,BLH,Blythe Airport,33.61920166,-114.7170029,US,US-CA,Blythe
BLI,BLI,Bellingham International Airport,48.7928009,-122.538002,US,US-WA,Bellingham
BLM,BLM,Monmouth Executive Airport,40.18690109,-74.12490082,US,US-NJ,Belmar/Farmingdale
BLU,BLU,Blue Canyon Nyack Airport,39.27500153,-120.7099991,US,US-CA,Emigrant Gap
BLV,BLV,Scott AFB/Midamerica Airport,38.5452,-89.835197,US,US-IL,Belleville
BMC,BMC,Brigham City Regional Airport,41.552399,-112.061996,US,US-UT,Brigham City
BMG,BMG,Monroe County Airport,39.14599991,-86.61669922,US,US-IN,Bloomington
BMI,BMI,Central Illinois Regional Airport at Bloomington-Normal,40.4771,-88.915901,US,US-IL,Bloomington/Normal
BML,BML,Berlin Regional Airport,44.57540131,-71.17590332,US,US-NH,Berlin
BMT,BMT,Beaumont Municipal Airport,30.070635,-94.215746,US,US-TX,Beaumont
BNA,BNA,Nashville International Airport,36.1245,-86.6782,US,US-TN,Nashville
BNG,BNG,Banning Municipal Airport,33.922548,-116.850672,US,US-CA,Banning
BNL,BNL,Barnwell Regional Airport,33.25780106,-81.38829803,US,US-SC,Barnwell
BNO,BNO,Burns Municipal Airport,43.590463,-118.955154,US,US-OR,Burns
BNW,BNW,Boone Municipal Airport,42.049599,-93.847603,US,US-IA,Boone
BOI,BOI,Boise Air Terminal/Gowen Field,43.5644,-116.223,US,US-ID,Boise
BOK,BOK,Brookings Airport,42.0746,-124.290001,US,US-OR,Brookings
BOS,BOS,Logan International Airport,42.36197,-71.0079,US,US-MA,Boston
BOW,BOW,Bartow Executive Airport,27.943399,-81.783401,US,US-FL,Bartow
HCA,BPG,Big Spring Mc Mahon-Wrinkle Airport,32.212601,-101.522003,US,US-TX,Big Spring
BPI,BPI,Miley Memorial Field,42.58509827,-110.1110001,US,US-WY,Big Piney
WMH,BPK,Ozark Regional Airport,36.3689003,-92.47049713,US,US-AR,Mountain Home
BPT,BPT,Jack Brooks Regional Airport,29.9508,-94.020699,US,US-TX,Beaumont/Port Arthur
BQK,BQK,Brunswick Golden Isles Airport,31.258801,-81.466499,US,US-GA,Brunswick
BRD,BRD,Brainerd Lakes Regional Airport,46.402861,-94.129727,US,US-MN,Brainerd
BRL,BRL,Southeast Iowa Regional Airport,40.78319931,-91.12550354,US,US-IA,Burlington
BRO,BRO,Brownsville South Padre Island International Airport,25.90679932,-97.42590332,US,US-TX,Brownsville
BRY,BRY,Samuels Field,37.81430054,-85.49960327,US,US-KY,Bardstown
BTF,BTF,Skypark Airport,40.86940002,-111.927002,US,US-UT,Bountiful
BTL,BTL,Battle Creek Executive Airport at Kellogg Field,42.307301,-85.251503,US,US-MI,Battle Creek
BTM,BTM,Bert Mooney Airport,45.95479965,-112.4970016,US,US-MT,Butte
TTO,BTN,Britton Municipal Airport,45.81520081,-97.74310303,US,US-SD,Britton
BTP,BTP,Pittsburgh/Butler Regional Airport,40.776901,-79.949699,US,US-PA,Butler
BTR,BTR,Baton Rouge Metropolitan Airport,30.533199,-91.149597,US,US-LA,Baton Rouge
BTV,BTV,Burlington International Airport,44.471901,-73.153297,US,US-VT,South Burlington
BTY,BTY,Beatty Airport,36.86109924,-116.7870026,US,US-NV,Beatty
BUB,BUB,Cram Field,41.77669907,-99.14969635,US,US-NE,Burwell
BUF,BUF,Buffalo Niagara International Airport,42.940498,-78.732201,US,US-NY,Buffalo
BUM,BUM,Butler Memorial Airport,38.28979874,-94.34010315,US,US-MO,Butler
BUR,BUR,Hollywood Burbank Airport,34.197703,-118.356378,US,US-CA,Burbank
BFP,BVI,Beaver County Airport,40.772499,-80.391403,US,US-PA,Beaver Falls
BVO,BVO,Bartlesville Municipal Airport,36.762501,-96.0112,US,US-OK,Bartlesville
MVW,BVS,Skagit Regional Airport,48.470901,-122.420998,US,US-WA,Burlington
BVX,BVX,Batesville Regional Airport,35.7262,-91.647301,US,US-AR,Batesville
BVY,BVY,Beverly Regional Airport,42.584202,-70.916496,US,US-MA,Beverly / Danvers
BWC,BWC,Brawley Municipal Airport,32.99290085,-115.5169983,US,US-CA,Brawley
BWD,BWD,Brownwood Regional Airport,31.79360008,-98.95649719,US,US-TX,Brownwood
BWG,BWG,Bowling Green Warren County Regional Airport,36.96450043,-86.41970062,US,US-KY,Bowling Green
BWI,BWI,Baltimore/Washington International Thurgood Marshall Airport,39.1754,-76.668297,US,US-MD,Baltimore
WAH,BWP,Harry Stern Airport,46.24409866,-96.60739899,US,US-ND,Wahpeton
BWM,BWW,Bowman Regional Airport,46.165519,-103.30075,US,US-ND,Bowman
BXA,BXA,George R Carr Memorial Air Field,30.81369972,-89.86499786,US,US-LA,Bogalusa
BXK,BXK,Buckeye Municipal Airport,33.422397,-112.686317,US,US-AZ,Buckeye
NHZ,BXM,Brunswick Executive Airport,43.89220047,-69.93859863,US,US-ME,Brunswick
BYG,BYG,Johnson County Airport,44.3811,-106.722,US,US-WY,Buffalo
BYH,BYH,Arkansas International Airport,35.96429825,-89.94400024,US,US-AR,Blytheville
BYI,BYI,Burley Municipal Airport,42.54259872,-113.7720032,US,US-ID,Burley
BYS,BYS,Bicycle Lake Army Air Field,35.2804985,-116.6299973,US,US-CA,Fort Irwin/Barstow
BBC,BYY,Bay City Regional Airport,28.973301,-95.863503,US,US-TX,Bay City
BZN,BZN,Bozeman Yellowstone International Airport,45.7775,-111.153,US,US-MT,Bozeman
XES,C02,Grand Geneva Resort Airport,42.614899,-88.389603,US,US-WI,Lake Geneva
PLY,C65,Plymouth Municipal Airport,41.365101,-86.300499,US,US-IN,Plymouth
CLG,C80,New Coalinga Municipal Airport,36.163101,-120.293999,US,US-CA,Coalinga
CAD,CAD,Wexford County Airport,44.275749,-85.421534,US,US-MI,Cadillac
CAE,CAE,Columbia Metropolitan Airport,33.938801,-81.119499,US,US-SC,Columbia
CIG,CAG,Craig Moffat Airport,40.49520111,-107.5220032,US,US-CO,Craig
CAK,CAK,Akron Canton Regional Airport,40.91609955,-81.44219971,US,US-OH,Akron
CAO,CAO,Clayton Municipal Airpark,36.44620132,-103.1669998,US,US-NM,Clayton
CAR,CAR,Caribou Municipal Airport,46.871498,-68.017899,US,US-ME,Caribou
CBE,CBE,Greater Cumberland Regional Airport,39.615398,-78.760902,US,US-WV,Wiley Ford
CBF,CBF,Council Bluffs Municipal Airport,41.25920105,-95.76059723,US,US-IA,Council Bluffs
CBK,CBK,Shalz Field,39.42750168,-101.0469971,US,US-KS,Colby
CBM,CBM,Columbus Air Force Base,33.643799,-88.443802,US,US-MS,Columbus
CCB,CCB,Upland-Cable Airport,34.111599,-117.688004,US,US-CA,Upland
CCR,CCR,Buchanan Field,37.9897,-122.056999,US,US-CA,Concord
CCY,CCY,Northeast Iowa Regional Airport,43.07260132,-92.6108017,US,US-IA,Charles City
LLX,CDA,Caledonia County Airport,44.56909943,-72.01799774,US,US-VT,Lyndonville
CDC,CDC,Cedar City Regional Airport,37.70100021,-113.098999,US,US-UT,Cedar City
CDH,CDH,Harrell Field,33.62279892,-92.76339722,US,US-AR,Camden
CDK,CDK,George T Lewis Airport,29.134095,-83.050783,US,US-FL,Cedar Key
CDN,CDN,Woodward Field,34.28359985,-80.56490326,US,US-SC,Camden
CDR,CDR,Chadron Municipal Airport,42.837601,-103.095001,US,US-NE,Chadron
CDS,CDS,Childress Municipal Airport,34.43379974,-100.288002,US,US-TX,Childress
CDW,CDW,Essex County Airport,40.87519836,-74.28140259,US,US-NJ,Caldwell
CEA,CEA,Cessna Aircraft Field,37.64860153,-97.25060272,US,US-KS,Wichita
CEC,CEC,Jack Mc Namara Field Airport,41.778929,-124.236403,US,US-CA,Crescent City
CEF,CEF,Westover Metropolitan Airport / Westover Air Reserve Base,42.194,-72.534798,US,US-MA,Chicopee
CEU,CEU,Oconee County Regional Airport,34.6719017,-82.8864975,US,US-SC,Clemson
CEV,CEV,Mettel Field,39.69850159,-85.12969971,US,US-IN,Connersville
CEW,CEW,Bob Sikes Airport,30.77879906,-86.52210236,US,US-FL,Crestview
CEY,CEY,Murray-Calloway County Airport Kyle-Oakley Field,36.6646,-88.372803,US,US-KY,Murray
CEZ,CEZ,Cortez Municipal Airport,37.303001,-108.627998,US,US-CO,Cortez
CFD,CFD,Coulter Field,30.71570015,-96.33139801,US,US-TX,Bryan
TZC,CFS,Tuscola Area Airport,43.458801,-83.445503,US,US-MI,Caro
CFT,CFT,Greenlee County Airport,32.957039,-109.211397,US,US-AZ,Clifton
CFV,CFV,Coffeyville Municipal Airport,37.09400177,-95.57189941,US,US-KS,Coffeyville
CGE,CGE,Cambridge Dorchester Airport,38.53929901,-76.03040314,US,US-MD,Cambridge
CGF,CGF,Cuyahoga County Airport,41.56510162,-81.48639679,US,US-OH,Cleveland
CGI,CGI,Cape Girardeau Regional Airport,37.2253,-89.570801,US,US-MO,Cape Girardeau
CGS,CGS,College Park Airport,38.98059845,-76.92230225,US,US-MD,College Park
CGZ,CGZ,Casa Grande Municipal Airport,32.954899,-111.766998,US,US-AZ,Casa Grande
CHA,CHA,Chattanooga Metropolitan Airport (Lovell Field),35.035301,-85.203796,US,US-TN,Chattanooga
CHK,CHK,Chickasha Municipal Airport,35.09740067,-97.96769714,US,US-OK,Chickasha
CHO,CHO,Charlottesville Albemarle Airport,38.1385994,-78.45290375,US,US-VA,Charlottesville
CHS,CHS,Charleston International Airport,32.898602,-80.040497,US,US-SC,Charleston
CIC,CIC,Chico Regional Airport,39.795595,-121.857716,US,US-CA,Chico
CID,CID,The Eastern Iowa Airport,41.884701,-91.7108,US,US-IA,Cedar Rapids
CIN,CIN,Arthur N Neu Airport,42.0461998,-94.78900146,US,US-IA,Carroll
CIR,CIR,Cairo Regional Airport,37.064499,-89.219597,US,US-IL,Cairo
CIU,CIU,Chippewa County International Airport,46.247707,-84.471379,US,US-MI,Kincheloe
CKA,CKA,Kegelman AF Aux Field,36.734348,-98.123531,US,US-OK,Cherokee
CKB,CKB,North Central West Virginia Airport,39.2966,-80.228104,US,US-WV,Bridgeport
GRM,CKC,Grand Marais Cook County Airport,47.8382988,-90.38289642,US,US-MN,Grand Marais
CKM,CKM,Fletcher Field,34.29970169,-90.51229858,US,US-MS,Clarksdale
CKN,CKN,Crookston Municipal Kirkwood Field,47.84170151,-96.62159729,US,US-MN,Crookston
CKV,CKV,Clarksville–Montgomery County Regional Airport,36.62189865,-87.41500092,US,US-TN,Clarksville
KCL,KCL,Chignik Lagoon Airport,56.310776,-158.534818,US,US-AK,Chignik Flats
CLE,CLE,Cleveland Hopkins International Airport,41.411701,-81.8498,US,US-OH,Cleveland
CLI,CLI,Clintonville Municipal Airport,44.61380005,-88.73130035,US,US-WI,Clintonville
CLK,CLK,Clinton Regional Airport,35.5383,-98.932701,US,US-OK,Clinton
CLL,CLL,Easterwood Field,30.5886,-96.3638,US,US-TX,College Station
CLM,CLM,William R Fairchild International Airport,48.120201,-123.5,US,US-WA,Port Angeles
CLR,CLR,Cliff Hatfield Memorial Airport,33.13150024,-115.5210037,US,US-CA,Calipatria
CLS,CLS,Chehalis Centralia Airport,46.676998,-122.983002,US,US-WA,Chehalis
CLT,CLT,Charlotte Douglas International Airport,35.2140007,-80.94309998,US,US-NC,Charlotte
CLW,CLW,Clearwater Air Park,27.97669983,-82.75869751,US,US-FL,Clearwater
CMH,CMH,John Glenn Columbus International Airport,39.998001,-82.891899,US,US-OH,Columbus
CMI,CMI,University of Illinois Willard Airport,40.039819,-88.276249,US,US-IL,Savoy
CMX,CMX,Houghton County Memorial Airport,47.16839981,-88.4890976,US,US-MI,Hancock
CMY,CMY,Sparta Fort McCoy Airport,43.958009,-90.737886,US,US-WI,Sparta
CNH,CNH,Claremont Municipal Airport,43.37039948,-72.36869812,US,US-NH,Claremont
CNK,CNK,Blosser Municipal Airport,39.54930115,-97.65229797,US,US-KS,Concordia
CNM,CNM,Cavern City Air Terminal,32.33750153,-104.2630005,US,US-NM,Carlsbad
CNO,CNO,Chino Airport,33.97470093,-117.637001,US,US-CA,Chino
CNU,CNU,Chanute Martin Johnson Airport,37.668173,-95.486727,US,US-KS,Chanute
CNW,CNW,TSTC Waco Airport,31.641129,-97.073335,US,US-TX,Waco
CNY,CNY,Canyonlands Regional Airport,38.755001,-109.754997,US,US-UT,Moab
COD,COD,Yellowstone Regional Airport,44.520199,-109.024002,US,US-WY,Cody
COE,COE,Coeur D'Alene Airport - Pappy Boyington Field,47.7743,-116.82,US,US-ID,Coeur d'Alene
COF,COF,Patrick Space Force Base,28.2349,-80.6101,US,US-FL,Cocoa Beach
COI,COI,Merritt Island Airport,28.34160042,-80.6855011,US,US-FL,Merritt Island
COM,COM,Coleman Municipal Airport,31.84110069,-99.4036026,US,US-TX,Coleman
CON,CON,Concord Municipal Airport,43.20270157,-71.50229645,US,US-NH,Concord
COS,COS,City of Colorado Springs Municipal Airport,38.805801,-104.700996,US,US-CO,Colorado Springs
COT,COT,Cotulla-La Salle County Airport,28.45669937,-99.22029877,US,US-TX,Cotulla
COU,COU,Columbia Regional Airport,38.8181,-92.219597,US,US-MO,Columbia
CPM,CPM,Compton Woodley Airport,33.88999939,-118.2440033,US,US-CA,Compton
CPR,CPR,Casper-Natrona County International Airport,42.908001,-106.463997,US,US-WY,Casper
CPS,CPS,St Louis Downtown Airport,38.5707016,-90.15619659,US,US-IL,Cahokia/St Louis
HCW,CQW,Cheraw Municipal Airport/Lynch Bellinger Field,34.712898,-79.957001,US,US-SC,Cheraw
KCR,KCR,Colorado Creek Airport,63.56769943,-155.9889984,US,US-AK,Colorado Creek
CRE,CRE,Grand Strand Airport,33.81169891,-78.72389984,US,US-SC,North Myrtle Beach
CRG,CRG,Jacksonville Executive at Craig Airport,30.3362999,-81.51439667,US,US-FL,Jacksonville
CRP,CRP,Corpus Christi International Airport,27.770399,-97.501198,US,US-TX,Corpus Christi
CLD,CRQ,McClellan-Palomar Airport,33.1283,-117.279999,US,US-CA,Carlsbad
CRS,CRS,C David Campbell Field Corsicana Municipal Airport,32.02809906,-96.40059662,US,US-TX,Corsicana
CRT,CRT,Z M Jack Stell Field,33.17829895,-91.88020325,US,US-AR,Crossett
CRW,CRW,Yeager Airport,38.3731,-81.593201,US,US-WV,Charleston
CRX,CRX,Roscoe Turner Airport,34.91500092,-88.60350037,US,US-MS,Corinth
CSG,CSG,Columbus Metropolitan Airport,32.5163002,-84.93890381,US,US-GA,Columbus
CSM,CSM,Clinton Sherman Airport,35.33980179,-99.20050049,US,US-OK,Clinton
CSQ,CSQ,Creston Municipal Airport,41.02140045,-94.36329651,US,US-IA,Creston
CSV,CSV,Crossville Memorial Airport Whitson Field,35.95131,-85.08499,US,US-TN,Crossville
CTB,CTB,Cut Bank International Airport,48.608657,-112.378183,US,US-MT,Cut Bank
CTY,CTY,Cross City Airport,29.63549995,-83.10479736,US,US-FL,Cross City
CTZ,CTZ,Sampson County Airport,34.9756012,-78.36460114,US,US-NC,Clinton
CUB,CUB,Jim Hamilton L.B. Owens Airport,33.97050095,-80.99520111,US,US-SC,Columbia
CUH,CUH,Cushing Municipal Airport,35.950496,-96.772371,US,US-OK,Cushing
CVG,CVG,Cincinnati Northern Kentucky International Airport,39.048801,-84.667801,US,US-KY,Cincinnati / Covington
HLI,CVH,Hollister Municipal Airport,36.8932991,-121.4100037,US,US-CA,Hollister
CKK,CVK,Sharp County Regional Airport,36.26490021,-91.56259918,US,US-AR,Ash Flat
CVN,CVN,Clovis Municipal Airport,34.426594,-103.078794,US,US-NM,Clovis
CVO,CVO,Corvallis Municipal Airport,44.49720001,-123.2900009,US,US-OR,Corvallis
CVS,CVS,Cannon Air Force Base,34.382801,-103.321999,US,US-NM,Clovis
CWA,CWA,Central Wisconsin Airport,44.777448,-89.670238,US,US-WI,Mosinee
KIP,CWC,Kickapoo Downtown Airport,33.85779953,-98.49040222,US,US-TX,Wichita Falls
CWF,CWF,Chennault International Airport,30.2106,-93.143204,US,US-LA,Lake Charles
CWI,CWI,Clinton Municipal Airport,41.83110046,-90.32910156,US,US-IA,Clinton
CXL,CXL,Calexico International Airport,32.66949844,-115.5130005,US,US-CA,Calexico
CXO,CXO,Conroe-North Houston Regional Airport,30.351801,-95.414497,US,US-TX,Houston
CSN,CXP,Carson Airport,39.1922,-119.734001,US,US-NV,Carson City
HAR,CXY,Capital City Airport,40.21709824,-76.85150146,US,US-PA,Harrisburg
CYS,CYS,Cheyenne Regional Jerry Olson Field,41.155701,-104.811997,US,US-WY,Cheyenne
CZK,CZK,Cascade Locks State Airport,45.676599,-121.878879,US,US-OR,Cascade Locks
CZT,CZT,Dimmit County Airport,28.52219963,-99.82360077,US,US-TX,Carrizo Springs
VEX,D60,Tioga Municipal Airport,48.38050079,-102.8980026,US,US-ND,Tioga
DAA,DAA,Davison Army Air Field,38.71500015,-77.18099976,US,US-VA,Fort Belvoir
DAB,DAB,Daytona Beach International Airport,29.179899,-81.058098,US,US-FL,Daytona Beach
DAG,DAG,Barstow Daggett Airport,34.85369873,-116.7870026,US,US-CA,Daggett
DAL,DAL,Dallas Love Field,32.847099,-96.851799,US,US-TX,Dallas
DAN,DAN,Danville Regional Airport,36.572899,-79.336098,US,US-VA,Danville
DAY,DAY,James M Cox Dayton International Airport,39.902401,-84.219398,US,US-OH,Dayton
DBN,DBN,W H 'Bud' Barron Airport,32.5644,-82.985298,US,US-GA,Dublin
DBQ,DBQ,Dubuque Regional Airport,42.402,-90.709503,US,US-IA,Dubuque
DCA,DCA,Ronald Reagan Washington National Airport,38.8521,-77.037697,US,US-DC,Washington
DCU,DCU,Pryor Field Regional Airport,34.65269852,-86.94539642,US,US-AL,Decatur
DDC,DDC,Dodge City Regional Airport,37.76340103,-99.96559906,US,US-KS,Dodge City
DEC,DEC,Decatur Airport,39.83459854,-88.86569977,US,US-IL,Decatur
DEH,DEH,Decorah Municipal Airport,43.275501,-91.739403,US,US-IA,Decorah
DEN,DEN,Denver International Airport,39.86169815,-104.6729965,US,US-CO,Denver
DET,DET,Coleman A. Young Municipal Airport,42.40919876,-83.00990295,US,US-MI,Detroit
DFI,DFI,Defiance Memorial Airport,41.33750153,-84.42880249,US,US-OH,Defiance
DFW,DFW,Dallas Fort Worth International Airport,32.896801,-97.038002,US,US-TX,Dallas-Fort Worth
DGL,DGL,Douglas Municipal Airport,31.34259987,-109.5059967,US,US-AZ,Douglas
DGW,DGW,Converse County Airport,42.79719925,-105.3860016,US,US-WY,Douglas
DHN,DHN,Dothan Regional Airport,31.32130051,-85.44960022,US,US-AL,Dothan
DHT,DHT,Dalhart Municipal Airport,36.02259827,-102.5469971,US,US-TX,Dalhart
DIK,DIK,Dickinson Theodore Roosevelt Regional Airport,46.797533,-102.801905,US,US-ND,Dickinson
DKK,DKK,Chautauqua County-Dunkirk Airport,42.49247,-79.273102,US,US-NY,Dunkirk
DLL,DLC,Dillon County Airport,34.44910049,-79.36859894,US,US-SC,Dillon
DLF,DLF,Laughlin Air Force Base,29.359501,-100.778002,US,US-TX,Del Rio
DLH,DLH,Duluth International Airport,46.842098,-92.193604,US,US-MN,Duluth
DLN,DLN,Dillon Airport,45.25540161,-112.5530014,US,US-MT,Dillon
DLS,DLS,Columbia Gorge Regional Airport,45.620979,-121.170777,US,US-OR,Dallesport / The Dalles
DMA,DMA,Davis Monthan Air Force Base,32.16650009,-110.8830032,US,US-AZ,Tucson
DMN,DMN,Deming Municipal Airport,32.26229858,-107.7210007,US,US-NM,Deming
DMO,DMO,Sedalia Memorial Airport,38.70740128,-93.17590332,US,US-MO,Sedalia
DNL,DNL,Daniel Field,33.46649933,-82.03939819,US,US-GA,Augusta
DNN,DNN,Dalton Municipal Airport,34.72290039,-84.87020111,US,US-GA,Dalton
DNS,DNS,Denison Municipal Airport,41.9864006,-95.38069916,US,US-IA,Denison
DNV,DNV,Vermilion Regional Airport,40.199124,-87.59663,US,US-IL,Danville
DOV,DOV,Dover Air Force Base,39.129501,-75.466003,US,US-DE,Dover
DPA,DPA,Dupage Airport,41.90779877,-88.24859619,US,US-IL,Chicago/West Chicago
DPG,DPG,Michael AAF (Dugway Proving Ground) Airport,40.197396,-112.935094,US,US-UT,Dugway Proving Ground
DRI,DRI,Beauregard Regional Airport,30.831699,-93.339897,US,US-LA,DeRidder
DRE,DRM,Drummond Island Airport,46.00930023,-83.74389648,US,US-MI,Drummond Island
DRO,DRO,Durango La Plata County Airport,37.151501,-107.753998,US,US-CO,Durango
DRT,DRT,Del Rio International Airport,29.37420082,-100.927002,US,US-TX,Del Rio
DSM,DSM,Des Moines International Airport,41.534,-93.663101,US,US-IA,Des Moines
DSV,DSV,Dansville Municipal Airport,42.570545,-77.713273,US,US-NY,Dansville
DTA,DTA,Delta Municipal Airport,39.38059998,-112.5080032,US,US-UT,Delta
DTL,DTL,Detroit Lakes Airport,46.824301,-95.883322,US,US-MN,Detroit Lakes
DTN,DTN,Shreveport Downtown Airport,32.54019928,-93.74500275,US,US-LA,Shreveport
DSI,DTS,Destin Executive Airport,30.400101,-86.471497,US,US-FL,Destin
DTW,DTW,Detroit Metropolitan Wayne County Airport,42.21377,-83.353786,US,US-MI,Detroit
DUA,DUA,Durant Regional Airport - Eaker Field,33.939675,-96.395072,US,US-OK,Durant
DUC,DUC,Halliburton Field,34.47090149,-97.9598999,US,US-OK,Duncan
DUG,DUG,Bisbee Douglas International Airport,31.46899986,-109.6039963,US,US-AZ,Douglas Bisbee
DUJ,DUJ,DuBois Regional Airport,41.17829895,-78.8986969,US,US-PA,Dubois
DVL,DVL,Devils Lake Regional Airport,48.115454,-98.908796,US,US-ND,Devils Lake
DVN,DVN,Davenport Municipal Airport,41.610432,-90.589693,US,US-IA,Davenport
NOT,DVO,Marin County Airport - Gnoss Field,38.14360046,-122.5559998,US,US-CA,Novato
NSL,DVP,Slayton Municipal Airport,43.986801,-95.7826,US,US-MN,Slayton
DVT,DVT,Phoenix Deer Valley Airport,33.68830109,-112.0830002,US,US-AZ,Phoenix
DWH,DWH,David Wayne Hooks Memorial Airport,30.0618,-95.55280304,US,US-TX,Houston
DXR,DXR,Danbury Municipal Airport,41.371656,-73.482227,US,US-CT,Danbury
DYL,DYL,Doylestown Airport,40.33300018,-75.12229919,US,US-PA,Doylestown
DYS,DYS,Dyess Air Force Base,32.420799,-99.854599,US,US-TX,Abilene
MIF,E01,Roy Hurd Memorial Airport,31.58250046,-102.9089966,US,US-TX,Monahans
CCG,E13,Crane County Airport,31.4151001,-102.362999,US,US-TX,Crane
ESO,E14,Ohkay Owingeh Airport,36.026133,-106.045443,US,US-NM,Espanola
WTR,E24,Whiteriver Airport,33.810175,-109.986555,US,US-AZ,Whiteriver
ALE,E38,Alpine Casparis Municipal Airport,30.384199,-103.683998,US,US-TX,Alpine
BGT,E51,Bagdad Airport,34.592796,-113.171993,US,US-AZ,Bagdad
EAN,EAN,Phifer Airfield,42.0555,-104.929001,US,US-WY,Wheatland
EAR,EAR,Kearney Regional Airport,40.727001,-99.006798,US,US-NE,Kearney
EAT,EAT,Pangborn Memorial Airport,47.398899,-120.207001,US,US-WA,Wenatchee
EAU,EAU,Chippewa Valley Regional Airport,44.86579895,-91.48429871,US,US-WI,Eau Claire
KEB,KEB,Nanwalek Airport,59.3521,-151.925003,US,US-AK,Nanwalek
EBS,EBS,Webster City Municipal Airport,42.436848,-93.869905,US,US-IA,Webster City
ECG,ECG,Elizabeth City Regional Airport & Coast Guard Air Station,36.260601,-76.174599,US,US-NC,Elizabeth City
ECP,ECP,Northwest Florida Beaches International Airport,30.357106,-85.795414,US,US-FL,Panama City Beach
ECS,ECS,Mondell Field,43.88379,-104.314156,US,US-WY,Newcastle
EDE,EDE,Northeastern Regional Airport,36.02769852,-76.56710052,US,US-NC,Edenton
ETS,EDN,Enterprise Municipal Airport,31.29969978,-85.89990234,US,US-AL,Enterprise
EDW,EDW,Edwards Air Force Base,34.905399,-117.884003,US,US-CA,Edwards
EED,EED,Needles Airport,34.7663002,-114.6230011,US,US-CA,Needles
EEN,EEN,Dillant Hopkins Airport,42.898399,-72.270798,US,US-NH,Keene
EFD,EFD,Ellington Airport,29.6072998,-95.15879822,US,US-TX,Houston
EFK,EFK,Northeast Kingdom International Airport,44.888802,-72.229202,US,US-VT,Newport
EFW,EFW,Jefferson Municipal Airport,42.009866,-94.341717,US,US-IA,Jefferson
EGE,EGE,Eagle County Regional Airport,39.64260101,-106.9179993,US,US-CO,Eagle
EGI,EGI,Duke Field,30.65040016,-86.52290344,US,US-FL,Crestview
EGV,EGV,Eagle River Union Airport,45.93230057,-89.26830292,US,US-WI,Eagle River
KEK,KEK,Ekwok Airport,59.3568,-157.470993,US,US-AK,Ekwok
EKA,EKA,Murray Field,40.803398,-124.112999,US,US-CA,Eureka
EKI,EKM,Elkhart Municipal Airport,41.7193985,-86.00319672,US,US-IN,Elkhart
EKN,EKN,Elkins-Randolph County Regional Airport,38.889759,-79.857651,US,US-WV,Elkins
EKO,EKO,Elko Regional Airport,40.82490158,-115.7919998,US,US-NV,Elko
EKX,EKX,Addington Field / Elizabethtown Regional Airport,37.686001,-85.925003,US,US-KY,Elizabethtown
ELA,ELA,Eagle Lake Airport,29.60059929,-96.32189941,US,US-TX,Eagle Lake
ELD,ELD,South Arkansas Regional Airport at Goodwin Field,33.221001,-92.813301,US,US-AR,El Dorado
ELK,ELK,Elk City Regional Business Airport,35.43080139,-99.39430237,US,US-OK,Elk City
ELM,ELM,Elmira Corning Regional Airport,42.15990067,-76.89160156,US,US-NY,Elmira/Corning
ELN,ELN,Bowers Field,47.03300095,-120.5309982,US,US-WA,Ellensburg
LYU,ELO,Ely Municipal Airport,47.82450104,-91.83070374,US,US-MN,Ely
ELP,ELP,El Paso International Airport,31.807199,-106.377998,US,US-TX,El Paso
ELY,ELY,Ely Airport Yelland Field,39.29970169,-114.8420029,US,US-NV,Ely
ELZ,ELZ,Wellsville Municipal Airport - Tarantine Field,42.109501,-77.989998,US,US-NY,Wellsville
EMM,EMM,Kemmerer Municipal Airport,41.82410049,-110.5569992,US,US-WY,Kemmerer
EMP,EMP,Emporia Municipal Airport,38.33209991,-96.19120026,US,US-KS,Emporia
EMT,EMT,San Gabriel Valley Airport,34.086102,-118.035004,US,US-CA,El Monte
END,END,Vance Air Force Base,36.339199,-97.916496,US,US-OK,Enid
ENL,ENL,Centralia Municipal Airport,38.515099,-89.091103,US,US-IL,Centralia
ENV,ENV,Wendover Airport,40.71870041,-114.0309982,US,US-UT,Wendover
ENW,ENW,Kenosha Regional Airport,42.59569931,-87.92780304,US,US-WI,Kenosha
EOK,EOK,Keokuk Municipal Airport,40.4598999,-91.42849731,US,US-IA,Keokuk
EOS,EOS,Neosho Hugh Robinson Airport,36.810799,-94.391701,US,US-MO,Neosho
EPH,EPH,Ephrata Municipal Airport,47.307598,-119.515999,US,US-WA,Ephrata
EDK,EQA,Captain Jack Thomas El Dorado Airport,37.77410126,-96.81759644,US,US-KS,El Dorado
ERI,ERI,Erie International Tom Ridge Field,42.083127,-80.173867,US,US-PA,Erie
ERR,ERR,Errol Airport,44.7925,-71.1642,US,US-NH,Errol
ERV,ERV,Kerrville / Kerr County Airport at Louis Schreiner Field,29.9767,-99.085701,US,US-TX,Kerrville
ESC,ESC,Delta County Airport,45.723199,-87.088623,US,US-MI,Escanaba
ESF,ESF,Esler Army Airfield / Esler Regional Airport,31.394266,-92.294082,US,US-LA,Alexandria
ESN,ESN,Easton Airport / Newnam Field,38.804199,-76.069,US,US-MD,Easton
EST,EST,Estherville Municipal Airport,43.407398,-94.746399,US,US-IA,Estherville
ESW,ESW,Easton State Airport,47.25419998,-121.185997,US,US-WA,Easton
ETB,ETB,West Bend Municipal Airport,43.422278,-88.128966,US,US-WI,West Bend
ETN,ETN,Eastland Municipal Airport,32.41350174,-98.80979919,US,US-TX,Eastland
EUF,EUF,Weedon Field,31.95129967,-85.12889862,US,US-AL,Eufaula
EUG,EUG,Mahlon Sweet Field,44.12459946,-123.211998,US,US-OR,Eugene
EVM,EVM,Eveleth–Virginia Municipal Airport,47.42458,-92.499204,US,US-MN,Eveleth
EVV,EVV,Evansville Regional Airport,38.03699875,-87.53240204,US,US-IN,Evansville
EVW,EVW,Evanston-Uinta County Airport-Burns Field,41.27479935,-111.0350037,US,US-WY,Evanston
EWB,EWB,New Bedford Regional Airport,41.67610168,-70.95690155,US,US-MA,New Bedford
EWK,EWK,Newton City-County Airport,38.05820084,-97.27449799,US,US-KS,Newton
EWN,EWN,Coastal Carolina Regional Airport,35.07300186,-77.04290009,US,US-NC,New Bern
EWR,EWR,Newark Liberty International Airport,40.692501,-74.168701,US,US-NJ,Newark
EYW,EYW,Key West International Airport,24.556101,-81.759598,US,US-FL,Key West
WIB,F05,Wilbarger County Airport,34.22570038,-99.28379822,US,US-TX,Vernon
RBK,F70,French Valley Airport,33.5742,-117.127998,US,US-CA,Murrieta
FAF,FAF,Felker Army Air Field,37.1325,-76.608803,US,US-VA,Newport News (Fort Eustis)
FAM,FAM,Farmington Regional Airport,37.761101,-90.428597,US,US-MO,Farmington
FAR,FAR,Hector International Airport,46.92070007,-96.81580353,US,US-ND,Fargo
FAT,FAT,Fresno Yosemite International Airport,36.776199,-119.718002,US,US-CA,Fresno
FAY,FAY,Fayetteville Regional Airport - Grannis Field,34.991199,-78.880302,US,US-NC,Fayetteville
FBG,FBG,Simmons Army Air Field,35.13180161,-78.93669891,US,US-NC,Fort Bragg
FBL,FBL,Faribault Municipal Airport-Liz Wall Strohfus Field,44.32844,-93.312534,US,US-MN,Faribault
FBR,FBR,Fort Bridger Airport,41.39189911,-110.4069977,US,US-WY,Fort Bridger
FBY,FBY,Fairbury Municipal Airport,40.18299866,-97.16929626,US,US-NE,Fairbury
FCH,FCH,Fresno Chandler Executive Airport,36.732399,-119.82,US,US-CA,Fresno
FCM,FCM,Flying Cloud Airport,44.82720184,-93.45709991,US,US-MN,Minneapolis
FCS,FCS,Butts AAF (Fort Carson) Air Field,38.67839813,-104.7570038,US,US-CO,Fort Carson
FCY,FCY,Forrest City Municipal Airport,34.94200134,-90.77500153,US,US-AR,Forrest City
FDK,FDK,Frederick Municipal Airport,39.41759872,-77.3742981,US,US-MD,Frederick
FDR,FDR,Frederick Regional Airport,34.35200119,-98.98390198,US,US-OK,Frederick
FDY,FDY,Findlay Airport,41.01350021,-83.66870117,US,US-OH,Findlay
FEP,FEP,Albertus Airport,42.24620056,-89.58200073,US,US-IL,Freeport
FET,FET,Fremont Municipal Airport,41.45024,-96.522884,US,US-NE,Fremont
FFA,FFA,First Flight Airport,36.01819992,-75.6713028,US,US-NC,Kill Devil Hills
FFL,FFL,Fairfield Municipal Airport,41.053024,-91.980114,US,US-IA,Fairfield
FFM,FFM,Fergus Falls Municipal Airport - Einar Mickelson Field,46.28440094,-96.15670013,US,US-MN,Fergus Falls
FFO,FFO,Wright-Patterson Air Force Base,39.826099,-84.048302,US,US-OH,Dayton
FFT,FFT,Capital City Airport,38.181698,-84.906764,US,US-KY,Frankfort
MSC,FFZ,Falcon Field,33.46080017,-111.7279968,US,US-AZ,Mesa
FRD,FHR,Friday Harbor Airport,48.523654,-123.024645,US,US-WA,Friday Harbor
FHU,FHU,Sierra Vista Municipal Airport / Libby Army Air Field,31.587383,-110.348225,US,US-AZ,Fort Huachuca / Sierra Vista
FKL,FKL,Venango Regional Airport,41.37789917,-79.86039734,US,US-PA,Franklin
FKN,FKN,Franklin Regional Airport,36.698101,-76.903801,US,US-VA,Franklin
FLD,FLD,Fond du Lac County Airport,43.77119827,-88.48840332,US,US-WI,Fond du Lac
FLG,FLG,Flagstaff Pulliam International Airport,35.1385,-111.670998,US,US-AZ,Flagstaff
FLL,FLL,Fort Lauderdale Hollywood International Airport,26.072599,-80.152702,US,US-FL,Fort Lauderdale
FLO,FLO,Florence Regional Airport,34.1853981,-79.72389984,US,US-SC,Florence
FLP,FLP,Marion County Regional Airport,36.29090118,-92.59030151,US,US-AR,Flippin
FLV,FLV,Sherman Army Air Field,39.36830139,-94.91470337,US,US-KS,Fort Leavenworth
FLX,FLX,Fallon Municipal Airport,39.49909973,-118.7490005,US,US-NV,Fallon
FME,FME,Tipton Airport,39.08539963,-76.75939941,US,US-MD,Fort Meade(Odenton)
FMH,FMH,Cape Cod Coast Guard Air Station,41.657899,-70.52163,US,US-MA,Falmouth
FMN,FMN,Four Corners Regional Airport,36.741199,-108.230003,US,US-NM,Farmington
FMY,FMY,Page Field,26.58659935,-81.86329651,US,US-FL,Fort Myers
FNL,FNL,Northern Colorado Regional Airport,40.44969,-105.011272,US,US-CO,Loveland
FNT,FNT,Bishop International Airport,42.9654007,-83.74359894,US,US-MI,Flint
FOD,FOD,Fort Dodge Regional Airport,42.552624,-94.191237,US,US-IA,Fort Dodge
FOE,FOE,Topeka Regional Airport,38.950901,-95.663597,US,US-KS,Topeka
FOK,FOK,Francis S Gabreski Airport,40.84370041,-72.63179779,US,US-NY,Westhampton Beach
FIL,FOM,Fillmore Municipal Airport,38.95830154,-112.362999,US,US-UT,Fillmore
FPR,FPR,St Lucie County International Airport,27.49510002,-80.36830139,US,US-FL,Fort Pierce
FRG,FRG,Republic Airport,40.72880173,-73.41339874,US,US-NY,Farmingdale
FRH,FRH,French Lick Municipal Airport,38.50619888,-86.63690186,US,US-IN,French Lick
FRI,FRI,Marshall Army Air Field,39.053021,-96.764202,US,US-KS,Fort Riley (Junction City)
FRM,FRM,Fairmont Municipal Airport,43.64390183,-94.41560364,US,US-MN,Fairmont
FRR,FRR,Front Royal Warren County Airport,38.9175,-78.253502,US,US-VA,Front Royal
FSD,FSD,Sioux Falls Regional Airport / Joe Foss Field,43.585463,-96.741152,US,US-SD,Sioux Falls
FSI,FSI,Henry Post Army Air Field,34.649799,-98.402199,US,US-OK,Fort Sill
FSK,FSK,Fort Scott Municipal Airport,37.79840088,-94.76940155,US,US-KS,Fort Scott
FSM,FSM,Fort Smith Regional Airport,35.336601,-94.367401,US,US-AR,Fort Smith
FST,FST,Fort Stockton Pecos County Airport,30.91570091,-102.9160004,US,US-TX,Fort Stockton
FSU,FSU,Fort Sumner Municipal Airport,34.48339844,-104.2170029,US,US-NM,Fort Sumner
FMS,FSW,Fort Madison Municipal Airport,40.659113,-91.327763,US,US-IA,Fort Madison
FTK,FTK,Godman Army Air Field,37.90710068,-85.9720993,US,US-KY,Fort Knox
FTW,FTW,Fort Worth Meacham International Airport,32.819801,-97.362396,US,US-TX,Fort Worth
FTY,FTY,Fulton County Airport Brown Field,33.77909851,-84.52140045,US,US-GA,Atlanta
FUL,FUL,Fullerton Municipal Airport,33.87200165,-117.9800034,US,US-CA,Fullerton
WFK,FVE,Northern Aroostook Regional Airport,47.28549957,-68.31279755,US,US-ME,Frenchville
FWA,FWA,Fort Wayne International Airport,40.9785,-85.195099,US,US-IN,Fort Wayne
FXE,FXE,Fort Lauderdale Executive Airport,26.19729996,-80.17070007,US,US-FL,Fort Lauderdale
FXY,FXY,Forest City Municipal Airport,43.23469925,-93.62409973,US,US-IA,Forest City
FYM,FYM,Fayetteville Municipal Airport,35.05970001,-86.56400299,US,US-TN,Fayetteville
FYV,FYV,Drake Field,36.00510025,-94.17009735,US,US-AR,Fayetteville
GAB,GAB,Gabbs Airport,38.923173,-117.9572,US,US-NV,Gabbs
GAD,GAD,Northeast Alabama Regional Airport,33.972599,-86.088996,US,US-AL,Gadsden
GAG,GAG,Gage Heibeck Airport,36.295502,-99.776398,US,US-OK,Gage
GAI,GAI,Montgomery County Airpark,39.168301,-77.166,US,US-MD,Gaithersburg
GBD,GBD,Great Bend Municipal Airport,38.344299,-98.8592,US,US-KS,Great Bend
GBG,GBG,Galesburg Municipal Airport,40.93799973,-90.43109894,US,US-IL,Galesburg
GBR,GBR,Walter J. Koladza Airport,42.18420029,-73.40319824,US,US-MA,Great Barrington
GCC,GCC,Northeast Wyoming Regional Airport,44.3489,-105.539001,US,US-WY,Gillette
JDA,GCD,Grant County Regional Airport / Ogilvie Field,44.404202,-118.962997,US,US-OR,John Day
GCK,GCK,Garden City Regional Airport,37.92750168,-100.723999,US,US-KS,Garden City
GCN,GCN,Grand Canyon National Park Airport,35.9524,-112.147003,US,US-AZ,Grand Canyon - Tusayan
GCY,GCY,Greeneville Municipal Airport,36.195648,-82.811482,US,US-TN,Greeneville
GDM,GDM,Gardner Municipal Airport,42.54999924,-72.01609802,US,US-MA,Gardner
GDV,GDV,Dawson Community Airport,47.137658,-104.80691,US,US-MT,Glendive
GDW,GDW,Gladwin Zettel Memorial Airport,43.97060013,-84.47499847,US,US-MI,Gladwin
GED,GED,Delaware Coastal Airport,38.689201,-75.358902,US,US-DE,Georgetown
GEG,GEG,Spokane International Airport,47.6199,-117.533997,US,US-WA,Spokane
GEY,GEY,South Big Horn County Airport,44.51679993,-108.0830002,US,US-WY,Greybull
GFD,GFD,Pope Field,39.790715,-85.735019,US,US-IN,Greenfield
GFK,GFK,Grand Forks International Airport,47.949299,-97.176102,US,US-ND,Grand Forks
GFL,GFL,Floyd Bennett Memorial Airport,43.34120178,-73.61029816,US,US-NY,Glens Falls
GGE,GGE,Georgetown County Airport,33.31169891,-79.31960297,US,US-SC,Georgetown
GGG,GGG,East Texas Regional Airport,32.38399887,-94.71150208,US,US-TX,Longview
GGW,GGW,Glasgow Valley County Airport Wokal Field,48.212502,-106.614998,US,US-MT,Glasgow
GHM,GHM,Centerville Municipal Airport,35.83739853,-87.44539642,US,US-TN,Centerville
IDH,GIC,Idaho County Airport,45.9426,-116.123001,US,US-ID,Grangeville
GIF,GIF,Winter Haven Regional Airport - Gilbert Field,28.062901,-81.753304,US,US-FL,Winter Haven
GJT,GJT,Grand Junction Regional Airport,39.126663,-108.529387,US,US-CO,Grand Junction
MEJ,GKJ,Port Meadville Airport,41.626499,-80.214699,US,US-PA,Meadville
GKT,GKT,Gatlinburg-Pigeon Forge Airport,35.85779953,-83.52870178,US,US-TN,Sevierville
GLD,GLD,Goodland Municipal Airport,39.370701,-101.699753,US,US-KS,Goodland
GLE,GLE,Gainesville Municipal Airport,33.65140152,-97.1969986,US,US-TX,Gainesville
GLH,GLH,Mid Delta Regional Airport,33.482899,-90.985603,US,US-MS,Greenville
GLR,GLR,Gaylord Regional Airport,45.01350021,-84.70359802,US,US-MI,Gaylord
GLS,GLS,Scholes International At Galveston Airport,29.265301,-94.860397,US,US-TX,Galveston
GLW,GLW,Glasgow Municipal Airport,37.03179932,-85.9536972,US,US-KY,Glasgow
GMU,GMU,Greenville Downtown Airport,34.847903,-82.350217,US,US-SC,Greenville
GNG,GNG,Gooding Municipal Airport,42.91719818,-114.7649994,US,US-ID,Gooding
GNT,GNT,Grants-Milan Municipal Airport,35.16730118,-107.9020004,US,US-NM,Grants
GNV,GNV,Gainesville Regional Airport,29.69009972,-82.27179718,US,US-FL,Gainesville
GOK,GOK,Guthrie-Edmond Regional Airport,35.84980011,-97.41560364,US,US-OK,Guthrie
GON,GON,Groton New London Airport,41.330101,-72.045097,US,US-CT,Groton
FCA,GPI,Glacier Park International Airport,48.3105011,-114.2559967,US,US-MT,Kalispell
GPT,GPT,Gulfport Biloxi International Airport,30.407301,-89.070099,US,US-MS,Gulfport
GPZ,GPZ,Grand Rapids Itasca Co-Gordon Newstrom field,47.21110153,-93.50980377,US,US-MN,Grand Rapids
GQQ,GQQ,Galion Municipal Airport,40.7533989,-82.72380066,US,US-OH,Galion
GRB,GRB,Austin Straubel International Airport,44.483459,-88.130805,US,US-WI,Green Bay
GRD,GRD,Greenwood County Airport,34.248699,-82.159103,US,US-SC,Greenwood
GRE,GRE,Greenville Airport,38.836844,-89.376525,US,US-IL,Greenville
GRF,GRF,Gray Army Air Field,47.07920074,-122.5810013,US,US-WA,Fort Lewis/Tacoma
GRI,GRI,Central Nebraska Regional Airport,40.96749878,-98.30960083,US,US-NE,Grand Island
GRK,GRK,Killeen Regional Airport / Robert Gray Army Airfield,31.0672,-97.828903,US,US-TX,Fort Cavazos
GRN,GRN,Gordon Municipal Airport,42.80599976,-102.1750031,US,US-NE,Gordon
GRR,GRR,Gerald R. Ford International Airport,42.88079834,-85.52279663,US,US-MI,Grand Rapids
GSB,GSB,Seymour Johnson Air Force Base,35.339401,-77.960602,US,US-NC,Goldsboro
GSH,GSH,Goshen Municipal Airport,41.52640152,-85.79290009,US,US-IN,Goshen
GSO,GSO,Piedmont Triad International Airport,36.097801,-79.937302,US,US-NC,Greensboro
GSP,GSP,Greenville Spartanburg International Airport,34.895699,-82.218903,US,US-SC,Greer
GTF,GTF,Great Falls International Airport,47.48199844,-111.3710022,US,US-MT,Great Falls
GTG,GTG,Grantsburg Municipal Airport,45.79809952,-92.66439819,US,US-WI,Grantsburg
GTR,GTR,Golden Triangle Regional Airport,33.450298,-88.5914,US,US-MS,Columbus/W Point/Starkville
GUC,GUC,Gunnison Crested Butte Regional Airport,38.534672,-106.934566,US,US-CO,Gunnison
GUP,GUP,Gallup Municipal Airport,35.511653,-108.788166,US,US-NM,Gallup
GUS,GUS,Grissom Air Reserve Base,40.648102,-86.1521,US,US-IN,Peru
GUY,GUY,Guymon Municipal Airport,36.68510056,-101.5080032,US,US-OK,Guymon
GVE,GVE,Gordonsville Municipal Airport,38.155998,-78.165802,US,US-VA,Gordonsville
GVL,GVL,Lee Gilmer Memorial Airport,34.27259827,-83.8302002,US,US-GA,Gainesville
GVT,GVT,Majors Airport,33.06779861,-96.06529999,US,US-TX,Greenville
GWO,GWO,Greenwood–Leflore Airport,33.495025,-90.088204,US,US-MS,Greenwood
GWS,GWS,Glenwood Springs Municipal Airport,39.50830078,-107.310997,US,US-CO,Glenwood Springs
KGX,KGX,Grayling Airport,62.895187,-160.066289,US,US-AK,Grayling
GXY,GXY,Greeley–Weld County Airport,40.43740082,-104.6330032,US,US-CO,Greeley
GDC,GYH,Donaldson Field Airport,34.758301,-82.376404,US,US-SC,Greenville
PNX,GYI,North Texas Regional Airport Perrin Field,33.7141,-96.673698,US,US-TX,Denison
GYR,GYR,Phoenix Goodyear Airport,33.42250061,-112.3759995,US,US-AZ,Goodyear
GYY,GYY,Gary Chicago International Airport,41.61629868,-87.41280365,US,US-IN,Gary
KGZ,KGZ,Glacier Creek Airport,61.45510101,-142.3809967,US,US-AK,Glacier Creek
HAB,HAB,Marion County Rankin Fite Airport,34.11759949,-87.99819946,US,US-AL,Hamilton
HAF,HAF,Half Moon Bay Airport,37.51340103,-122.5009995,US,US-CA,Half Moon Bay
HAI,HAI,Three Rivers Municipal Dr Haines Airport,41.959801,-85.593399,US,US-MI,Three Rivers
HAO,HAO,Butler Co Regional Airport - Hogan Field,39.36380005,-84.52200317,US,US-OH,Hamilton
HBG,HBG,Hattiesburg Bobby L Chain Municipal Airport,31.26479912,-89.25279999,US,US-MS,Hattiesburg
HBR,HBR,Hobart Regional Airport,34.991317,-99.051313,US,US-OK,Hobart
HDE,HDE,Brewster Field,40.452099,-99.336502,US,US-NE,Holdrege
HDN,HDN,Yampa Valley Airport,40.481201,-107.218002,US,US-CO,Hayden
HEE,HEE,Thompson-Robbins Airport,34.576571,-90.67616,US,US-AR,West Helena
MNZ,HEF,Manassas Regional Airport/Harry P. Davis Field,38.721401,-77.515404,US,US-VA,Manassas
HEZ,HEZ,Natchez–Adams County Airport / Hardy-Anders Field,31.614817,-91.297331,US,US-MS,Natchez
HFD,HFD,Hartford Brainard Airport,41.73669815,-72.6493988,US,US-CT,Hartford
HFF,HFF,Mackall Army Air Field,35.036087,-79.498615,US,US-NC,Hoffman
HGR,HGR,Hagerstown Regional Richard A Henson Field,39.708771,-77.728014,US,US-MD,Hagerstown
HHR,HHR,Jack Northrop Field Hawthorne Municipal Airport,33.922798,-118.334999,US,US-CA,Hawthorne
HUJ,HHW,Stan Stamper Municipal Airport,34.03480148,-95.54190063,US,US-OK,Hugo
HIB,HIB,Range Regional Airport,47.384831,-92.836905,US,US-MN,Hibbing
HIE,HIE,Mount Washington Regional Airport,44.36752,-71.545765,US,US-NH,Whitefield
HIF,HIF,Hill Air Force Base,41.12403,-111.973086,US,US-UT,Ogden
HII,HII,Lake Havasu City International Airport,34.571098,-114.358002,US,US-AZ,Lake Havasu City
HIO,HIO,Portland Hillsboro Airport,45.540401,-122.949997,US,US-OR,Portland
HKA,HKA,Blytheville Municipal Airport,35.94039917,-89.83080292,US,US-AR,Blytheville
HKS,HKS,Hawkins Field,32.33449936,-90.22219849,US,US-MS,Jackson
HKY,HKY,Hickory Regional Airport,35.74110031,-81.38950348,US,US-NC,Hickory
HLB,HLB,Batesville Airport,39.342861,-85.258441,US,US-IN,Batesville
HLC,HLC,Hill City Municipal Airport,39.37879944,-99.83149719,US,US-KS,Hill City
HLG,HLG,Wheeling Ohio County Airport,40.17499924,-80.64630127,US,US-WV,Wheeling
HLN,HLN,Helena Regional Airport,46.6068,-111.983002,US,US-MT,Helena
HMN,HMN,Holloman Air Force Base,32.852501,-106.107002,US,US-NM,Alamogordo
HMT,HMT,Hemet Ryan Airport,33.73400116,-117.0230026,US,US-CA,Hemet
HNB,HNB,Huntingburg Airport,38.24900055,-86.9536972,US,US-IN,Huntingburg
HSH,HND,Henderson Executive Airport,35.97280121,-115.1340027,US,US-NV,Las Vegas
HOB,HOB,Lea County Regional Airport,32.6875,-103.217003,US,US-NM,Hobbs
HON,HON,Huron Regional Airport,44.385201,-98.2285,US,US-SD,Huron
HOP,HOP,Campbell Army Airfield (Fort Campbell),36.674154,-87.48974,US,US-KY,Fort Campbell
HOT,HOT,Memorial Field Airport,34.4788,-93.096262,US,US-AR,Hot Springs
HOU,HOU,William P Hobby Airport,29.645399,-95.2789,US,US-TX,Houston
HPN,HPN,Westchester County Airport,41.06700134,-73.70760345,US,US-NY,White Plains
HPT,HPT,Hampton Municipal Airport,42.72370148,-93.2263031,US,US-IA,Hampton
HPY,HPY,Baytown Airport,29.78610039,-94.95269775,US,US-TX,Baytown
HQM,HQM,Bowerman Airport,46.97119904,-123.9369965,US,US-WA,Hoquiam
HES,HRI,Hermiston Municipal Airport,45.828223,-119.259024,US,US-OR,Hermiston
HRL,HRL,Valley International Airport,26.22850037,-97.65440369,US,US-TX,Harlingen
HRO,HRO,Boone County Airport,36.26150131,-93.15470123,US,US-AR,Harrison
HSB,HSB,Harrisburg-Raleigh Airport,37.811298,-88.550301,US,US-IL,Harrisburg
HNC,HSE,Billy Mitchell Airport,35.23279953,-75.61779785,US,US-NC,Hatteras
THP,HSG,Hot Springs County Airport,43.713602,-108.389687,US,US-WY,Thermopolis
HSI,HSI,Hastings Municipal Airport,40.6053009,-98.42790222,US,US-NE,Hastings
HSP,HSP,Ingalls Field,37.95140076,-79.83390045,US,US-VA,Hot Springs
HST,HST,Homestead ARB Airport,25.48859978,-80.38359833,US,US-FL,Homestead
HSV,HSV,Huntsville International Carl T Jones Field,34.637199,-86.775101,US,US-AL,Huntsville
HTH,HTH,Hawthorne Industrial Airport,38.544399,-118.634002,US,US-NV,Hawthorne
HTL,HTL,Roscommon County - Blodgett Memorial Airport,44.359798,-84.671095,US,US-MI,Houghton Lake
HTO,JPX,Town of East Hampton Airport,40.959954,-72.25105,US,US-NY,East Hampton
HTS,HTS,Tri-State Airport / Milton J. Ferguson Field,38.366699,-82.557999,US,US-WV,Huntington
HTW,HTW,Lawrence County Airpark,38.419082,-82.494922,US,US-OH,South Point
HUA,HUA,Redstone Army Air Field,34.67869949,-86.68479919,US,US-AL,Redstone Arsnl Huntsville
HUF,HUF,"Terre Haute Regional Airport, Hulman Field",39.4515,-87.307602,US,US-IN,Terre Haute
HUL,HUL,Houlton International Airport,46.12310028,-67.792099,US,US-ME,Houlton
HUM,HUM,Houma Terrebonne Airport,29.56649971,-90.66040039,US,US-LA,Houma
HUT,HUT,Hutchinson Municipal Airport,38.06549835,-97.86060333,US,US-KS,Hutchinson
HVE,HVE,Hanksville Airport,38.41799927,-110.7040024,US,US-UT,Hanksville
HVN,HVN,Tweed New Haven Airport,41.26369858,-72.88680267,US,US-CT,New Haven
HVR,HVR,Havre City County Airport,48.541387,-109.762859,US,US-MT,Havre
HVS,HVS,Hartsville Regional Airport,34.40309906,-80.11920166,US,US-SC,Hartsville
HWD,HWD,Hayward Executive Airport,37.65919876,-122.1220016,US,US-CA,Hayward
HWO,HWO,North Perry Airport,26.0012,-80.2407,US,US-FL,Hollywood
WSH,HWV,Brookhaven Calabro Airport,40.821899,-72.8694,US,US-NY,Shirley
HHH,HXD,Hilton Head Airport,32.2244,-80.697502,US,US-SC,Hilton Head Island
HYA,HYA,Cape Cod Gateway Airport,41.6693,-70.280403,US,US-MA,Hyannis
HYR,HYR,Sawyer County Airport,46.02519989,-91.44429779,US,US-WI,Hayward
HYS,HYS,Hays Regional Airport,38.844521,-99.273148,US,US-KS,Hays
HZL,HZL,Hazleton Municipal Airport,40.98680115,-75.99490356,US,US-PA,Hazleton
JFN,HZY,Northeast Ohio Regional Airport,41.778,-80.695503,US,US-OH,Ashtabula
IAB,IAB,McConnell Air Force Base,37.621899,-97.268204,US,US-KS,Wichita
IAD,IAD,Washington Dulles International Airport,38.9445,-77.455803,US,US-VA,Dulles
IAG,IAG,Niagara Falls International Airport,43.1073,-78.946198,US,US-NY,Niagara Falls
IAH,IAH,George Bush Intercontinental Houston Airport,29.9843998,-95.34140015,US,US-TX,Houston
ICL,ICL,Schenck Field,40.72180176,-95.02639771,US,US-IA,Clarinda
ICT,ICT,Wichita Eisenhower National Airport,37.649899,-97.433098,US,US-KS,Wichita
IDA,IDA,Idaho Falls Regional Airport,43.514599,-112.070999,US,US-ID,Idaho Falls
IDG,IDG,Ida Grove Municipal Airport,42.3326,-95.444901,US,US-IA,Ida Grove
IDI,IDI,Indiana County–Jimmy Stewart Airport,40.631119,-79.101884,US,US-PA,Indiana
IDP,IDP,Independence Municipal Airport,37.15840149,-95.77839661,US,US-KS,Independence
XPR,IEN,Pine Ridge Airport,43.020902,-102.506089,US,US-SD,Pine Ridge
IFA,IFA,Iowa Falls Municipal Airport,42.47079849,-93.26999664,US,US-IA,Iowa Falls
IFP,IFP,Laughlin Bullhead International Airport,35.157398,-114.559998,US,US-AZ,Bullhead City
IGM,IGM,Kingman Airport,35.259499,-113.938004,US,US-AZ,Kingman
IJX,IJX,Jacksonville Municipal Airport,39.774601,-90.238297,US,US-IL,Jacksonville
IKK,IKK,Greater Kankakee Airport,41.07139969,-87.84629822,US,US-IL,Kankakee
ILE,ILE,Skylark Field,31.08580017,-97.68650055,US,US-TX,Killeen
ILG,ILG,Wilmington Airport,39.678699,-75.606499,US,US-DE,Wilmington
ILM,ILM,Wilmington International Airport,34.27059937,-77.90260315,US,US-NC,Wilmington
ILN,ILN,Wilmington Airpark,39.42789841,-83.792099,US,US-OH,Wilmington
IML,IML,Imperial Municipal Airport,40.50930023,-101.6210022,US,US-NE,Imperial
IMM,IMM,Immokalee Regional Airport,26.427933,-81.403531,US,US-FL,Immokalee
MDN,IMS,Madison Municipal Airport,38.75889969,-85.46549988,US,US-IN,Madison
IMT,IMT,Ford Airport,45.81911,-88.114557,US,US-MI,Kingsford
IND,IND,Indianapolis International Airport,39.7173,-86.294403,US,US-IN,Indianapolis
INK,INK,Winkler County Airport,31.77960014,-103.2009964,US,US-TX,Wink
INL,INL,Falls International Airport,48.56620026,-93.40309906,US,US-MN,International Falls
INS,INS,Creech Air Force Base,36.58720016,-115.6729965,US,US-NV,Indian Springs
INT,INT,Smith Reynolds Airport,36.13370132,-80.22200012,US,US-NC,Winston Salem
INW,INW,Winslow Lindbergh Regional Airport,35.02190018,-110.7229996,US,US-AZ,Winslow
IOW,IOW,Iowa City Municipal Airport,41.6391983,-91.54650116,US,US-IA,Iowa City
IPL,IPL,Imperial County Airport,32.83539,-115.574026,US,US-CA,Imperial
IPT,IPT,Williamsport Regional Airport,41.242126,-76.92245,US,US-PA,Williamsport
IRK,IRK,Kirksville Regional Airport,40.09349823,-92.54489899,US,US-MO,Kirksville
IRS,IRS,Kirsch Municipal Airport,41.813301,-85.439003,US,US-MI,Sturgis
ISM,ISM,Kissimmee Gateway Airport,28.28980064,-81.43710327,US,US-FL,Orlando
ISO,ISO,Kinston Regional Jetport At Stallings Field,35.33140183,-77.6088028,US,US-NC,Kinston
ISP,ISP,Long Island Mac Arthur Airport,40.79520035,-73.10019684,US,US-NY,Islip
ISQ,ISQ,Schoolcraft County Airport,45.974602,-86.171799,US,US-MI,Manistique
ISW,ISW,Alexander Field South Wood County Airport,44.36029816,-89.83899689,US,US-WI,Wisconsin Rapids
ITH,ITH,Ithaca Tompkins Regional Airport,42.49100113,-76.45839691,US,US-NY,Ithaca
AZA,IWA,Mesa Gateway Airport,33.3078,-111.654999,US,US-AZ,Mesa
IWD,IWD,Gogebic Iron County Airport,46.525298,-90.131578,US,US-MI,Ironwood
ISS,IWI,Wiscasset Airport,43.96139908,-69.71260071,US,US-ME,Wiscasset
IWS,IWS,West Houston Airport,29.818199,-95.6726,US,US-TX,Houston
JCI,IXD,New Century AirCenter Airport,38.830898,-94.890297,US,US-KS,New Century
IYK,IYK,Inyokern Airport,35.65879822,-117.8300018,US,US-CA,Inyokern
SQA,IZA,Santa Ynez Airport,34.60680008,-120.0759964,US,US-CA,Santa Ynez
FRY,IZG,Eastern Slopes Regional Airport,43.99110031,-70.94789886,US,US-ME,Fryeburg
JAC,JAC,Jackson Hole Airport,43.6072998,-110.737999,US,US-WY,Jackson
JAN,JAN,Jackson-Medgar Wiley Evers International Airport,32.311199,-90.075897,US,US-MS,Jackson
JAS,JAS,Jasper County Airport Bell Field,30.8857,-94.034897,US,US-TX,Jasper
JAX,JAX,Jacksonville International Airport,30.492469,-81.687813,US,US-FL,Jacksonville
JBR,JBR,Jonesboro Municipal Airport,35.83169937,-90.64640045,US,US-AR,Jonesboro
JCT,JCT,Kimble County Airport,30.51129913,-99.7634964,US,US-TX,Junction
JDN,JDN,Jordan Airport,47.3288,-106.953003,US,US-MT,Jordan
JEF,JEF,Jefferson City Memorial Airport,38.59120178,-92.15609741,US,US-MO,Jefferson City
JFK,JFK,John F Kennedy International Airport,40.639447,-73.779317,US,US-NY,New York
JHW,JHW,Chautauqua County-Jamestown Airport,42.15425,-79.254008,US,US-NY,Jamestown
GUF,JKA,Jack Edwards National Airport,30.290501,-87.671799,US,US-AL,Gulf Shores
JLN,JLN,Joplin Regional Airport,37.151798,-94.498299,US,US-MO,Joplin
JMS,JMS,Jamestown Regional Airport,46.92969894,-98.67819977,US,US-ND,Jamestown
JOT,JOT,Joliet Regional Airport,41.51779938,-88.17549896,US,US-IL,Joliet
USA,JQF,Concord-Padgett Regional Airport,35.387798,-80.709099,US,US-NC,Concord
JKV,JSO,Cherokee County Airport,31.86930084,-95.2173996,US,US-TX,Jacksonville
JST,JST,John Murtha Johnstown Cambria County Airport,40.31610107,-78.83390045,US,US-PA,Johnstown
JVL,JVL,Southern Wisconsin Regional Airport,42.62030029,-89.04160309,US,US-WI,Janesville
JXN,JXN,Jackson County Airport/Reynolds Field,42.260509,-84.463019,US,US-MI,Jackson
OSB,K15,Grand Glaize Osage Beach Airport,38.1105,-92.680496,US,US-MO,Osage Beach
KIC,KIC,Mesa Del Rey Airport,36.22800064,-121.1220016,US,US-CA,King City
KLS,KLS,Southwest Washington Regional Airport,46.11800003,-122.8980026,US,US-WA,Kelso
KNB,KNB,Kanab Municipal Airport,37.011101,-112.530998,US,US-UT,Kanab
KKU,KKU,Ekuk Airport,58.81119919,-158.5590057,US,US-AK,Ekuk
DTH,L06,Furnace Creek Airport,36.463799,-116.880997,US,US-CA,Death Valley
BXS,L08,Borrego Valley Airport,33.25899887,-116.3209991,US,US-CA,Borrego Springs
RBF,L35,Big Bear City Airport,34.263802,-116.856003,US,US-CA,Big Bear
MYH,L41,Marble Canyon Airport,36.8125,-111.647003,US,US-AZ,Marble Canyon
TRH,L72,Trona Airport,35.8125,-117.3270035,US,US-CA,Trona
LAA,LAA,Southeast Colorado Regional Airport,38.066407,-102.691373,US,US-CO,Lamar
LAF,LAF,Purdue University Airport,40.412875,-86.939363,US,US-IN,West Lafayette
LAL,LAL,Lakeland Linder International Airport,27.987656,-82.018776,US,US-FL,Lakeland
LAM,LAM,Los Alamos Airport,35.87979889,-106.2689972,US,US-NM,Los Alamos
LAN,LAN,Capital City Airport,42.77870178,-84.58740234,US,US-MI,Lansing
LAR,LAR,Laramie Regional Airport,41.31209946,-105.6750031,US,US-WY,Laramie
LAS,LAS,Harry Reid International Airport,36.083361,-115.151817,US,US-NV,Las Vegas
LAW,LAW,Lawton Fort Sill Regional Airport,34.567699,-98.416603,US,US-OK,Lawton
LAX,LAX,Los Angeles International Airport,33.942501,-118.407997,US,US-CA,Los Angeles
LBB,LBB,Lubbock Preston Smith International Airport,33.663601,-101.822998,US,US-TX,Lubbock
LBE,LBE,Arnold Palmer Regional Airport,40.275902,-79.4048,US,US-PA,Latrobe
LBF,LBF,North Platte Regional Airport Lee Bird Field,41.12620163,-100.6839981,US,US-NE,North Platte
LBL,LBL,Liberal Mid-America Regional Airport,37.0442009,-100.9599991,US,US-KS,Liberal
LBT,LBT,Lumberton Regional Airport,34.610773,-79.05943,US,US-NC,Lumberton
LJN,LBX,Texas Gulf Coast Regional Airport,29.108601,-95.462097,US,US-TX,Angleton
LCH,LCH,Lake Charles Regional Airport,30.12610054,-93.22329712,US,US-LA,Lake Charles
LCI,LCI,Laconia Municipal Airport,43.572701,-71.4189,US,US-NH,Laconia / Gilford
LCK,LCK,Rickenbacker International Airport,39.813801,-82.927803,US,US-OH,Columbus
LCQ,LCQ,Lake City Gateway Airport,30.181999,-82.576897,US,US-FL,Lake City
LDJ,LDJ,Linden Airport,40.61740112,-74.24459839,US,US-NJ,Linden
LDM,LDM,Mason County Airport,43.96250153,-86.40789795,US,US-MI,Ludington
LEB,LEB,Lebanon Municipal Airport,43.62609863,-72.30419922,US,US-NH,Lebanon
LEE,LEE,Leesburg International Airport,28.82309914,-81.80870056,US,US-FL,Leesburg
LEM,LEM,Lemmon Municipal Airport,45.91870117,-102.1060028,US,US-SD,Lemmon
LEW,LEW,Auburn Lewiston Municipal Airport,44.04850006,-70.28350067,US,US-ME,Auburn/Lewiston
LEX,LEX,Blue Grass Airport,38.036499,-84.605904,US,US-KY,Lexington
LFI,LFI,Langley Air Force Base,37.082901,-76.360497,US,US-VA,Hampton
LFK,LFK,Angelina County Airport,31.23399925,-94.75,US,US-TX,Lufkin
LFT,LFT,Lafayette Regional Airport,30.205299,-91.987602,US,US-LA,Lafayette
LGA,LGA,LaGuardia Airport,40.777199,-73.872597,US,US-NY,New York
LGB,LGB,Long Beach Airport (Daugherty Field),33.816523,-118.149891,US,US-CA,Long Beach
LGC,LGC,LaGrange Callaway Airport,33.008873,-85.074331,US,US-GA,LaGrange
LGD,LGD,La Grande/Union County Airport,45.29019928,-118.0070038,US,US-OR,La Grande
LGF,LGF,Laguna Army Airfield,32.86000061,-114.3970032,US,US-AZ,Yuma Proving Ground(Yuma)
LGU,LGU,Logan-Cache Airport,41.79119873,-111.8519974,US,US-UT,Logan
LHV,LHV,William T. Piper Memorial Airport,41.13560104,-77.42230225,US,US-PA,Lock Haven
LIY,LHW,MidCoast Regional Airport at Wright Army Airfield,31.891237,-81.561003,US,US-GA,Hinesville
LFN,LHZ,Triangle North Executive Airport,36.0233,-78.330299,US,US-NC,Louisburg
LIC,LIC,Limon Municipal Airport,39.27479935,-103.6660004,US,US-CO,Limon
LIT,LIT,Bill & Hillary Clinton National Airport/Adams Field,34.729582,-92.223728,US,US-AR,Little Rock
LKP,LKP,Lake Placid Airport,44.26449966,-73.9618988,US,US-NY,Lake Placid
LOW,LKU,Louisa County Airport / Freeman Field,38.0098,-77.9701,US,US-VA,Louisa
LKV,LKV,Lake County Airport,42.16109848,-120.3990021,US,US-OR,Lakeview
CHL,LLJ,Challis Airport,44.522999,-114.218002,US,US-ID,Challis
LMS,LMS,Louisville Winston County Airport,33.14619827,-89.0625,US,US-MS,Louisville
LMT,LMT,Crater Lake-Klamath Regional Airport,42.156101,-121.733002,US,US-OR,Klamath Falls
LNA,LNA,Palm Beach County Park Airport,26.59300041,-80.08509827,US,US-FL,West Palm Beach
LND,LND,Hunt Field,42.815201,-108.730003,US,US-WY,Lander
LNK,LNK,Lincoln Airport,40.85100174,-96.75920105,US,US-NE,Lincoln
LNN,LNN,Lake County Executive Airport,41.683998,-81.389702,US,US-OH,Willoughby
LNP,LNP,Lonesome Pine Airport,36.98749924,-82.52999878,US,US-VA,Wise
LNR,LNR,Tri-County Regional Airport,43.2099,-90.181332,US,US-WI,Spring Green
LNS,LNS,Lancaster Airport,40.12170029,-76.2960968,US,US-PA,Lancaster
LOL,LOL,Derby Field,40.06639862,-118.5650024,US,US-NV,Lovelock
BBX,LOM,Wings Field,40.13750076,-75.26509857,US,US-PA,Philadelphia
LOT,LOT,Lewis University Airport,41.6072998,-88.09619904,US,US-IL,Chicago/Romeoville
LOU,LOU,Bowman Field,38.22800064,-85.66369629,US,US-KY,Louisville
LOZ,LOZ,London-Corbin Airport/Magee Field,37.0821991,-84.0848999,US,US-KY,London
LPC,LPC,Lompoc Airport,34.66559982,-120.4680023,US,US-CA,Lompoc
LQK,LQK,Pickens County Airport,34.81000137,-82.70290375,US,US-SC,Pickens
LRD,LRD,Laredo International Airport,27.54380035,-99.46160126,US,US-TX,Laredo
LRF,LRF,Little Rock Air Force Base,34.91690063,-92.14969635,US,US-AR,Jacksonville
LRJ,LRJ,Le Mars Municipal Airport,42.77799988,-96.1937027,US,US-IA,Le Mars
LRU,LRU,Las Cruces International Airport,32.289398,-106.921997,US,US-NM,Las Cruces
LSB,LSB,Lordsburg Municipal Airport,32.33349991,-108.6920013,US,US-NM,Lordsburg
LSE,LSE,La Crosse Regional Airport,43.879002,-91.256699,US,US-WI,La Crosse
LSF,LSF,Lawson Army Air Field,32.332546,-84.988003,US,US-GA,Fort Benning
LSK,LSK,Lusk Municipal Airport,42.75379944,-104.4049988,US,US-WY,Lusk
LSN,LSN,Los Banos Municipal Airport,37.06290054,-120.8690033,US,US-CA,Los Banos
LSV,LSV,Nellis Air Force Base,36.23619843,-115.0339966,US,US-NV,Las Vegas
LTS,LTS,Altus Air Force Base,34.667099,-99.266701,US,US-OK,Altus
LUF,LUF,Luke Air Force Base,33.535,-112.383003,US,US-AZ,Glendale
LUK,LUK,Cincinnati Municipal Airport Lunken Field,39.102357,-84.418945,US,US-OH,Cincinnati
LUL,LUL,Hesler Noble Field,31.67259979,-89.17220306,US,US-MS,Laurel
LVK,LVK,Livermore Municipal Airport,37.69340134,-121.8199997,US,US-CA,Livermore
LVL,LVL,Brunswick Municipal Airport,36.774229,-77.793846,US,US-VA,Lawrenceville
LVM,LVM,Mission Field,45.69940186,-110.447998,US,US-MT,Livingston
LVS,LVS,Las Vegas Municipal Airport,35.654202,-105.141998,US,US-NM,Las Vegas
LWB,LWB,Greenbrier Valley Airport,37.857914,-80.400438,US,US-WV,Lewisburg
LWC,LWC,Lawrence Municipal Airport,39.01119995,-95.21659851,US,US-KS,Lawrence
LWL,LWL,Wells Municipal Airport/Harriet Field,41.11709976,-114.9219971,US,US-NV,Wells
LWM,LWM,Lawrence Municipal Airport,42.71720123,-71.12339783,US,US-MA,Lawrence
LWS,LWS,Lewiston Nez Perce County Airport,46.37450027,-117.0149994,US,US-ID,Lewiston
LWT,LWT,Lewistown Municipal Airport,47.048429,-109.466143,US,US-MT,Lewistown
LWV,LWV,Lawrenceville Vincennes International Airport,38.7643013,-87.60549927,US,US-IL,Lawrenceville
LXN,LXN,Jim Kelly Field,40.791,-99.777298,US,US-NE,Lexington
LXV,LXV,Lake County Airport,39.22029877,-106.3170013,US,US-CO,Leadville
LYH,LYH,Lynchburg Regional Airport - Preston Glenn Field,37.326698,-79.200401,US,US-VA,Lynchburg
LYO,LYO,Lyons-Rice County Municipal Airport,38.339481,-98.228702,US,US-KS,Lyons
LZU,LZU,Gwinnett County Briscoe Field,33.97809982,-83.96240234,US,US-GA,Lawrenceville
PCU,M13,Poplarville Pearl River County Airport,30.7859993,-89.50450134,US,US-MS,Poplarville
MLK,M75,Malta Airport,48.366901,-107.918999,US,US-MT,Malta
MAC,MAC,Macon Downtown Airport,32.82210159,-83.56199646,US,US-GA,Macon
MAE,MAE,Madera Municipal Airport,36.98860168,-120.1119995,US,US-CA,Madera
MAF,MAF,Midland International Air and Space Port,31.942499,-102.202003,US,US-TX,Midland
MAW,MAW,Malden Regional Airport,36.6006012,-89.99220276,US,US-MO,Malden
MBG,MBG,Mobridge Municipal Airport,45.54650116,-100.4079971,US,US-SD,Mobridge
MBL,MBL,Manistee County Blacker Airport,44.272707,-86.246495,US,US-MI,Manistee
DXE,MBO,Bruce Campbell Field,32.438702,-90.103104,US,US-MS,Madison
MBS,MBS,MBS International Airport,43.531913,-84.082275,US,US-MI,Freeland
MBY,MBY,Omar N Bradley Airport,39.464393,-92.428365,US,US-MO,Moberly
MCB,MCB,McComb-Pike County Airport / John E Lewis Field,31.178499,-90.471901,US,US-MS,McComb
MCC,MCC,McClellan Airfield,38.667599,-121.401001,US,US-CA,Sacramento
MCD,MCD,Mackinac Island Airport,45.86489868,-84.63729858,US,US-MI,Mackinac Island
MCE,MCE,Merced Regional Macready Field,37.284698,-120.514,US,US-CA,Merced
MCF,MCF,MacDill Air Force Base,27.8493,-82.521202,US,US-FL,Tampa
MCI,MCI,Kansas City International Airport,39.2976,-94.713898,US,US-MO,Kansas City
MCK,MCK,McCook Ben Nelson Regional Airport,40.207787,-100.592794,US,US-NE,McCook
MCN,MCN,Middle Georgia Regional Airport,32.69279861,-83.64920044,US,US-GA,Macon
MCO,MCO,Orlando International Airport,28.42939949,-81.30899811,US,US-FL,Orlando
MCW,MCW,Mason City Municipal Airport,43.159801,-93.329716,US,US-IA,Mason City
MDD,MDD,Midland Airpark,32.03649902,-102.1009979,US,US-TX,Midland
MDH,MDH,Southern Illinois Airport,37.778099,-89.251999,US,US-IL,Murphysboro
XMD,MDS,Madison Municipal Airport,44.01599884,-97.08589935,US,US-SD,Madison
MDT,MDT,Harrisburg International Airport,40.193501,-76.763397,US,US-PA,Harrisburg
MDW,MDW,Chicago Midway International Airport,41.785999,-87.752403,US,US-IL,Chicago
MDF,MDZ,Taylor County Airport,45.10100174,-90.30329895,US,US-WI,Medford
MXE,MEB,Laurinburg Maxton Airport,34.791901,-79.365799,US,US-NC,Maxton
MEI,MEI,Key Field / Meridian Regional Airport,32.3326,-88.7519,US,US-MS,Meridian
MEM,MEM,Memphis International Airport,35.0424,-89.9767,US,US-TN,Memphis
MER,MER,Castle Airport,37.38050079,-120.5680008,US,US-CA,Merced
MEV,MEV,Minden-Tahoe Airport,39.00030136,-119.7509995,US,US-NV,Minden
UMZ,MEZ,Mena Intermountain Municipal Airport,34.545399,-94.202698,US,US-AR,Mena
MFD,MFD,Mansfield Lahm Regional Airport,40.82139969,-82.51660156,US,US-OH,Mansfield
MFE,MFE,McAllen Miller International Airport,26.176141,-98.237965,US,US-TX,McAllen
MFI,MFI,Marshfield Municipal Airport,44.63690186,-90.18930054,US,US-WI,Marshfield
MFR,MFR,Rogue Valley International Medford Airport,42.37419891,-122.8730011,US,US-OR,Medford
MFV,MFV,Accomack County Airport,37.64690018,-75.76110077,US,US-VA,Melfa
MGC,MGC,Michigan City Municipal Airport,41.70330048,-86.82119751,US,US-IN,Michigan City
MGE,MGE,Dobbins Air Reserve Base,33.915401,-84.516296,US,US-GA,Marietta
MGJ,MGJ,Orange County Airport,41.50999832,-74.26460266,US,US-NY,Montgomery
MGM,MGM,Montgomery Regional (Dannelly Field) Airport,32.300598,-86.393997,US,US-AL,Montgomery
MGR,MGR,Moultrie Municipal Airport,31.0848999,-83.80329895,US,US-GA,Moultrie
MGW,MGW,Morgantown Municipal Airport Walter L. (Bill) Hart Field,39.643305,-79.917598,US,US-WV,Morgantown
MGY,MGY,Dayton-Wright Brothers Airport,39.5890007,-84.22489929,US,US-OH,Dayton
MHE,MHE,Mitchell Municipal Airport,43.77479935,-98.03859711,US,US-SD,Mitchell
MHK,MHK,Manhattan Regional Airport,39.14099884,-96.67079926,US,US-KS,Manhattan
MHL,MHL,Marshall Memorial Municipal Airport,39.09579849,-93.20290375,US,US-MO,Marshall
MHR,MHR,Sacramento Mather Airport,38.554744,-121.297989,US,US-CA,Sacramento
MHT,MHT,Manchester-Boston Regional Airport,42.932598,-71.435699,US,US-NH,Manchester
MHV,MHV,Mojave Airport,35.05939865,-118.1520004,US,US-CA,Mojave
MIA,MIA,Miami International Airport,25.79319954,-80.29060364,US,US-FL,Miami
MIB,MIB,Minot Air Force Base,48.4156,-101.358002,US,US-ND,Minot
MIC,MIC,Crystal Airport,45.062,-93.353897,US,US-MN,Minneapolis
MIE,MIE,Delaware County Johnson Field,40.242298,-85.395897,US,US-IN,Muncie
MIO,MIO,Miami Municipal Airport,36.909199,-94.887497,US,US-OK,Miami
MIT,MIT,Shafter Airport - Minter Field,35.507401,-119.192002,US,US-CA,Shafter
MIV,MIV,Millville Municipal Airport,39.367802,-75.072197,US,US-NJ,Millville
MIW,MIW,Marshalltown Municipal Airport,42.112701,-92.917801,US,US-IA,Marshalltown
MJQ,MJQ,Jackson Municipal Airport,43.650002,-94.986504,US,US-MN,Jackson
MJX,MJX,Ocean County Airport,39.92750168,-74.29239655,US,US-NJ,Toms River
MKA,MKA,Miller Municipal Airport,44.5252,-98.958099,US,US-SD,Miller
MKC,MKC,Charles B. Wheeler Downtown Airport,39.123199,-94.592796,US,US-MO,Kansas City
MKE,MKE,General Mitchell International Airport,42.947201,-87.896599,US,US-WI,Milwaukee
MKG,MKG,Muskegon County Airport,43.169498,-86.238197,US,US-MI,Muskegon
MKL,MKL,McKellar-Sipes Regional Airport,35.599899,-88.915604,US,US-TN,Jackson
MKO,MKO,Muskogee-Davis Regional Airport,35.656502,-95.366699,US,US-OK,Muskogee
MKT,MKT,Mankato Regional Airport,44.224781,-93.919128,US,US-MN,Mankato
MRK,MKY,Marco Island Executive Airport,25.995001,-81.672501,US,US-FL,Marco Island
MLB,MLB,Melbourne Orlando International Airport,28.1028,-80.645302,US,US-FL,Melbourne
MLC,MLC,Mc Alester Regional Airport,34.882401,-95.783501,US,US-OK,Mc Alester
MLD,MLD,Malad City Airport,42.166599,-112.296997,US,US-ID,Malad City
MIQ,MLE,Millard Airport,41.195877,-96.112107,US,US-NE,Omaha
MLF,MLF,Milford Municipal-Ben and Judy Briscoe Field,38.426601,-113.012001,US,US-UT,Milford
MLI,MLI,Quad City International Airport,41.448502,-90.5075,US,US-IL,Moline
MLJ,MLJ,Baldwin County Regional Airport,33.154202,-83.240701,US,US-GA,Milledgeville
MLS,MLS,Miles City Airport - Frank Wiley Field,46.427268,-105.885372,US,US-MT,Miles City
MLT,MLT,Millinocket Municipal Airport,45.6478,-68.6856,US,US-ME,Millinocket
MLU,MLU,Monroe Regional Airport,32.510899,-92.037697,US,US-LA,Monroe
MMH,MMH,Mammoth Yosemite Airport,37.625381,-118.84306,US,US-CA,Mammoth Lakes
MMI,MMI,McMinn County Airport,35.39730072,-84.56259918,US,US-TN,Athens
MML,MML,Southwest Minnesota Regional Airport - Marshall/Ryan Field,44.45050049,-95.82189941,US,US-MN,Marshall
MMS,MMS,Selfs Airport,34.231499,-90.289597,US,US-MS,Marks
MMT,MMT,Mc Entire Joint National Guard Base,33.92079926,-80.80130005,US,US-SC,Eastover
MMU,MMU,Morristown Municipal Airport,40.799062,-74.414949,US,US-NJ,Morristown
MNM,MNM,Menominee–Marinette Twin County Airport,45.126701,-87.638397,US,US-MI,Menominee
MNN,MNN,Marion Municipal Airport,40.61619949,-83.06349945,US,US-OH,Marion
MOB,MOB,Mobile Regional Airport,30.6912,-88.242798,US,US-AL,Mobile
MOD,MOD,Modesto City Co-Harry Sham Field,37.625801,-120.954002,US,US-CA,Modesto
MOP,MOP,Mount Pleasant Municipal Airport,43.6217,-84.737503,US,US-MI,Mount Pleasant
MOR,MOR,Morristown Regional Airport,36.179401,-83.375504,US,US-TN,Morristown
MOT,MOT,Minot International Airport,48.25939941,-101.2799988,US,US-ND,Minot
MOX,MOX,Morris Municipal Airport Charlie Schmidt Field,45.566002,-95.967201,US,US-MN,Morris
RMY,MPI,Mariposa Yosemite Airport,37.51089859,-120.0400009,US,US-CA,Mariposa
MPJ,MPJ,Petit Jean Park Airport,35.138901,-92.909202,US,US-AR,Morrilton
MPO,MPO,Pocono Mountains Municipal Airport,41.136025,-75.379572,US,US-PA,Mount Pocono
MPR,MPR,Mc Pherson Airport,38.352402,-97.691299,US,US-KS,Mc Pherson
MPV,MPV,Edward F Knapp State Airport,44.20349884,-72.56230164,US,US-VT,Barre/Montpelier
MPZ,MPZ,Mount Pleasant Municipal Airport,40.94660187,-91.51110077,US,US-IA,Mount Pleasant
MQB,MQB,Macomb Municipal Airport,40.52009964,-90.65239716,US,US-IL,Macomb
MEO,MQI,Dare County Regional Airport,35.91879,-75.695662,US,US-NC,Manteo
CTH,MQS,Chester County G O Carlson Airport,39.97900009,-75.8655014,US,US-PA,Coatesville
MQW,MQW,Telfair Wheeler Airport,32.095798,-82.879997,US,US-GA,Mc Rae
MQY,MQY,Smyrna Airport,36.00899887,-86.52010345,US,US-TN,Smyrna
MRB,MRB,Eastern WV Regional Airport/Shepherd Field,39.40190125,-77.98459625,US,US-WV,Martinsburg
MRC,MRC,Maury County Airport,35.55410004,-87.17890167,US,US-TN,Columbia/Mount Pleasant
MRF,MRF,Marfa Municipal Airport,30.369593,-104.015893,US,US-TX,Marfa
MRN,MRN,Foothills Regional Airport,35.820202,-81.611397,US,US-NC,Morganton
MRY,MRY,Monterey Peninsula Airport,36.5870018,-121.8430023,US,US-CA,Monterey
MSL,MSL,Northwest Alabama Regional Airport,34.745123,-87.612981,US,US-AL,Muscle Shoals
MSN,MSN,Dane County Regional Truax Field,43.1399,-89.337502,US,US-WI,Madison
MSO,MSO,Missoula International Airport,46.91630173,-114.0910034,US,US-MT,Missoula
MSP,MSP,Minneapolis–Saint Paul International Airport / Wold–Chamberlain Field,44.880081,-93.221741,US,US-MN,Minneapolis
MSS,MSS,Massena International Airport Richards Field,44.936157,-74.844304,US,US-NY,Massena
MSV,MSV,Sullivan County International Airport,41.701596,-74.794997,US,US-NY,Monticello
MSY,MSY,Louis Armstrong New Orleans International Airport,29.993401,-90.258003,US,US-LA,New Orleans
MTC,MTC,Selfridge Air National Guard Base Airport,42.613463,-82.836919,US,US-MI,Mount Clemens
MTH,MTH,The Florida Keys Marathon Airport,24.726101,-81.051399,US,US-FL,Marathon
MTJ,MTJ,Montrose Regional Airport,38.5098,-107.893997,US,US-CO,Montrose
MTN,MTN,Martin State Airport,39.325699,-76.413803,US,US-MD,Baltimore
MTO,MTO,Coles County Memorial Airport,39.477901,-88.279198,US,US-IL,Mattoon
MTP,MTP,Montauk Airport,41.0765,-71.920797,US,US-NY,Montauk
MTW,MTW,Manitowoc County Airport,44.127116,-87.681983,US,US-WI,Manitowoc
MUI,MUI,Muir Army Air Field (Fort Indiantown Gap) Airport,40.435214,-76.568661,US,US-PA,Fort Indiantown Gap(Annville)
MUL,MUL,Spence Airport,31.141569,-83.703718,US,US-GA,Moultrie
MUO,MUO,Mountain Home Air Force Base,43.043598,-115.872002,US,US-ID,Mountain Home
MUT,MUT,Muscatine Municipal Airport,41.367803,-91.148201,US,US-IA,Muscatine
MVC,MVC,Monroe County Aeroplex Airport,31.458,-87.350996,US,US-AL,Monroeville
MVE,MVE,Montevideo Chippewa County Airport,44.969101,-95.710297,US,US-MN,Montevideo
MVL,MVL,Morrisville-Stowe State Airport,44.534599,-72.613998,US,US-VT,Morrisville
MVN,MVN,Mount Vernon Outland Airport,38.322774,-88.859257,US,US-IL,Mount Vernon
MVY,MVY,Martha's Vineyard Airport,41.39310074,-70.61430359,US,US-MA,Martha's Vineyard
MWA,MWA,Veterans Airport of Southern Illinois,37.751208,-89.016568,US,US-IL,Marion
MWC,MWC,Lawrence J Timmerman Airport,43.110401,-88.034401,US,US-WI,Milwaukee
MWH,MWH,Grant County International Airport,47.20769882,-119.3199997,US,US-WA,Moses Lake
MWL,MWL,Mineral Wells Regional Airport,32.781601,-98.060204,US,US-TX,Mineral Wells
MWM,MWM,Windom Municipal Airport,43.913399,-95.109398,US,US-MN,Windom
MWO,MWO,Middletown Regional Airport,39.530998,-84.395302,US,US-OH,Middletown
MXA,MXA,Manila Municipal Airport,35.894402,-90.154602,US,US-AR,Manila
MXF,MXF,Maxwell Air Force Base,32.3829,-86.365799,US,US-AL,Montgomery
MXO,MXO,Monticello Regional Airport,42.220402,-91.1633,US,US-IA,Monticello
MYF,MYF,Montgomery-Gibbs Executive Airport,32.8157,-117.139999,US,US-CA,San Diego
MYL,MYL,McCall Municipal Airport,44.888837,-116.101112,US,US-ID,McCall
MYR,MYR,Myrtle Beach International Airport,33.679699,-78.928299,US,US-SC,Myrtle Beach
MYV,MYV,Yuba County Airport,39.09780121,-121.5699997,US,US-CA,Marysville
MZJ,MZJ,Pinal Airpark,32.51060104,-111.3280029,US,US-AZ,Marana
MZZ,MZZ,Marion Municipal Airport,40.48989868,-85.67970276,US,US-IN,Marion
CTX,N03,Cortland County Chase Field,42.59260178,-76.21489716,US,US-NY,Cortland
SXY,N23,Sidney Municipal Airport,42.30260086,-75.41600037,US,US-NY,Sidney
ONH,N66,Albert S Nader Regional Airport,42.5247,-75.0644,US,US-NY,Oneonta
NBG,NBG,New Orleans NAS JRB/Alvin Callender Field,29.82530022,-90.03500366,US,US-LA,New Orleans
NHX,NBJ,Naval Outlying Field Barin,30.38909912,-87.63529968,US,US-AL,Foley
NEL,NEL,Lakehurst Maxfield Field Airport,40.03329849,-74.353302,US,US-NJ,Lakehurst
NEN,NEN,Whitehouse Naval Outlying Field,30.35390091,-81.87190247,US,US-FL,Jacksonville
NEW,NEW,Lakefront Airport,30.04240036,-90.02829742,US,US-LA,New Orleans
NFL,NFL,Fallon Naval Air Station,39.41659927,-118.7009964,US,US-NV,Fallon
FWH,NFW,NAS Fort Worth JRB / Carswell Field,32.769199,-97.441498,US,US-TX,Fort Worth
NGP,NGP,Naval Air Station Corpus Christi Truax Field,27.6926,-97.2911,US,US-TX,Corpus Christi
NGU,NGU,Norfolk Naval Station (Chambers Field),36.937599,-76.289299,US,US-VA,Norfolk
NGW,NGW,Cabaniss Field Naval Outlying Landing Field,27.704426,-97.440578,US,US-TX,Corpus Christi
NHK,NHK,Patuxent River Naval Air Station (Trapnell Field),38.285999,-76.411797,US,US-MD,Patuxent River
NIP,NIP,Jacksonville Naval Air Station (Towers Field),30.2358,-81.680603,US,US-FL,Jacksonville
NJK,NJK,El Centro NAF Airport (Vraciu Field),32.829201,-115.671996,US,US-CA,El Centro
NKX,NKX,Miramar Marine Corps Air Station - Mitscher Field,32.86840057,-117.1429977,US,US-CA,San Diego
NLC,NLC,Lemoore Naval Air Station (Reeves Field) Airport,36.33300018,-119.9520035,US,US-CA,Lemoore
NPA,NPA,Naval Air Station Pensacola Forrest Sherman Field,30.352699,-87.318604,US,US-FL,Pensacola
NQA,NQA,Millington-Memphis Airport,35.356701,-89.8703,US,US-TN,Millington
NQI,NQI,Kingsville Naval Air Station,27.50720024,-97.80970001,US,US-TX,Kingsville
NQX,NQX,Naval Air Station Key West/Boca Chica Field,24.57579994,-81.68890381,US,US-FL,Key West
NRB,NRB,Naval Station Mayport / Admiral David L McDonald Field,30.3911,-81.424698,US,US-FL,Jacksonville
NRS,NRS,Naval Outlying Field Imperial Beach (Ream Field),32.5667,-117.116997,US,US-CA,Imperial Beach
NSE,NSE,Whiting Field Naval Air Station - North,30.7241993,-87.02189636,US,US-FL,Milton
NTD,NTD,Point Mugu Naval Air Station (Naval Base Ventura Co),34.12030029,-119.1210022,US,US-CA,Point Mugu
NTU,NTU,Oceana Naval Air Station,36.820702,-76.033501,US,US-VA,Virginia Beach
NUQ,NUQ,Moffett Federal Airfield,37.4161,-122.049004,US,US-CA,Mountain View
NUW,NUW,Whidbey Island Naval Air Station (Ault Field),48.351799,-122.655998,US,US-WA,Oak Harbor
NVD,NVD,Nevada Municipal Airport,37.8521,-94.304901,US,US-MO,Nevada
NYG,NYG,Quantico Marine Corps Airfield / Turner Field,38.501701,-77.305298,US,US-VA,Quantico
YUM,NYL,Yuma International Airport / Marine Corps Air Station Yuma,32.650938,-114.609375,US,US-AZ,Yuma
NZY,NZY,North Island Naval Air Station-Halsey Field,32.69919968,-117.2149963,US,US-CA,San Diego
NVN,O02,Nervino Airport,39.818501,-120.352997,US,US-CA,Beckwourth
COA,O22,Columbia Airport,38.03039932,-120.4150009,US,US-CA,Columbia
ODC,O27,Oakdale Airport,37.75630188,-120.8000031,US,US-CA,Oakdale
EYR,O43,Yerington Municipal Airport,39.0041008,-119.1579971,US,US-NV,Yerington
OAJ,OAJ,Albert J Ellis Airport,34.829201,-77.612099,US,US-NC,Richlands
OAK,OAK,San Francisco Bay Oakland International Airport,37.720085,-122.221184,US,US-CA,Oakland
OAR,OAR,Marina Municipal Airport,36.68190002,-121.762001,US,US-CA,Marina
OBE,OBE,Okeechobee County Airport,27.26280022,-80.84980011,US,US-FL,Okeechobee
OCF,OCF,Ocala International Airport - Jim Taylor Field,29.17259979,-82.22419739,US,US-FL,Ocala
OCH,OCH,A L Mangham Jr. Regional Airport,31.57799911,-94.70950317,US,US-TX,Nacogdoches
OCW,OCW,Warren Field,35.57049942,-77.04979706,US,US-NC,Washington
ODT,ODO,Odessa Schlemeyer Field,31.920601,-102.387001,US,US-TX,Odessa
OEA,OEA,O'Neal Airport,38.68521,-87.543138,US,US-IL,Lawrenceville
OEO,OEO,L O Simenstad Municipal Airport,45.31000137,-92.69190216,US,US-WI,Osceola
OFF,OFF,Offutt Air Force Base,41.119307,-95.90851,US,US-NE,Omaha
OFK,OFK,Karl Stefan Memorial Airport,41.98550034,-97.43509674,US,US-NE,Norfolk
OGA,OGA,Ogallala Municipal Airport Searle Field,41.119499,-101.769997,US,US-NE,Ogallala
OGB,OGB,Orangeburg Municipal Airport,33.45679855,-80.85949707,US,US-SC,Orangeburg
OGD,OGD,Ogden Hinckley Airport,41.19589996,-112.012001,US,US-UT,Ogden
OGS,OGS,Ogdensburg International Airport,44.6819,-75.4655,US,US-NY,Ogdensburg
OIC,OIC,Lt Warren Eaton Airport,42.5666008,-75.52410126,US,US-NY,Norwich
OJC,OJC,Johnson County Executive Airport,38.84759903,-94.73760223,US,US-KS,Olathe
OCN,OKB,Oceanside Municipal Airport,33.217947,-117.351683,US,US-CA,Oceanside
OKC,OKC,Will Rogers World Airport,35.393388,-97.598248,US,US-OK,Oklahoma City
ODW,OKH,AJ Eisenberg Airport,48.25149918,-122.6740036,US,US-WA,Oak Harbor
OKK,OKK,Kokomo Municipal Airport,40.52819824,-86.05899811,US,US-IN,Kokomo
OKM,OKM,Okmulgee Regional Airport,35.66809845,-95.94869995,US,US-OK,Okmulgee
OKS,OKS,Garden County Airport/King Rhiley Field,41.401001,-102.355003,US,US-NE,Oshkosh
WGO,OKV,Winchester Regional Airport,39.14350128,-78.14440155,US,US-VA,Winchester
OLD,OLD,Dewitt Field - Old Town Municipal Airport,44.952801,-68.674301,US,US-ME,Old Town
OLE,OLE,Cattaraugus County-Olean Airport,42.241199,-78.371399,US,US-NY,Olean
OLF,OLF,L M Clayton Airport,48.094501,-105.574997,US,US-MT,Wolf Point
OLM,OLM,Olympia Regional Airport,46.969399,-122.903,US,US-WA,Olympia
OLS,OLS,Nogales International Airport,31.4177,-110.848,US,US-AZ,Nogales
OLU,OLU,Columbus Municipal Airport,41.448145,-97.340174,US,US-NE,Columbus
OLV,OLV,Olive Branch Airport,34.97869873,-89.78690338,US,US-MS,Olive Branch
OLY,OLY,Olney Noble Airport,38.721802,-88.176399,US,US-IL,Olney-Noble
OMA,OMA,Eppley Airfield,41.3032,-95.894096,US,US-NE,Omaha
OMK,OMK,Omak Airport,48.46440125,-119.5179977,US,US-WA,Omak
ONA,ONA,Winona Municipal Airport Max Conrad Field,44.077202,-91.708298,US,US-MN,Winona
ONL,ONL,O'Neill Municipal Airport–John L Baker Field,42.468916,-98.686989,US,US-NE,O'Neill
ONM,ONM,Socorro Municipal Airport,34.022499,-106.903,US,US-NM,Socorro
ONO,ONO,Ontario Municipal Airport,44.0198,-117.013289,US,US-OR,Oregon
ONP,ONP,Newport Municipal Airport,44.580399,-124.057999,US,US-OR,Newport
ONT,ONT,Ontario International Airport,34.056,-117.600998,US,US-CA,Ontario
ONY,ONY,Olney Municipal Airport,33.350899,-98.819199,US,US-TX,Olney
OOA,OOA,Oskaloosa Municipal Airport,41.2262,-92.493896,US,US-IA,Cedar
OPF,OPF,Miami-Opa Locka Executive Airport,25.907,-80.278397,US,US-FL,Miami
OPL,OPL,St Landry Parish Ahart Field,30.558399,-92.099403,US,US-LA,Opelousas
NCO,OQU,Quonset State Airport,41.5970993,-71.41210175,US,US-RI,North Kingstown
ORD,ORD,Chicago O'Hare International Airport,41.9786,-87.9048,US,US-IL,Chicago
ORF,ORF,Norfolk International Airport,36.895341,-76.201,US,US-VA,Norfolk
ORH,ORH,Worcester Regional Airport,42.2673,-71.875702,US,US-MA,Worcester
ORL,ORL,Orlando Executive Airport,28.5455,-81.332901,US,US-FL,Orlando
ESD,ORS,Orcas Island Airport,48.708199,-122.910004,US,US-WA,Eastsound
MPS,OSA,Mount Pleasant Regional Airport,33.095501,-94.961502,US,US-TX,Mount Pleasant
OSC,OSC,Oscoda Wurtsmith Airport,44.451599,-83.394096,US,US-MI,Oscoda
OSH,OSH,Wittman Regional Airport,43.9844017,-88.55699921,US,US-WI,Oshkosh
OSU,OSU,The Ohio State University Airport - Don Scott Field,40.0798,-83.072998,US,US-OH,Columbus
OSX,OSX,Kosciusko Attala County Airport,33.090302,-89.542,US,US-MS,Kosciusko
OTG,OTG,Worthington Municipal Airport,43.65477,-95.577364,US,US-MN,Worthington
OTH,OTH,Southwest Oregon Regional Airport,43.417099,-124.2460022,US,US-OR,North Bend
OTM,OTM,Ottumwa Regional Airport,41.106368,-92.449837,US,US-IA,Ottumwa
OUN,OUN,University of Oklahoma Westheimer Airport,35.2456,-97.472099,US,US-OK,Norman
OVE,OVE,Oroville Municipal Airport,39.4878006,-121.6220016,US,US-CA,Oroville
OWA,OWA,Owatonna Degner Regional Airport,44.123402,-93.260597,US,US-MN,Owatonna
OWB,OWB,Owensboro Daviess County Airport,37.74010086,-87.16680145,US,US-KY,Owensboro
OWD,OWD,Norwood Memorial Airport,42.19049835,-71.17289734,US,US-MA,Norwood
OWK,OWK,Central Maine/Norridgewock Airport,44.7155,-69.866501,US,US-ME,Norridgewock
OCE,OXB,Ocean City Municipal Airport,38.3103981,-75.12400055,US,US-MD,Ocean City
OXC,OXC,Waterbury Oxford Airport,41.47859955,-73.1352005,US,US-CT,Oxford
OXD,OXD,Miami University Airport,39.50230026,-84.78440094,US,US-OH,Oxford
OXR,OXR,Oxnard Airport,34.20080185,-119.2070007,US,US-CA,Oxnard
STQ,OYM,St Marys Municipal Airport,41.41249847,-78.50260162,US,US-PA,St Marys
OZA,OZA,Ozona Municipal Airport,30.73530006,-101.2030029,US,US-TX,Ozona
OZR,OZR,Cairns AAF (Fort Rucker) Air Field,31.27569962,-85.71340179,US,US-AL,Fort Rucker/Ozark
BSQ,P04,Bisbee Municipal Airport,31.36400032,-109.8830032,US,US-AZ,Bisbee
PXL,P10,Polacca Airport,35.79169846,-110.4229965,US,US-AZ,Polacca
GLB,P13,San Carlos Apache Airport,33.3531,-110.667,US,US-AZ,Globe
HBK,P14,Holbrook Municipal Airport,34.94070053,-110.1380005,US,US-AZ,Holbrook
CWX,P33,Cochise County Airport,32.245399,-109.894997,US,US-AZ,Willcox
CTW,P52,Cottonwood Airport,34.73,-112.035004,US,US-AZ,Cottonwood
PAE,PAE,Seattle Paine Field International Airport,47.9063,-122.281998,US,US-WA,Everett
PAH,PAH,Barkley Regional Airport,37.06079865,-88.77380371,US,US-KY,Paducah
PAM,PAM,Tyndall Air Force Base,30.069599,-85.575401,US,US-FL,Panama City
PJB,PAN,Payson Airport,34.25680161,-111.3389969,US,US-AZ,Payson
PAO,PAO,Palo Alto Airport,37.461102,-122.114998,US,US-CA,Palo Alto
PBF,PBF,"Pine Bluff Regional Airport, Grider Field",34.174121,-91.935643,US,US-AR,Pine Bluff
PBG,PBG,Plattsburgh International Airport,44.65090179,-73.4681015,US,US-NY,Plattsburgh
PBI,PBI,Palm Beach International Airport,26.683201,-80.095596,US,US-FL,West Palm Beach
PVL,PBX,Pike County Airport Hatcher Field,37.560795,-82.570051,US,US-KY,Pikeville
PCD,PDC,Prairie Du Chien Municipal Airport,43.01929855,-91.123703,US,US-WI,Prairie Du Chien
PDK,PDK,DeKalb Peachtree Airport,33.87633,-84.30213,US,US-GA,Atlanta
PDT,PDT,Eastern Oregon Regional Airport at Pendleton,45.695099,-118.841003,US,US-OR,Pendleton
PDX,PDX,Portland International Airport,45.588699,-122.598,US,US-OR,Portland
PEQ,PEQ,Pecos Municipal Airport,31.38240051,-103.5110016,US,US-TX,Pecos
PFC,PFC,Pacific City State Airport,45.199799,-123.961998,US,US-OR,Pacific City
PGA,PGA,Page Municipal Airport,36.924234,-111.447716,US,US-AZ,Page
PGD,PGD,Punta Gorda Airport,26.9202,-81.990501,US,US-FL,Punta Gorda
PGR,PGR,Kirk Field,36.06290054,-90.50779724,US,US-AR,Paragould
PGV,PGV,Pitt-Greenville Airport,35.635535,-77.384262,US,US-NC,Greenville
PHD,PHD,Harry Clever Field,40.47090149,-81.41970062,US,US-OH,New Philadelphia
PHF,PHF,Newport News Williamsburg International Airport,37.131901,-76.492996,US,US-VA,Newport News
ADR,PHH,Robert F Swinnie Airport,33.4516983,-79.52619934,US,US-SC,Andrews
PHK,PHK,Palm Beach County Glades Airport,26.78499985,-80.69339752,US,US-FL,Pahokee
PHL,PHL,Philadelphia International Airport,39.871899,-75.241096,US,US-PA,Philadelphia
PHN,PHN,St Clair County International Airport,42.9109993,-82.52890015,US,US-MI,Port Huron
PHP,PHP,Philip Airport,44.048527,-101.600933,US,US-SD,Philip
PHT,PHT,Henry County Airport,36.33819962,-88.38289642,US,US-TN,Paris
PHX,PHX,Phoenix Sky Harbor International Airport,33.435302,-112.005905,US,US-AZ,Phoenix
PIA,PIA,General Wayne A. Downing Peoria International Airport,40.6642,-89.693298,US,US-IL,Peoria
PIB,PIB,Hattiesburg Laurel Regional Airport,31.4671,-89.337097,US,US-MS,Moselle
PIE,PIE,St. Petersburg Clearwater International Airport,27.9102,-82.687401,US,US-FL,Pinellas Park
PIH,PIH,Pocatello Regional Airport,42.90980148,-112.5960007,US,US-ID,Pocatello
PIM,PIM,Harris County Airport,32.84069824,-84.88240051,US,US-GA,Pine Mountain
PIR,PIR,Pierre Regional Airport,44.38270187,-100.2860031,US,US-SD,Pierre
PIT,PIT,Pittsburgh International Airport,40.491501,-80.232903,US,US-PA,Pittsburgh
PKB,PKB,Mid Ohio Valley Regional Airport,39.3451,-81.439201,US,US-WV,Parkersburg (Williamstown)
PKD,PKD,Park Rapids Municipal Airport Konshok Field,46.9006,-95.073095,US,US-MN,Park Rapids
PKF,PKF,Park Falls Municipal Airport,45.95500183,-90.42440033,US,US-WI,Park Falls
PLK,PLK,M. Graham Clark Downtown Airport,36.62590027,-93.22889709,US,US-MO,Branson / Hollister
PLN,PLN,Pellston Regional Airport of Emmet County Airport,45.57089996,-84.79669952,US,US-MI,Pellston
PLR,PLR,St Clair County Airport,33.55879974,-86.24909973,US,US-AL,Pell City
PMB,PMB,Pembina Municipal Airport,48.94250107,-97.24079895,US,US-ND,Pembina
PMD,PMD,Palmdale Regional Airport / USAF Plant 42 Airport,34.629398,-118.084999,US,US-CA,Palmdale
PMH,PMH,Greater Portsmouth Regional Airport,38.84049988,-82.84729767,US,US-OH,Portsmouth
PPM,PMP,Pompano Beach Airpark,26.24710083,-80.11109924,US,US-FL,Pompano Beach
PWY,PNA,Ralph Wenz Field,42.79550171,-109.8069992,US,US-WY,Pinedale
PNC,PNC,Ponca City Regional Airport,36.73199844,-97.09980011,US,US-OK,Ponca City
PNE,PNE,Northeast Philadelphia Airport,40.082406,-75.010614,US,US-PA,Philadelphia
PNN,PNN,Princeton Municipal Airport,45.20069885,-67.56439972,US,US-ME,Princeton
PNS,PNS,Pensacola International Airport,30.4734,-87.1866,US,US-FL,Pensacola
POB,POB,Pope Field,35.170898,-79.014503,US,US-NC,Fort Bragg
POC,POC,Brackett Field,34.09159851,-117.7819977,US,US-CA,La Verne
POE,POE,Polk Army Air Field,31.0447998,-93.1917038,US,US-LA,Fort Polk
POF,POF,Poplar Bluff Municipal Airport,36.773899,-90.324898,US,US-MO,Poplar Bluff
POH,POH,Pocahontas Municipal Airport,42.742802,-94.647301,US,US-IA,Pocahontas
POU,POU,Dutchess County Airport,41.62659836,-73.88420105,US,US-NY,Poughkeepsie
POY,POY,Powell Municipal Airport,44.86719894,-108.7929993,US,US-WY,Powell
PPA,PPA,Perry Lefors Field,35.61299896,-100.9960022,US,US-TX,Pampa
PPF,PPF,Tri-City Airport,37.32989883,-95.5062027,US,US-KS,Parsons
LPO,PPO,La Porte Municipal Airport,41.57249832,-86.73449707,US,US-IN,La Porte
PQI,PQI,Presque Isle International Airport,46.688999,-68.0448,US,US-ME,Presque Isle
PGL,PQL,Trent Lott International Airport,30.46279907,-88.52919769,US,US-MS,Pascagoula
PRB,PRB,Paso Robles Municipal Airport,35.67290115,-120.6269989,US,US-CA,Paso Robles
PRC,PRC,Prescott International Airport - Ernest A. Love Field,34.654499,-112.419998,US,US-AZ,Prescott
PRO,PRO,Perry Municipal Airport,41.82799911,-94.15989685,US,US-IA,Perry
PRX,PRX,Cox Field,33.63660049,-95.45079803,US,US-TX,Paris
PSB,PSB,Mid-State Regional Airport,40.884399,-78.087303,US,US-PA,Philipsburg
PSC,PSC,Tri Cities Airport,46.264702,-119.119003,US,US-WA,Pasco
PSF,PSF,Pittsfield Municipal Airport,42.4268,-73.2929,US,US-MA,Pittsfield
PSK,PSK,New River Valley Airport,37.13729858,-80.67849731,US,US-VA,Dublin
PSM,PSM,Portsmouth International at Pease Airport,43.07789993,-70.82330322,US,US-NH,Portsmouth
PSN,PSN,Palestine Municipal Airport,31.77969933,-95.70629883,US,US-TX,Palestine
PGO,PSO,Stevens Field,37.28630066,-107.0559998,US,US-CO,Pagosa Springs
PSP,PSP,Palm Springs International Airport,33.8297,-116.507004,US,US-CA,Palm Springs
PSX,PSX,Palacios Municipal Airport,28.72750092,-96.25099945,US,US-TX,Palacios
PTB,PTB,Dinwiddie County Airport,37.18379974,-77.50740051,US,US-VA,Petersburg
PTK,PTK,Oakland County International Airport,42.66550064,-83.42009735,US,US-MI,Pontiac
PTN,PTN,Harry P Williams Memorial Airport,29.70949936,-91.33899689,US,US-LA,Patterson
PTS,PTS,Atkinson Municipal Airport,37.449501,-94.731102,US,US-KS,Pittsburg
PTT,PTT,Pratt Regional Airport,37.70159912,-98.74690247,US,US-KS,Pratt
PTV,PTV,Porterville Municipal Airport,36.02959824,-119.0630035,US,US-CA,Porterville
PTW,PTW,Heritage Field,40.239601,-75.556702,US,US-PA,Pottstown
PUB,PUB,Pueblo Memorial Airport,38.289101,-104.497002,US,US-CO,Pueblo
PUC,PUC,Carbon County Regional Airport / Buck Davis Field,39.613899,-110.751,US,US-UT,Price
PUW,PUW,Pullman-Moscow Regional Airport,46.741601,-117.11163,US,US-WA,Pullman
PVC,PVC,Provincetown Municipal Airport,42.07189941,-70.2213974,US,US-MA,Provincetown
PVD,PVD,Theodore Francis Green State Airport,41.725038,-71.425668,US,US-RI,Warwick
PVF,PVF,Placerville Airport,38.7242012,-120.7529984,US,US-CA,Placerville
PVU,PVU,Provo-Utah Lake International Airport,40.2192,-111.723,US,US-UT,Provo
PVW,PVW,Hale County Airport,34.168098,-101.717003,US,US-TX,Plainview
PWA,PWA,Wiley Post Airport,35.53419876,-97.64710236,US,US-OK,Oklahoma City
PWD,PWD,Sher-Wood Airport,48.79029846,-104.5339966,US,US-MT,Plentywood
PWK,PWK,Chicago Executive Airport,42.114222,-87.901494,US,US-IL,Chicago/Prospect Heights/Wheeling
PWM,PWM,Portland International Jetport,43.646198,-70.309303,US,US-ME,Portland
PWT,PWT,Bremerton National Airport,47.49020004,-122.7649994,US,US-WA,Bremerton
PYM,PYM,Plymouth Municipal Airport,41.909,-70.728798,US,US-MA,Plymouth
RAC,RAC,John H Batten Airport,42.76060104,-87.81520081,US,US-WI,Racine
RAL,RAL,Riverside Municipal Airport,33.9519,-117.445,US,US-CA,Riverside
RAP,RAP,Rapid City Regional Airport,44.04529953,-103.0569992,US,US-SD,Rapid City
RBD,RBD,Dallas Executive Airport,32.68090057,-96.86820221,US,US-TX,Dallas
RBG,RBG,Roseburg Regional Airport,43.23880005,-123.3560028,US,US-OR,Roseburg
RBL,RBL,Red Bluff Municipal Airport,40.15069962,-122.2519989,US,US-CA,Red Bluff
RBW,RBW,Lowcountry Regional Airport,32.92100143,-80.64060211,US,US-SC,Walterboro
RCA,RCA,Ellsworth Air Force Base,44.14500046,-103.1039963,US,US-SD,Rapid City
RCK,RCK,H H Coffield Regional Airport,30.63159943,-96.98970032,US,US-TX,Rockdale
RCR,RCR,Fulton County Airport,41.06560135,-86.18170166,US,US-IN,Rochester
RCT,RCT,Nartron Field,43.90000153,-85.51670074,US,US-MI,Reed City
RDD,RDD,Redding Municipal Airport,40.50899887,-122.2929993,US,US-CA,Redding
RDG,RDG,Reading Regional Airport (Carl A Spaatz Field),40.378502,-75.965202,US,US-PA,Reading
RDM,RDM,Roberts Field,44.254101,-121.150002,US,US-OR,Redmond
RDR,RDR,Grand Forks Air Force Base,47.96110153,-97.40119934,US,US-ND,Grand Forks
RDU,RDU,Raleigh Durham International Airport,35.877602,-78.787498,US,US-NC,Raleigh/Durham
REO,REO,Rome State Airport,42.57770157,-117.8850021,US,US-OR,Rome
RFD,RFD,Chicago Rockford International Airport,42.1954,-89.097198,US,US-IL,Chicago/Rockford
RFG,RFG,Rooke Field,28.2936,-97.322998,US,US-TX,Refugio
RHI,RHI,Rhinelander Oneida County Airport,45.63119888,-89.46749878,US,US-WI,Rhinelander
RHV,RHV,Reid-Hillview Airport of Santa Clara County,37.332901,-121.8190002,US,US-CA,San Jose
RIC,RIC,Richmond International Airport,37.505199,-77.319702,US,US-VA,Richmond
RID,RID,Richmond Municipal Airport,39.757198,-84.842796,US,US-IN,Richmond
RIF,RIF,Richfield Municipal Airport,38.734068,-112.101603,US,US-UT,Richfield
RIL,RIL,Garfield County Regional Airport,39.526299,-107.726997,US,US-CO,Rifle
RIR,RIR,Flabob Airport,33.9897,-117.411003,US,US-CA,Riverside
RIV,RIV,March Air Reserve Base,33.880699,-117.259003,US,US-CA,Riverside
RIW,RIW,Central Wyoming Regional Airport,43.064201,-108.459999,US,US-WY,Riverton
RKD,RKD,Knox County Regional Airport,44.060101,-69.099197,US,US-ME,Rockland
RKP,RKP,Aransas County Airport,28.08679962,-97.04460144,US,US-TX,Rockport
RKR,RKR,Robert S Kerr Airport,35.021599,-94.6213,US,US-OK,Poteau
RKS,RKS,Southwest Wyoming Regional Airport,41.5942,-109.065001,US,US-WY,Rock Springs
RKW,RKW,Rockwood Municipal Airport,35.92229843,-84.68969727,US,US-TN,Rockwood
RLD,RLD,Richland Airport,46.305599,-119.304001,US,US-WA,Richland
RME,RME,Griffiss International Airport,43.23379898,-75.40699768,US,US-NY,Rome
RMG,RMG,Richard B Russell Airport,34.3506012,-85.15799713,US,US-GA,Rome
RNC,RNC,Warren County Memorial Airport,35.69869995,-85.84380341,US,US-TN,Mc Minnville
RND,RND,Randolph Air Force Base,29.529699,-98.2789,US,US-TX,Universal City
RNH,RNH,New Richmond Regional Airport,45.1483,-92.538101,US,US-WI,New Richmond
RNO,RNO,Reno Tahoe International Airport,39.4991,-119.767998,US,US-NV,Reno
RNT,RNT,Renton Municipal Airport,47.49309921,-122.2160034,US,US-WA,Renton
ROA,ROA,Roanoke–Blacksburg Regional Airport,37.3255,-79.975403,US,US-VA,Roanoke
ROC,ROC,Frederick Douglass Greater Rochester International Airport,43.1189,-77.672401,US,US-NY,Rochester
ROG,ROG,Rogers Municipal Airport-Carter Field,36.37229919,-94.10690308,US,US-AR,Rogers
ROW,ROW,Roswell Air Center Airport,33.301601,-104.530998,US,US-NM,Roswell
ROX,ROX,Roseau Municipal Rudy Billberg Field,48.855999,-95.696999,US,US-MN,Roseau
RIE,RPD,Rice Lake Regional Airport - Carl's Field,45.423024,-91.773127,US,US-WI,Rice Lake
RPX,RPX,Roundup Airport,46.475095,-108.541497,US,US-MT,Roundup
WBR,RQB,Roben Hood Airport,43.72259903,-85.50409698,US,US-MI,Big Rapids
RQO,RQO,El Reno Regional Airport,35.472698,-98.005798,US,US-OK,El Reno
RRL,RRL,Merrill Municipal Airport,45.19889832,-89.71289825,US,US-WI,Merrill
RRT,RRT,Warroad International Memorial Airport,48.94139862,-95.3483963,US,US-MN,Warroad
RSL,RSL,Russell Municipal Airport,38.87210083,-98.8117981,US,US-KS,Russell
RSN,RSN,Ruston Regional Airport,32.514187,-92.588517,US,US-LA,Ruston
RST,RST,Rochester International Airport,43.908298,-92.5,US,US-MN,Rochester
RSW,RSW,Southwest Florida International Airport,26.53619957,-81.75520325,US,US-FL,Fort Myers
RTN,RTN,Raton Municipal Airport / Crews Field,36.741501,-104.501999,US,US-NM,Raton
SRW,RUQ,Mid-Carolina Regional Airport,35.645901,-80.520302,US,US-NC,Salisbury
RUT,RUT,Rutland - Southern Vermont Regional Airport,43.5294,-72.9496,US,US-VT,Rutland
RED,RVL,Mifflin County Airport,40.67739868,-77.62680054,US,US-PA,Reedsville
RVS,RVS,Tulsa Riverside Airport,36.0396,-95.984596,US,US-OK,Tulsa
RWF,RWF,Redwood Falls Municipal Airport,44.547199,-95.082298,US,US-MN,Redwood Falls
RWI,RWI,Rocky Mount Wilson Regional Airport,35.8563,-77.891899,US,US-NC,Rocky Mount
RWL,RWL,Rawlins Municipal Airport/Harvey Field,41.80559921,-107.1999969,US,US-WY,Rawlins
RXE,RXE,Rexburg Madison County Airport,43.8339,-111.805002,US,US-ID,Rexburg
RNZ,RZL,Jasper County Airport,40.94789886,-87.18260193,US,US-IN,Rensselaer
AHM,S03,Ashland Municipal Airport Sumner Parker Field,42.190265,-122.660648,US,US-OR,Ashland
BDY,S05,Bandon State Airport,43.08649826,-124.4079971,US,US-OR,Bandon
SUO,S21,Sunriver Airport,43.876301,-121.453003,US,US-OR,Sunriver
MDJ,S33,Madras Municipal Airport,44.67020035,-121.1549988,US,US-OR,Madras
PRZ,S39,Prineville Airport,44.28699875,-120.9039993,US,US-OR,Prineville
SAA,SAA,Shively Field,41.444901,-106.823997,US,US-WY,Saratoga
SAC,SAC,Sacramento Executive Airport,38.51250076,-121.4929962,US,US-CA,Sacramento
SAD,SAD,Safford Regional Airport,32.85480118,-109.6350021,US,US-AZ,Safford
SAF,SAF,Santa Fe Municipal Airport,35.6171,-106.088997,US,US-NM,Santa Fe
SAN,SAN,San Diego International Airport,32.73360062,-117.1900024,US,US-CA,San Diego
SAR,SAR,Sparta Community Airport - Hunter Field,38.148899,-89.6987,US,US-IL,Sparta
SAS,SAS,Salton Sea Airport,33.24140167,-115.9520035,US,US-CA,Salton City
SAT,SAT,San Antonio International Airport,29.533701,-98.469803,US,US-TX,San Antonio
SAV,SAV,Savannah Hilton Head International Airport,32.127602,-81.202103,US,US-GA,Savannah
MQT,SAW,Marquette/Sawyer International Airport,46.3536,-87.395401,US,US-MI,Gwinn
SBA,SBA,Santa Barbara Municipal Airport,34.426201,-119.839996,US,US-CA,Santa Barbara
SBD,SBD,San Bernardino International Airport,34.095402,-117.235001,US,US-CA,San Bernardino
SBM,SBM,Sheboygan County Memorial Airport,43.76959991,-87.85140228,US,US-WI,Sheboygan
SBN,SBN,South Bend Regional Airport,41.708698,-86.317299,US,US-IN,South Bend
SBP,SBP,San Luis County Regional Airport,35.23680115,-120.6419983,US,US-CA,San Luis Obispo
SBS,SBS,Steamboat Springs Bob Adams Field,40.5163002,-106.8659973,US,US-CO,Steamboat Springs
SBX,SBX,Shelby Airport,48.54069901,-111.8710022,US,US-MT,Shelby
SBY,SBY,Salisbury Ocean City Wicomico Regional Airport,38.34049988,-75.51029968,US,US-MD,Salisbury
SCB,SCB,Scribner State Airport,41.610298,-96.629898,US,US-NE,Scribner
SCH,SCH,Schenectady County Airport,42.85250092,-73.92890167,US,US-NY,Schenectady
SCK,SCK,Stockton Metropolitan Airport,37.893279,-121.238079,US,US-CA,Stockton
SDF,SDF,Louisville Muhammad Ali International Airport,38.1744,-85.736,US,US-KY,Louisville
SCF,SDL,Scottsdale Airport,33.6228981,-111.9110031,US,US-AZ,Scottsdale
SDM,SDM,Brown Field Municipal Airport,32.572639,-116.980019,US,US-CA,San Diego
SDY,SDY,Sidney - Richland Regional Airport,47.705141,-104.194422,US,US-MT,Sidney
SEA,SEA,Seattle–Tacoma International Airport,47.447943,-122.310276,US,US-WA,Seattle
SEE,SEE,Gillespie Field,32.82619858,-116.9720001,US,US-CA,San Diego/El Cajon
SEF,SEF,Sebring Regional Airport,27.45639992,-81.3423996,US,US-FL,Sebring
SEG,SEG,Penn Valley Airport,40.8205986,-76.86389923,US,US-PA,Selinsgrove
SEM,SEM,Craig Field,32.34389877,-86.9878006,US,US-AL,Selma
SEP,SEP,Stephenville Clark Regional Airport,32.215302,-98.177696,US,US-TX,Stephenville
SER,SER,Freeman Municipal Airport,38.92359924,-85.90740204,US,US-IN,Seymour
SDX,SEZ,Sedona Airport,34.84859848,-111.788002,US,US-AZ,Sedona
SFB,SFB,Orlando Sanford International Airport,28.77759933,-81.23750305,US,US-FL,Orlando
SFF,SFF,Felts Field,47.682899,-117.321925,US,US-WA,Spokane
SFM,SFM,Sanford Seacoast Regional Airport,43.39390182,-70.70800018,US,US-ME,Sanford
SFO,SFO,San Francisco International Airport,37.619806,-122.374821,US,US-CA,San Francisco
SFZ,SFZ,North Central State Airport,41.92079926,-71.49140167,US,US-RI,Pawtucket
SGF,SGF,Springfield Branson National Airport,37.245701,-93.388603,US,US-MO,Springfield
SGH,SGH,Springfield-Beckley Municipal Airport,39.84030151,-83.84020233,US,US-OH,Springfield
UST,SGJ,Northeast Florida Regional Airport,29.9592,-81.339798,US,US-FL,St Augustine
SGR,SGR,Sugar Land Regional Airport,29.62229919,-95.65650177,US,US-TX,Houston
SGT,SGT,Stuttgart Municipal Airport / Carl Humphrey Field,34.599499,-91.574997,US,US-AR,Stuttgart
SGU,SGU,St George Regional Airport,37.036389,-113.510306,US,US-UT,St George
SHD,SHD,Shenandoah Valley Regional Airport,38.263802,-78.8964,US,US-VA,Weyers Cave
SHN,SHN,Sanderson Field,47.23360062,-123.1480026,US,US-WA,Shelton
SHR,SHR,Sheridan County Airport,44.76919937,-106.9800034,US,US-WY,Sheridan
SHV,SHV,Shreveport Regional Airport,32.446602,-93.8256,US,US-LA,Shreveport
SIK,SIK,Sikeston Memorial Municipal Airport,36.89889908,-89.5617981,US,US-MO,Sikeston
SIV,SIV,Sullivan County Airport,39.1147,-87.448303,US,US-IN,Sullivan
SIY,SIY,Siskiyou County Airport,41.781399,-122.468002,US,US-CA,Montague
SJC,SJC,Norman Y. Mineta San Jose International Airport,37.362452,-121.929188,US,US-CA,San Jose
SJN,SJN,St Johns Industrial Air Park,34.51860046,-109.3789978,US,US-AZ,St Johns
SJT,SJT,San Angelo Regional Mathis Field,31.35770035,-100.4960022,US,US-TX,San Angelo
SKA,SKA,Fairchild Air Force Base,47.615101,-117.655998,US,US-WA,Spokane
SKF,SKF,Lackland Air Force Base,29.38419914,-98.58110046,US,US-TX,San Antonio
TSM,SKX,Taos Regional Airport,36.452494,-105.67749,US,US-NM,Taos
SLB,SLB,Storm Lake Municipal Airport,42.59730148,-95.24069977,US,US-IA,Storm Lake
SLC,SLC,Salt Lake City International Airport,40.78886,-111.979866,US,US-UT,Salt Lake City
SLE,SLE,Salem-Willamette Valley Airport/McNary Field,44.9095,-123.002998,US,US-OR,Salem
SLG,SLG,Smith Field,36.191898,-94.489998,US,US-AR,Siloam Springs
SLK,SLK,Adirondack Regional Airport,44.38691,-74.204629,US,US-NY,Saranac Lake
SLN,SLN,Salina Municipal Airport,38.79100037,-97.65219879,US,US-KS,Salina
SLO,SLO,Salem–Leckrone Airport,38.642899,-88.964203,US,US-IL,Salem
SLR,SLR,Sulphur Springs Municipal Airport,33.15980148,-95.62110138,US,US-TX,Sulphur Springs
SMD,SMD,Smith Field,41.14339828,-85.15280151,US,US-IN,Fort Wayne
SME,SME,Lake Cumberland Regional Airport,37.05339813,-84.61589813,US,US-KY,Somerset
SMF,SMF,Sacramento International Airport,38.6954,-121.591003,US,US-CA,Sacramento
SMN,SMN,Lemhi County Airport,45.122233,-113.88196,US,US-ID,Salmon
SMO,SMO,Santa Monica Municipal Airport,34.0158,-118.450996,US,US-CA,Santa Monica
SUM,SMS,Sumter Airport,33.99499893,-80.36129761,US,US-SC,Sumter
SMX,SMX,Santa Maria Public Airport Captain G Allan Hancock Field,34.898899,-120.457001,US,US-CA,Santa Maria
SNA,SNA,John Wayne Orange County International Airport,33.675701,-117.867996,US,US-CA,Santa Ana
SNK,SNK,Winston Field,32.690212,-100.948918,US,US-TX,Snyder
SNL,SNL,Shawnee Regional Airport,35.35789871,-96.94280243,US,US-OK,Shawnee
SNS,SNS,Salinas Municipal Airport,36.66279984,-121.6060028,US,US-CA,Salinas
SNY,SNY,Sidney Municipal Airport Lloyd W Carr Field,41.101299,-102.985001,US,US-NE,Sidney
SOP,SOP,Moore County Airport,35.237184,-79.389381,US,US-NC,Carthage
SOW,SOW,Show Low Regional Airport,34.264062,-110.007091,US,US-AZ,Show Low
SPA,SPA,Spartanburg Downtown Memorial Airport,34.91569901,-81.95649719,US,US-SC,Spartanburg
SPF,SPF,Black Hills Airport-Clyde Ice Field,44.4803009,-103.7829971,US,US-SD,Spearfish
SPG,SPG,Albert Whitted Airport,27.7651,-82.626999,US,US-FL,St Petersburg
SPI,SPI,Abraham Lincoln Capital Airport,39.844101,-89.677902,US,US-IL,Springfield
SPS,SPS,Wichita Falls Municipal Airport / Sheppard Air Force Base,33.9888,-98.491898,US,US-TX,Wichita Falls
SPW,SPW,Spencer Municipal Airport,43.16550064,-95.20279694,US,US-IA,Spencer
SQI,SQI,Whiteside County Airport - Joseph H Bittorf Field,41.742175,-89.673629,US,US-IL,Rock Falls
SQL,SQL,San Carlos Airport,37.51313,-122.250838,US,US-CA,San Carlos
SRC,SRC,Searcy Municipal Airport,35.210602,-91.737503,US,US-AR,Searcy
SRQ,SRQ,Sarasota Bradenton International Airport,27.394631,-82.554359,US,US-FL,Sarasota/Bradenton
RUI,SRR,Sierra Blanca Regional Airport,33.462799,-105.535004,US,US-NM,Alto
SSC,SSC,Shaw Air Force Base,33.972698,-80.470596,US,US-SC,Sumter
SSF,SSF,Stinson Municipal Airport,29.33699989,-98.47109985,US,US-TX,San Antonio
SSI,SSI,St Simons Island Airport,31.1518,-81.391296,US,US-GA,St Simons Island
STC,STC,Saint Cloud Regional Airport,45.5466,-94.059898,US,US-MN,Saint Cloud
STE,STE,Stevens Point Municipal Airport,44.54520035,-89.53029633,US,US-WI,Stevens Point
STJ,STJ,Rosecrans Memorial Airport,39.77190018,-94.90969849,US,US-MO,St Joseph
STK,STK,Sterling Municipal Airport,40.613497,-103.263833,US,US-CO,Sterling
STL,STL,St. Louis Lambert International Airport,38.748697,-90.370003,US,US-MO,St Louis
STP,STP,Saint Paul Downtown Holman Field,44.93479,-93.060036,US,US-MN,Saint Paul
STS,STS,Charles M. Schulz Sonoma County Airport,38.50899887,-122.8130035,US,US-CA,Santa Rosa
SUA,SUA,Witham Field,27.18169975,-80.22109985,US,US-FL,Stuart
SUD,SUD,Stroud Municipal Airport,35.78960037,-96.65570068,US,US-OK,Stroud
SUE,SUE,Door County Cherryland Airport,44.84370041,-87.42150116,US,US-WI,Sturgeon Bay
SUN,SUN,Friedman Memorial Airport,43.50439835,-114.2959976,US,US-ID,Hailey
SUS,SUS,Spirit of St Louis Airport,38.662102,-90.652,US,US-MO,St Louis
SUU,SUU,Travis Air Force Base,38.262699,-121.927002,US,US-CA,Fairfield
SUW,SUW,Richard I Bong Memorial Airport,46.688612,-92.095041,US,US-WI,Superior
SUX,SUX,Sioux Gateway Airport / Brigadier General Bud Day Field,42.397605,-96.382237,US,US-IA,Sioux City
SVC,SVC,Grant County Airport,32.636701,-108.154736,US,US-NM,Silver City
SVE,SVE,Susanville Municipal Airport,40.375702,-120.572998,US,US-CA,Susanville
SVH,SVH,Statesville Regional Airport,35.765301,-80.953903,US,US-NC,Statesville
SVN,SVN,Hunter Army Air Field,32.00999832,-81.14569855,US,US-GA,Savannah
SWF,SWF,New York Stewart International Airport,41.504101,-74.104797,US,US-NY,Newburgh
SWO,SWO,Stillwater Regional Airport,36.162132,-97.085581,US,US-OK,Stillwater
SWW,SWW,Avenger Field,32.4673996,-100.4670029,US,US-TX,Sweetwater
SYI,SYI,Bomar Field / Shelbyville Municipal Airport,35.560101,-86.442497,US,US-TN,Shelbyville
SYN,SYN,Stanton Airfield,44.475579,-93.016756,US,US-MN,Dennison
SYR,SYR,Syracuse Hancock International Airport,43.11119843,-76.10630035,US,US-NY,Syracuse
SYV,SYV,Sylvester Airport,31.55850029,-83.89569855,US,US-GA,Sylvester
SZL,SZL,Whiteman Air Force Base,38.730301,-93.547897,US,US-MO,Knob Noster
SZN,SZN,Santa Cruz Island Airport,34.06007,-119.915229,US,US-CA,Santa Cruz Island
SZP,SZP,Santa Paula Airport,34.34719849,-119.060997,US,US-CA,Santa Paula
TBC,T03,Tuba City Airport,36.091146,-111.38286,US,US-AZ,Tuba City
TAD,TAD,Perry Stokes Airport,37.25939941,-104.3410034,US,US-CO,Trinidad
TBN,TBN,Waynesville-St. Robert Regional Airport-Forney Field,37.7416,-92.140701,US,US-MO,Fort Leonard Wood
TBR,TBR,Statesboro Bulloch County Airport,32.48270035,-81.73690033,US,US-GA,Statesboro
TCC,TCC,Tucumcari Municipal Airport,35.18280029,-103.6029968,US,US-NM,Tucumcari
TCL,TCL,Tuscaloosa National Airport,33.2206,-87.611397,US,US-AL,Tuscaloosa
TCM,TCM,McChord Air Force Base,47.137699,-122.475998,US,US-WA,Tacoma
TCS,TCS,Truth or Consequences Municipal Airport,33.2369,-107.272003,US,US-NM,Truth or Consequences
TDO,TDO,Ed Carlson Memorial Field South Lewis County Airport,46.47719955,-122.8059998,US,US-WA,Toledo
TDW,TDW,Tradewind Airport,35.16989899,-101.8259964,US,US-TX,Amarillo
TDZ,TDZ,Toledo Executive Airport,41.56489944,-83.4822998,US,US-OH,Toledo
TEB,TEB,Teterboro Airport,40.850101,-74.060799,US,US-NJ,Teterboro
TEX,TEX,Telluride Regional Airport,37.9538,-107.907997,US,US-CO,Telluride
THA,THA,Tullahoma Regional Airport William Northern Field,35.3801,-86.246399,US,US-TN,Tullahoma
THM,THM,Thompson Falls Airport,47.57350159,-115.2809982,US,US-MT,Thompson Falls
THV,THV,York Airport,39.917,-76.873001,US,US-PA,Thomasville
TIK,TIK,Tinker Air Force Base,35.4147,-97.386597,US,US-OK,Oklahoma City
TIW,TIW,Tacoma Narrows Airport,47.267407,-122.577295,US,US-WA,Tacoma
TIX,TIX,Space Coast Regional Airport,28.51479912,-80.79920197,US,US-FL,Titusville
KNT,TKX,Kennett Memorial Airport,36.22589874,-90.03659821,US,US-MO,Kennett
TLH,TLH,Tallahassee Regional Airport,30.3965,-84.350304,US,US-FL,Tallahassee
TLR,TLR,Mefford Field,36.15629959,-119.3259964,US,US-CA,Tulare
TMA,TMA,Henry Tift Myers Airport,31.42900085,-83.4885025,US,US-GA,Tifton
TMB,TMB,Miami Executive Airport,25.6479,-80.4328,US,US-FL,Miami
OTK,TMK,Tillamook Airport,45.41820145,-123.814003,US,US-OR,Tillamook
TNP,TNP,Twentynine Palms Airport,34.133901,-115.947347,US,US-CA,Twentynine Palms
TNT,TNT,Dade Collier Training and Transition Airport,25.86179924,-80.89700317,US,US-FL,Miami
TNU,TNU,Newton Municipal Airport,41.6744,-93.021698,US,US-IA,Newton
XSD,TNX,Tonopah Test Range Airport,37.79880142,-116.7809982,US,US-NV,Tonopah
TOA,TOA,Zamperini Field,33.80339813,-118.3399963,US,US-CA,Torrance
TOC,TOC,Toccoa Airport - R.G. Letourneau Field,34.5938,-83.295799,US,US-GA,Toccoa
TOI,TOI,Troy Municipal Airport at N Kenneth Campbell Field,31.860399,-86.012101,US,US-AL,Troy
TOL,TOL,Eugene F. Kranz Toledo Express Airport,41.5868,-83.8078,US,US-OH,Toledo
TOP,TOP,Philip Billard Municipal Airport,39.069899,-95.622606,US,US-KS,Topeka
TOR,TOR,Torrington Municipal Airport,42.0644989,-104.1529999,US,US-WY,Torrington
TPA,TPA,Tampa International Airport,27.9755,-82.533203,US,US-FL,Tampa
TPF,TPF,Peter O Knight Airport,27.91559982,-82.44930267,US,US-FL,Tampa
TPH,TPH,Tonopah Airport,38.06019974,-117.086998,US,US-NV,Tonopah
TPL,TPL,Draughon Miller Central Texas Regional Airport,31.1525,-97.407799,US,US-TX,Temple
TRI,TRI,Tri-Cities Regional TN/VA Airport,36.475201,-82.407401,US,US-TN,Blountville
TKF,TRK,Truckee Tahoe Airport,39.318628,-120.140562,US,US-CA,Truckee
TRL,TRL,Terrell Municipal Airport,32.709202,-96.267403,US,US-TX,Terrell
TRM,TRM,Jacqueline Cochran Regional Airport,33.62670135,-116.1600037,US,US-CA,Palm Springs
TRX,TRX,Trenton Municipal Airport,40.0835,-93.590599,US,US-MO,Trenton
TSP,TSP,Tehachapi Municipal Airport,35.13499832,-118.439003,US,US-CA,Tehachapi
TTD,TTD,Portland Troutdale Airport,45.54940033,-122.401001,US,US-OR,Portland
TTN,TTN,Trenton Mercer Airport,40.276699,-74.813499,US,US-NJ,Ewing Township
TUL,TUL,Tulsa International Airport,36.19839859,-95.88809967,US,US-OK,Tulsa
TUP,TUP,Tupelo Regional Airport,34.26810074,-88.76989746,US,US-MS,Tupelo
TUS,TUS,Tucson International Airport / Morris Air National Guard Base,32.115004,-110.938053,US,US-AZ,Tucson
TVC,TVC,Cherry Capital Airport,44.74140167,-85.5821991,US,US-MI,Traverse City
TVF,TVF,Thief River Falls Regional Airport,48.065701,-96.184998,US,US-MN,Thief River Falls
TVI,TVI,Thomasville Regional Airport,30.90159988,-83.88130188,US,US-GA,Thomasville
TVL,TVL,Lake Tahoe Airport,38.89390182,-119.9950027,US,US-CA,South Lake Tahoe
TWF,TWF,Joslin Field Magic Valley Regional Airport,42.4818,-114.487999,US,US-ID,Twin Falls
TXK,TXK,Texarkana Regional Airport (Webb Field),33.453701,-93.990997,US,US-AR,Texarkana
TYZ,TYL,Taylor Airport,34.45280075,-110.1149979,US,US-AZ,Taylor
TYR,TYR,Tyler Pounds Regional Airport,32.35409927,-95.40239716,US,US-TX,Tyler
TYS,TYS,McGhee Tyson Airport,35.811001,-83.994003,US,US-TN,Alcoa
BFG,U07,Bullfrog Basin Airport,37.547827,-110.712898,US,US-UT,Bullfrog
NPH,U14,J. Randy McKnight Nephi Municipal Airport,39.73681,-111.870063,US,US-UT,Nephi
RVR,U34,Green River Municipal Airport,38.96139908,-110.2269974,US,US-UT,Green River
PNU,U55,Panguitch Municipal Airport,37.84519958,-112.3919983,US,US-UT,Panguitch
ICS,U70,Cascade Airport,44.49380112,-116.0159988,US,US-ID,Cascade
UBS,UBS,Columbus Lowndes County Airport,33.4654007,-88.38030243,US,US-MS,Columbus
UCY,UCY,Everett-Stewart Regional Airport,36.38180161,-88.98539734,US,US-TN,Union City
UDD,UDD,Bermuda Dunes Airport,33.748492,-116.275027,US,US-CA,Bermuda Dunes
UES,UES,Waukesha County Airport,43.04100037,-88.23709869,US,US-WI,Waukesha
UGN,UGN,Waukegan National Airport,42.42219925,-87.86789703,US,US-IL,Chicago/Waukegan
UIL,UIL,Quillayute Airport,47.93659973,-124.5630035,US,US-WA,Quillayute
UIN,UIN,Quincy Regional Airport Baldwin Field,39.942699,-91.194603,US,US-IL,Quincy
IKB,UKF,Wilkes County Airport,36.22280121,-81.09829712,US,US-NC,North Wilkesboro
UKI,UKI,Ukiah Municipal Airport,39.125999,-123.200996,US,US-CA,Ukiah
UKT,UKT,Quakertown Airport,40.4352,-75.381897,US,US-PA,Quakertown
ULM,ULM,New Ulm Municipal Airport,44.31959915,-94.50229645,US,US-MN,New Ulm
ATO,UNI,Ohio University Airport,39.211839,-82.22949,US,US-OH,Albany
UNU,UNU,Dodge County Airport,43.42660141,-88.70320129,US,US-WI,Juneau
SCE,UNV,State College Regional Airport,40.849374,-77.84852,US,US-PA,State College
UOS,UOS,Franklin County Airport,35.204754,-85.899052,US,US-TN,Sewanee
UOX,UOX,University Oxford Airport,34.38430023,-89.53679657,US,US-MS,Oxford
UTM,UTA,Tunica Municipal Airport,34.68505,-90.347757,US,US-MS,Tunica
HTV,UTS,Huntsville Regional Airport,30.74690056,-95.58719635,US,US-TX,Huntsville
NPT,UUU,Newport State Airport,41.532398,-71.281502,US,US-RI,Newport
UVA,UVA,Garner Field,29.2112999,-99.74359894,US,US-TX,Uvalde
RKH,UZA,Rock Hill - York County Airport,34.9878006,-81.05719757,US,US-SC,Rock Hill
VAD,VAD,Moody Air Force Base,30.96780014,-83.19300079,US,US-GA,Valdosta
LLY,VAY,South Jersey Regional Airport,39.942902,-74.845703,US,US-NJ,Lumberton
VBG,VBG,Vandenberg Space Force Base,34.737301,-120.584,US,US-CA,Lompoc
VCT,VCT,Victoria Regional Airport,28.8526001,-96.91850281,US,US-TX,Victoria
VCV,VCV,Southern California Logistics Airport,34.59749985,-117.3830032,US,US-CA,Victorville
VDI,VDI,Vidalia Regional Airport,32.19269943,-82.37120056,US,US-GA,Vidalia
VEL,VEL,Vernal Regional Airport,40.436214,-109.511661,US,US-UT,Vernal
VGT,VGT,North Las Vegas Metropolitan International Airport,36.210701,-115.194,US,US-NV,Las Vegas
VHN,VHN,Culberson County Airport,31.05780029,-104.7839966,US,US-TX,Van Horn
VIH,VIH,Rolla National Airport,38.127399,-91.769501,US,US-MO,Vichy
VIS,VIS,Visalia Municipal Airport,36.318699,-119.392998,US,US-CA,Visalia
VJI,VJI,Virginia Highlands Airport,36.687099,-82.033302,US,US-VA,Abingdon
VKS,VKS,Vicksburg Municipal Airport,32.23929977,-90.92839813,US,US-MS,Vicksburg
VLA,VLA,Vandalia Municipal Airport,38.991501,-89.166199,US,US-IL,Vandalia
VLD,VLD,Valdosta Regional Airport,30.78249931,-83.27670288,US,US-GA,Valdosta
VNC,VNC,Venice Municipal Airport,27.070541,-82.440815,US,US-FL,Venice
VNY,VNY,Van Nuys Airport,34.20980072,-118.4899979,US,US-CA,Van Nuys
VOK,VOK,Volk Field,43.93899918,-90.25340271,US,US-WI,Camp Douglas
VPS,VPS,Destin-Fort Walton Beach Airport,30.4832,-86.525398,US,US-FL,Valparaiso
VPZ,VPZ,Porter County Municipal Airport,41.45399857,-87.00710297,US,US-IN,Valparaiso
VQQ,VQQ,Cecil Airport,30.2187,-81.876701,US,US-FL,Jacksonville
VRB,VRB,Vero Beach Regional Airport,27.6556,-80.417901,US,US-FL,Vero Beach
VSF,VSF,Hartness State Airport,43.343601,-72.517303,US,US-VT,North Springfield
VTN,VTN,Miller Field,42.856211,-100.549192,US,US-NE,Valentine
VYS,VYS,Illinois Valley Regional Airport Walter A Duncan Field,41.351898,-89.153099,US,US-IL,Peru
GTY,W05,Gettysburg Regional Airport,39.841222,-77.274699,US,US-PA,Gettysburg
SQV,W28,Sequim Valley Airport,48.09809875,-123.1869965,US,US-WA,Sequim
PGC,W99,Grant County Airport,38.99489975,-79.14589691,US,US-WV,Petersburg
WAL,WAL,Wallops Flight Facility Airport,37.940813,-75.462255,US,US-VA,Wallops Island
WAY,WAY,Greene County Airport,39.90112,-80.130733,US,US-PA,Waynesburg
WBW,WBW,Wilkes Barre Wyoming Valley Airport,41.29719925,-75.85119629,US,US-PA,Wilkes-Barre
WDG,WDG,Enid Woodring Regional Airport,36.37919998,-97.79109955,US,US-OK,Enid
WDR,WDR,Barrow County Airport,33.98289871,-83.66739655,US,US-GA,Winder
WEA,WEA,Parker County Airport,32.7463,-97.682404,US,US-TX,Weatherford
WHP,WHP,Whiteman Airport,34.2593,-118.413002,US,US-CA,Pacoima
WJF,WJF,General William J Fox Airfield,34.7411,-118.219002,US,US-CA,Lancaster
WLD,WLD,Strother Field,37.168598,-97.037598,US,US-KS,Winfield / Arkansas City
WLW,WLW,Willows Glenn County Airport,39.51639938,-122.2180023,US,US-CA,Willows
WMC,WMC,Winnemucca Municipal Airport,40.89659882,-117.8059998,US,US-NV,Winnemucca
WRB,WRB,Robins Air Force Base,32.640099,-83.591904,US,US-GA,Warner Robins
WRI,WRI,Mc Guire Air Force Base,40.0155983,-74.59169769,US,US-NJ,Wrightstown
WRL,WRL,Worland Municipal Airport,43.965698,-107.950996,US,US-WY,Worland
WST,WST,Westerly State Airport,41.349602,-71.803398,US,US-RI,Westerly
WVI,WVI,Watsonville Municipal Airport,36.93569946,-121.7900009,US,US-CA,Watsonville
WVL,WVL,Waterville Robert Lafleur Airport,44.53319931,-69.67549896,US,US-ME,Waterville
WWD,WWD,Cape May County Airport,39.00849915,-74.90830231,US,US-NJ,Wildwood
WWR,WWR,West Woodward Airport,36.438,-99.5226667,US,US-OK,Woodward
WYS,WYS,Yellowstone Airport,44.6884,-111.117996,US,US-MT,West Yellowstone
KYO,X39,Tampa North Aero Park Airport,28.22130013,-82.37449646,US,US-FL,Tampa
XNA,XNA,Northwest Arkansas National Airport,36.281898,-94.306801,US,US-AR,Fayetteville/Springdale/Rogers
XWA,XWA,Williston Basin International Airport,48.258387,-103.748797,US,US-ND,Williston
WBK,Y31,West Branch Community Airport,44.244801,-84.179802,US,US-MI,West Branch
YIP,YIP,Willow Run Airport,42.2379,-83.530403,US,US-MI,Detroit
YKM,YKM,Yakima Air Terminal McAllister Field,46.56819916,-120.5439987,US,US-WA,Yakima
YKN,YKN,Chan Gurney Municipal Airport,42.91669846,-97.3859024,US,US-SD,Yankton
YNG,YNG,Youngstown Warren Regional Airport,41.26070023,-80.67910004,US,US-OH,Youngstown/Warren
ZPH,ZPH,Zephyrhills Municipal Airport,28.228201,-82.155899,US,US-FL,Zephyrhills
ZZV,ZZV,Zanesville Municipal Airport,39.94440079,-81.89209747,US,US-OH,Zanesville
PGS,L37,Grand Canyon Caverns Airport,35.528301,-113.247002,US,US-AZ,Peach Springs
DRU,M26,Drummond Airport,46.621599,-113.201751,US,US-MT,Drummond
MOS,MOS,Moses Point Airport,64.694116,-162.060699,US,US-AK,Elim
MTX,MTF,Metro Field,64.80680084,-147.7619934,US,US-AK,Fairbanks
MXC,U64,Monticello Airport,37.93243,-109.341225,US,US-UT,Monticello
MYK,MYK,May Creek Airport,61.335701,-142.686996,US,US-AK,May Creek
NIN,NIN,Ninilchik Airport,60.020199,-151.589005,US,US-AK,Ninilchik
NLN,O19,Kneeland Airport,40.718639,-123.927298,US,US-CA,Kneeland
BZF,O85,Benton Field,40.57490158,-122.4079971,US,US-CA,Redding
OLH,6R7,Old Harbor Airport,57.218102,-153.270004,US,US-AK,Old Harbor
ORI,ORI,Port Lions Airport,57.884905,-152.847719,US,US-AK,Port Lions
AKB,AKA,Atka Airport,52.220299,-174.205994,US,US-AK,Atka
PAQ,PAQ,"Warren ""Bud"" Woods Palmer Municipal Airport",61.594898,-149.08901,US,US-AK,Palmer
ATU,ATU,Casco Cove Coast Guard Station,52.829797,173.173796,US,US-AK,Attu
BTI,BTI,Barter Island Long Range Radar Station Airport,70.134003,-143.582001,US,US-AK,Barter Island
BET,BET,Bethel Airport,60.77980042,-161.8379974,US,US-AK,Bethel
BVU,BLG,Beluga Airport,61.17219925,-151.0440063,US,US-AK,Beluga
BIG,BIG,Allen Army Airfield,63.99449921,-145.7220001,US,US-AK,Delta Junction Ft Greely
BKC,BVK,Buckland Airport,65.981598,-161.149002,US,US-AK,Buckland
BRW,BRW,Wiley Post Will Rogers Memorial Airport,71.285402,-156.766008,US,US-AK,Utqiaġvik
BTT,BTT,Bettles Airport,66.913902,-151.529007,US,US-AK,Bettles
CDB,CDB,Cold Bay Airport,55.207871,-162.725029,US,US-AK,Cold Bay
CEM,CEM,Central Airport,65.573815,-144.780707,US,US-AK,Central
CIK,CIK,Chalkyitsik Airport,66.644997,-143.740005,US,US-AK,Chalkyitsik
CYF,CFK,Chefornak Airport,60.136667,-164.279167,US,US-AK,Chefornak
SCM,SCM,Scammon Bay Airport,61.84471,-165.575209,US,US-AK,Scammon Bay
IRC,CRC,Circle City (New) Airport,65.827673,-144.076195,US,US-AK,Circle
CDV,CDV,Merle K (Mudhole) Smith Airport,60.491798,-145.477997,US,US-AK,Cordova
CXF,CXF,Coldfoot Airport,67.25219727,-150.2039948,US,US-AK,Coldfoot
CZF,CZF,Cape Romanzof LRRS Airport,61.78030014,-166.0390015,US,US-AK,Cape Romanzof
DRG,DEE,Deering Airport,66.068901,-162.766914,US,US-AK,Deering
RDB,DGG,Red Dog Airport,68.032097,-162.899002,US,US-AK,Red Dog
ADK,ADK,Adak Airport,51.883564,-176.642783,US,US-AK,Adak
DLG,DLG,Dillingham Airport,59.04470062,-158.5050049,US,US-AK,Dillingham
MLL,MDM,Marshall Don Hunter Sr Airport,61.8643,-162.026001,US,US-AK,Marshall
ADQ,ADQ,Kodiak Airport,57.75,-152.4940033,US,US-AK,Kodiak
DUT,DUT,Tom Madsen (Dutch Harbor) Airport,53.89881,-166.544996,US,US-AK,Unalaska
KKH,DUY,Kongiganak Airport,59.9608,-162.880997,US,US-AK,Kongiganak
EDF,EDF,Elmendorf Air Force Base,61.251709,-149.807097,US,US-AK,Anchorage
EEK,EEK,Eek Airport,60.213173,-162.044048,US,US-AK,Eek
EAA,EAA,Eagle Airport,64.778003,-141.150455,US,US-AK,Eagle
EHM,EHM,Cape Newenham LRRS Airport,58.64640045,-162.0630035,US,US-AK,Cape Newenham
EIL,EIL,Eielson Air Force Base,64.66570282,-147.102005,US,US-AK,Fairbanks
EMK,ENM,Emmonak Airport,62.78609848,-164.4909973,US,US-AK,Emmonak
ENA,ENA,Kenai Municipal Airport,60.570946,-151.245174,US,US-AK,Kenai
WWT,EWU,Mertarvik Airport,60.81037,-164.499511,US,US-AK,Mertarvik
FAI,FAI,Fairbanks International Airport,64.815102,-147.856003,US,US-AK,Fairbanks
FBK,FBK,Ladd Army Airfield,64.837502,-147.613998,US,US-AK,Fairbanks
ABL,AFM,Ambler Airport,67.105529,-157.855339,US,US-AK,Ambler
FRN,FRN,Bryant Army Airfield,61.266399,-149.653,US,US-AK,Fort Richardson
NIB,FSP,Nikolai Airport,63.017949,-154.360399,US,US-AK,Nikolai
GAL,GAL,Edward G. Pitka Sr Airport,64.736198,-156.936997,US,US-AK,Galena
GBH,GBH,Galbraith Lake Airport,68.47969818,-149.4900055,US,US-AK,Galbraith Lake
KWK,GGV,Kwigillingok Airport,59.876499,-163.169005,US,US-AK,Kwigillingok
SHG,SHG,Shungnak Airport,66.88809967,-157.1620026,US,US-AK,Shungnak
GKN,GKN,Gulkana Airport,62.155859,-145.454662,US,US-AK,Gulkana
GLV,GLV,Golovin Airport,64.550499,-163.007004,US,US-AK,Golovin
GAM,GAM,Gambell Airport,63.767694,-171.733303,US,US-AK,Gambell
BGQ,BGQ,Big Lake Airport,61.534658,-149.812936,US,US-AK,Big Lake
GST,GST,Gustavus Airport,58.4253006,-135.7070007,US,US-AK,Gustavus
NME,IGT,Nightmute Airport,60.469129,-164.70407,US,US-AK,Nightmute
SGY,SGY,Skagway Airport,59.460343,-135.316651,US,US-AK,Skagway
GMT,GSZ,Granite Mountain Air Station,65.40209961,-161.2810059,US,US-AK,Granite Mountain
HCR,HCA,Holy Cross Airport,62.18830109,-159.7749939,US,US-AK,Holy Cross
HSL,HLA,Huslia Airport,65.697899,-156.350998,US,US-AK,Huslia
HNS,HNS,Haines Airport,59.243921,-135.523925,US,US-AK,Haines
HOM,HOM,Homer Airport,59.644456,-151.479235,US,US-AK,Homer
HPB,HPB,Hooper Bay Airport,61.523899,-166.147003,US,US-AK,Hooper Bay
HUS,HUS,Hughes Airport,66.04109955,-154.2630005,US,US-AK,Hughes
SHX,SHX,Shageluk Airport,62.692144,-159.569035,US,US-AK,Shageluk
IGG,IGG,Igiugig Airport,59.324001,-155.901993,US,US-AK,Igiugig
EGX,EII,Egegik Airport,58.184386,-157.374873,US,US-AK,Egegik
IAN,IAN,Bob Baker Memorial Airport,66.976128,-160.439014,US,US-AK,Kiana
ILI,ILI,Iliamna Airport,59.754398,-154.910996,US,US-AK,Iliamna
UTO,UTO,Indian Mountain LRRS Airport,65.992798,-153.703995,US,US-AK,Utopia Creek
MCL,INR,Denali National Park Airport,63.732465,-148.911266,US,US-AK,Denali Park
WAA,IWK,Wales Airport,65.622593,-168.095,US,US-AK,Wales
KCG,AJC,Chignik Airport,56.311501,-158.373001,US,US-AK,Chignik
JNU,JNU,Juneau International Airport,58.355,-134.576004,US,US-AK,Juneau
KGK,JZZ,Koliganek Airport,59.72660065,-157.2590027,US,US-AK,Koliganek
KDK,KDK,Kodiak Municipal Airport,57.806151,-152.373693,US,US-AK,Kodiak
KFP,KFP,False Pass Airport,54.84751,-163.407168,US,US-AK,False Pass
AKK,AKK,Akhiok Airport,56.938702,-154.182999,US,US-AK,Akhiok
KPN,IIK,Kipnuk Airport,59.931796,-164.028196,US,US-AK,Kipnuk
KKA,KKA,Koyuk Alfred Adams Airport,64.939499,-161.154007,US,US-AK,Koyuk
LKK,LKK,Kulik Lake Airport,58.98210144,-155.1210022,US,US-AK,Kulik Lake
AKN,AKN,King Salmon Airport,58.677845,-156.651965,US,US-AK,King Salmon
IKO,IKO,Nikolski Air Station,52.941552,-168.849478,US,US-AK,Nikolski
AKP,AKP,Anaktuvuk Pass Airport,68.133598,-151.742996,US,US-AK,Anaktuvuk Pass
KTN,KTN,Ketchikan International Airport,55.35559845,-131.7140045,US,US-AK,Ketchikan
UUK,UBW,Ugnu-Kuparuk Airport,70.33080292,-149.5980072,US,US-AK,Kuparuk
KAL,KAL,Kaltag Airport,64.31864,-158.74197,US,US-AK,Kaltag
KLW,AKW,Klawock Airport,55.579201,-133.076004,US,US-AK,Klawock
KYK,KYK,Karluk Airport,57.565919,-154.453762,US,US-AK,Karluk
KLN,2A3,Larsen Bay Airport,57.53516,-153.976455,US,US-AK,Larsen Bay
KLG,KLG,Kalskag Airport,61.53630066,-160.3410034,US,US-AK,Kalskag
PTA,TPO,Port Alsworth Airport,60.201681,-154.325863,US,US-AK,Port Alsworth
WCR,WCR,Chandalar Lake Airport,67.50450134,-148.4830017,US,US-AK,Chandalar Lake
LUR,LUR,Cape Lisburne LRRS Airport,68.875099,-166.110001,US,US-AK,Cape Lisburne
KMO,MBA,Manokotak Airport,58.932056,-158.901886,US,US-AK,Manokotak
MCG,MCG,McGrath Airport,62.95289993,-155.6060028,US,US-AK,McGrath
MDO,MDO,Middleton Island Airport,59.44990158,-146.3070068,US,US-AK,Middleton Island
LMA,MHM,Minchumina Airport,63.886002,-152.302002,US,US-AK,Minchumina
SMK,SMK,St Michael Airport,63.49010086,-162.1100006,US,US-AK,St Michael
MLY,MLY,Manley Hot Springs Airport,64.99188,-150.644102,US,US-AK,Manley Hot Springs
MOU,MOU,Mountain Village Airport,62.09540176,-163.6820068,US,US-AK,Mountain Village
MRI,MRI,Merrill Field,61.212792,-149.843988,US,US-AK,Anchorage
MXY,15Z,Mc Carthy Airport,61.43709946,-142.904007,US,US-AK,Mccarthy
MYU,MYU,Mekoryuk Airport,60.372338,-166.269751,US,US-AK,Mekoryuk
WNA,WNA,Napakiak Airport,60.6903,-161.979004,US,US-AK,Napakiak
ANC,ANC,Ted Stevens Anchorage International Airport,61.179004,-149.992561,US,US-AK,Anchorage
ANI,ANI,Aniak Airport,61.58160019,-159.5429993,US,US-AK,Aniak
ENN,ENN,Nenana Municipal Airport,64.548772,-149.074516,US,US-AK,Nenana
NNL,5NN,Nondalton Airport,59.980202,-154.839005,US,US-AK,Nondalton
ANN,ANN,Annette Island Airport,55.037663,-131.572609,US,US-AK,Metlakatla
NUL,NUL,Nulato Airport,64.729301,-158.074005,US,US-AK,Nulato
ANV,ANV,Anvik Airport,62.646702,-160.190994,US,US-AK,Anvik
KNW,KNW,New Stuyahok Airport,59.451838,-157.373829,US,US-AK,New Stuyahok
OBU,OBU,Kobuk Airport,66.9123,-156.897003,US,US-AK,Kobuk
PCA,A14,Portage Creek Airport,58.9065,-157.714,US,US-AK,Portage Creek
HNH,HNH,Hoonah Airport,58.0961,-135.410111,US,US-AK,Hoonah
OME,OME,Nome Airport,64.5121994,-165.4450073,US,US-AK,Nome
OOK,OOK,Toksook Bay Airport,60.541401,-165.087006,US,US-AK,Toksook Bay
ORT,ORT,Northway Airport,62.9613,-141.929001,US,US-AK,Northway
OTZ,OTZ,Ralph Wien Memorial Airport,66.88469696,-162.598999,US,US-AK,Kotzebue
NLG,OUL,Nelson Lagoon Airport,56.0075,-161.160004,US,US-AK,Nelson Lagoon
STG,PBV,St George Airport,56.577345,-169.663823,US,US-AK,St George
KPC,KPC,Port Clarence Coast Guard Station,65.25370026,-166.8589935,US,US-AK,Port Clarence
KPV,PEV,Perryville Airport,55.9065,-159.16091,US,US-AK,Perryville
PSG,PSG,Petersburg James A Johnson Airport,56.80170059,-132.9450073,US,US-AK,Petersburg
PTH,PTH,Port Heiden Airport,56.957893,-158.630219,US,US-AK,Port Heiden
PKA,PKA,Napaskiak Airport,60.7029,-161.778,US,US-AK,Napaskiak
PTU,PTU,Platinum Airport,59.017675,-161.827927,US,US-AK,Platinum
PIP,PNP,Pilot Point Airport,57.580399,-157.572006,US,US-AK,Pilot Point
PHO,PHO,Point Hope Airport,68.348801,-166.798996,US,US-AK,Point Hope
PPC,PPC,Prospect Creek Airport,66.81410217,-150.6439972,US,US-AK,Prospect Creek
KWN,AQH,Quinhagak Airport,59.7551,-161.845,US,US-AK,Quinhagak
NUI,AQT,Nuiqsut Airport,70.209999,-151.005998,US,US-AK,Nuiqsut
ARC,ARC,Arctic Village Airport,68.1147,-145.578995,US,US-AK,Arctic Village
RSH,RSH,Russian Mission Airport,61.775071,-161.319466,US,US-AK,Russian Mission
RBY,RBY,Ruby Airport,64.727203,-155.470001,US,US-AK,Ruby
SVA,SVA,Savoonga Airport,63.686401,-170.492996,US,US-AK,Savoonga
SCC,SCC,Deadhorse Airport,70.19470215,-148.4649963,US,US-AK,Deadhorse
SDP,SDP,Sand Point Airport,55.313908,-160.522099,US,US-AK,Sand Point
SHH,SHH,Shishmaref Airport,66.249604,-166.089112,US,US-AK,Shishmaref
SIT,SIT,Sitka Rocky Gutierrez Airport,57.04710007,-135.3619995,US,US-AK,Sitka
WLK,WLK,Selawik Airport,66.600098,-159.985992,US,US-AK,Selawik
SLQ,SLQ,Sleetmute Airport,61.7005,-157.166,US,US-AK,Sleetmute
KSM,KSM,St Mary's Airport,62.060501,-163.302002,US,US-AK,St Mary's
SNP,SNP,St Paul Island Airport,57.166311,-170.222555,US,US-AK,St Paul Island
SOV,SOV,Seldovia Airport,59.442981,-151.705227,US,US-AK,Seldovia
SMU,SMU,Sheep Mountain Airport,61.81200027,-147.5070038,US,US-AK,Sheep Mountain
UMM,UMM,Summit Airport,63.331501,-149.126999,US,US-AK,Cantwell
SVW,SVW,Sparrevohn LRRS Airport,61.09740067,-155.5740051,US,US-AK,Sparrevohn
SKW,SKW,Skwentna Airport,61.96530151,-151.1909943,US,US-AK,Skwentna
SXQ,SXQ,Soldotna Airport,60.474935,-151.038471,US,US-AK,Soldotna
SYA,SYA,Eareckson Air Station,52.71229935,174.1139984,US,US-AK,Shemya
TAL,TAL,Ralph M Calhoun Memorial Airport,65.1744,-152.108994,US,US-AK,Tanana
TNC,TNC,Tin City Long Range Radar Station Airport,65.563103,-167.921997,US,US-AK,Tin City
TLA,TER,Teller Airport,65.24040222,-166.3390045,US,US-AK,Teller
TOG,TOG,Togiak Airport,59.052799,-160.397003,US,US-AK,Togiak Village
TKA,TKA,Talkeetna Airport,62.32049942,-150.0939941,US,US-AK,Talkeetna
TLJ,TLJ,Tatalina LRRS Airport,62.89440155,-155.977005,US,US-AK,Takotna
ATK,ATK,Atqasuk Edward Burnell Sr Memorial Airport,70.46704,-157.436013,US,US-AK,Atqasuk
AUK,AUK,Alakanuk Airport,62.682653,-164.722481,US,US-AK,Alakanuk
UMT,UMT,Umiat Airport,69.371101,-152.136002,US,US-AK,Umiat
UNK,UNK,Unalakleet Airport,63.888401,-160.798996,US,US-AK,Unalakleet
WOW,UUO,Willow Airport,61.7542,-150.052002,US,US-AK,Willow
KQA,7AK,Akutan Airport,54.14459,-165.604332,US,US-AK,Akutan
VAK,VAK,Chevak Airport,61.5409,-165.6005,US,US-AK,Chevak
KVC,KVC,King Cove Airport,55.116299,-162.266006,US,US-AK,King Cove
VDZ,VDZ,Valdez Pioneer Field,61.132712,-146.246567,US,US-AK,Valdez
VEE,VEE,Venetie Airport,67.008698,-146.365997,US,US-AK,Venetie
KVL,KVL,Kivalina Airport,67.734565,-164.559917,US,US-AK,Kivalina
WBQ,WBQ,Beaver Airport,66.362198,-147.406998,US,US-AK,Beaver
SWD,SWD,Seward Airport,60.130478,-149.418612,US,US-AK,Seward
WRG,WRG,Wrangell Airport,56.48429871,-132.3699951,US,US-AK,Wrangell
AIN,AWI,Wainwright Airport,70.638,-159.994995,US,US-AK,Wainwright
WMO,WMO,White Mountain Airport,64.689201,-163.412994,US,US-AK,White Mountain
WTK,WTK,Noatak Airport,67.561241,-162.980461,US,US-AK,Noatak
WWA,IYS,Wasilla Airport,61.571701,-149.539993,US,US-AK,Wasilla
YAK,YAK,Yakutat Airport,59.508717,-139.660435,US,US-AK,Yakutat
AKI,AKI,Akiak Airport,60.902646,-161.23106,US,US-AK,Akiak
AET,6A8,Allakaket Airport,66.551804,-152.621994,US,US-AK,Allakaket
NCN,C05,Chenega Bay Airport,60.077602,-147.99468,US,US-AK,Chenega
CLP,CLP,Clarks Point Airport,58.833698,-158.529007,US,US-AK,Clarks Point
ELI,ELI,Elim Airport,64.6147,-162.272003,US,US-AK,Elim
KUK,Z09,Kasigluk Airport,60.872747,-162.5247,US,US-AK,Kasigluk
KNK,9K2,Kokhanok Airport,59.433248,-154.80217,US,US-AK,Kokhanok
KOT,2A9,Kotlik Airport,63.030602,-163.533005,US,US-AK,Kotlik
KTS,KTS,Brevig Mission Airport,65.331826,-166.467848,US,US-AK,Brevig Mission
KYU,KYU,Koyukuk Airport,64.876099,-157.727005,US,US-AK,Koyukuk
KWT,KWT,Kwethluk Airport,60.790298,-161.444,US,US-AK,Kwethluk
ORV,D76,Robert (Bob) Curtis Memorial Airport,66.817902,-161.018997,US,US-AK,Noorvik
SKK,2C7,Shaktoolik Airport,64.371101,-161.223999,US,US-AK,Shaktoolik
TKJ,6K8,Tok Junction Airport,63.32949829,-142.9539948,US,US-AK,Tok
WSN,WSN,South Naknek Number 2 Airport,58.702362,-157.005444,US,US-AK,South Naknek
FYU,FYU,Fort Yukon Airport,66.571651,-145.249987,US,US-AK,Fort Yukon
PGM,PGM,Port Graham Airport,59.348355,-151.830025,US,US-AK,Port Graham
BKH,BKH,Barking Sands Airport,22.0228,-159.785004,US,US-HI,Kekaha
HDH,HDH,Kawaihapai Airfield,21.5795,-158.197006,US,US-HI,Mokuleia
HHI,HHI,Wheeler Army Airfield,21.481637,-158.037048,US,US-HI,Wahiawa
HNM,HNM,Hana Airport,20.795601,-156.014008,US,US-HI,Hana
HIK,HIK,Hickam Air Force Base,21.335278,-157.948333,US,US-HI,Honolulu
JHM,JHM,Kapalua Airport,20.9629,-156.673004,US,US-HI,Lahaina
JRF,JRF,Kalaeloa Airport,21.3074,-158.070009,US,US-HI,Kapolei
KOA,KOA,Ellison Onizuka Kona International Airport at Keahole,19.738783,-156.045603,US,US-HI,Kailua-Kona
LIH,LIH,Lihue Airport,21.976,-159.339005,US,US-HI,Lihue
LUP,LUP,Kalaupapa Airport,21.211,-156.973999,US,US-HI,Kalaupapa
MKK,MKK,Molokai Airport,21.152901,-157.095993,US,US-HI,Kaunakakai
MUE,MUE,Waimea Kohala Airport,20.001301,-155.667999,US,US-HI,Waimea (Kamuela)
NGF,NGF,Kaneohe Bay MCAS (Marion E. Carl Field) Airport,21.4505,-157.768005,US,US-HI,Kaneohe
HNL,HNL,Daniel K Inouye International Airport,21.32062,-157.924228,US,US-HI,"Honolulu, Oahu"
LNY,LNY,Lanai Airport,20.785675,-156.951324,US,US-HI,Lanai City
OGG,OGG,Kahului International Airport,20.896263,-156.431837,US,US-HI,Kahului
PAK,PAK,Port Allen Airport,21.8969,-159.602997,US,US-HI,Hanapepe
BSF,BSF,Bradshaw Army Airfield,19.760099,-155.554001,US,US-HI,Waimea (Kamuela)
ITO,ITO,Hilo International Airport,19.721399,-155.048004,US,US-HI,Hilo
UPP,UPP,Upolu Airport,20.265301,-155.860001,US,US-HI,Hawi
PIZ,PIZ,Point Lay LRRS Airport,69.732903,-163.005005,US,US-AK,Point Lay
RDV,RDV,Red Devil Airport,61.788101,-157.350006,US,US-AK,Red Devil
RMP,RMP,Rampart Airport,65.507896,-150.141007,US,US-AK,Rampart
LPS,S31,Lopez Island Airport,48.48389816,-122.9380035,US,US-WA,Lopez
SRV,SRV,Stony River 2 Airport,61.7897,-156.589005,US,US-AK,Stony River
SVS,SVS,Stevens Village Airport,66.016727,-149.056835,US,US-AK,Stevens Village
SXP,SXP,Nunam Iqua Airport,62.520599,-164.848006,US,US-AK,Nunam Iqua
TCT,TCT,Takotna Airport,62.993206,-156.029026,US,US-AK,Takotna
TLT,TLT,Tuluksak Airport,61.086973,-160.922842,US,US-AK,Tuluksak
TSG,TSG,Tanacross Airport,63.37440109,-143.3359985,US,US-AK,Tanacross
TYE,TYE,Tyonek Airport,61.076556,-151.131363,US,US-AK,Tyonek
DBS,U41,Dubois Municipal Airport,44.162057,-112.220581,US,US-ID,Dubois
RTL,0F3,Spirit Lake Municipal Airport,43.387501,-95.139198,US,US-IA,Okoboji
PQS,0AK,Pilot Station Airport,61.96169,-162.941944,US,US-AK,Pilot Station
WBB,WBB,Stebbins Airport,63.515999,-162.278,US,US-AK,Stebbins
WSM,WSM,Wiseman Airport,67.40460205,-150.1230011,US,US-AK,Wiseman
UKN,Y01,Waukon Municipal Airport,43.2804985,-91.46949768,US,US-IA,Waukon
KKI,Z13,Akiachak Airport,60.913809,-161.493329,US,US-AK,Akiachak
BCC,Z48,Bear Creek 3 Airport,63.57331604,-156.1494541,US,US-AK,Bear Creek
KBC,Z91,Birch Creek Airport,66.27400208,-145.8240051,US,US-AK,Birch Creek
CZC,Z93,Copper Center 2 Airport,61.943713,-145.299398,US,US-AK,Copper Center
ZNC,ZNC,Nyac Airport,60.98070145,-159.9940033,US,US-AK,Nyac